Sequence,PX ID,Policy Number,Contact,First Name,Last Name,Address 1,Address 2,City,State,ZIP5,ZIP4,CellPhoneUnformatted,CellPhoneFormatted,Email_Addresses
1,2780811,L7204372,Insured,STEPHEN,DOUTHWAITE,1 DOVECOTE LN,,MALVERN,PA,19355,3348,6105509523,(610) 550-9523,
2,2780811,L7204372,Owner,STEPHEN,DOUTHWAITE,1 DOVECOTE LN,,MALVERN,PA,19355,3348,6105509523,(610) 550-9523,
3,909232,YME0848615,Insured,NICHOLAS W,WEAVER,1 HARVEST MEWS,,NEWTOWN,PA,18940,,,,
4,826252,180567842,Insured,KENNETH,HYLE,1 SANDSTONE ROAD,,WESTFORD,MA,1886,,9739811595,(973) 981-1595,
5,844191,181004029,Insured,CHARLES,FAX,1 VISCAYA DRIVE,,BEAR,DE,19701,,,,cfaxsr46@verizon.net
6,439627,L8855747,Insured,PETER,DONAHUE,10 CARMINE RD,,NASHUA,NH,3063,3005,,,
7,934945,YME1326167,Insured,BRADFORD M,DUMONT,10 EMERSON RD,,Winchester,MA,1890,,,,
8,934945,YME1326167,Owner,BRADFORD M,DUMONT,10 EMERSON RD,,Winchester,MA,1890,,,,
9,889681,YME0281826,Insured,KARYN L,HILL,10 MCPARTLAND WAY,,E GREENWICH,RI,2818,,,,karynlhill@gmail.com
10,855492,UM0024408L,Insured,DOUGLAS,HARVEY,10 NORTH ST,,HOPKINTON,MA,1768,,,,
11,930791,UM0024409L,Insured,DOUGLAS,HARVEY,10 NORTH STREET,,HOPKINTON,MA,1768,,,,
12,829808,180432760,Insured,CARLA,LEONARDO,10 ORDWAY RD,,HUDSON,MA,1749,,,,carlamleonardo@earthlink.net
13,944400,180432762,Insured,PAUL,LEONARDO,10 ORDWAY RD,,HUDSON,MA,1749,,,,paulsleonardo@yahoo.com
14,859889,180297518,Insured,KEVIN,SNAKARD,10 SPRING MILL LANE,,COLLEGEVILLE,PA,19426,,,,
15,811684,181103876,Insured,HARRY,LEVY,100  SHAWAN RD,#370,HUNT VALLEY,MD,21030,,4105916591,(410) 591-6591,
16,811684,181103876,Owner,HARRY,LEVY,100  SHAWAN RD,#370,HUNT VALLEY,MD,21030,,4105916591,(410) 591-6591,
17,877688,YME0848955,Insured,PHILIP,NIVATPUMIN,100 BRANDON RD,,BALTIMORE,MD,21212,,6107623811,(610) 762-3811,
18,877688,YME0848955,Owner,PHILIP,NIVATPUMIN,100 BRANDON RD,,BALTIMORE,MD,21212,1127,6107623811,(610) 762-3811,
19,436717,4853708,Owner,PHILIP,NIVATPUMIN,100 BRANDON RD,,BALTIMORE,MD,21212,1127,6107623811,(610) 762-3811,
20,436718,4853708,Owner,PHILIP,NIVATPUMIN,100 BRANDON RD,,BALTIMORE,MD,21212,1127,6107623811,(610) 762-3811,
21,439301,L8718426,Insured,JOSEPH,PROFY,100 N 22ND ST APT 105,,PHILADELPHIA,PA,19103,1340,2158823112,(215) 882-3112,
22,841812,YME0487118,Insured,KEVIN D,SMITH,100 N CRANBERRY RD,,WESTMINSTER,MD,21157,,2405080318,(240) 508-0318,kndsmitties@aol.com
23,833558,4190010590,Insured,DIANE,TURNER,100 N CRANBERRY ROAD,,Westminster,MD,21157,,,,
24,833867,T400048346,Insured,THOMAS M,FITZPATRICK,100 PIER 4 BLVD UNIT 1113,,BOSTON,MA,2210,,4102450806,(410) 245-0806,
25,837808,180516959,Insured,DOUGLAS,SACKIN,100 ROSEDALE AVE,,MADISON,NJ,7940,,5709774953,(570) 977-4953,sackin@comcast.net
26,837809,180535008,Insured,DOUGLAS,SACKIN,100 ROSEDALE AVE,,MADISON,NJ,7940,,5709774953,(570) 977-4953,sackin@comcast.net
27,917331,180556482,Insured,JESSICA,ADELMAN,100 ROSEDALE AVE,,MADISON,NJ,7940,,3016138934,(301) 613-8934,
28,917332,180516954,Insured,JESSICA,ADELMAN,100 ROSEDALE AVE,,MADISON,NJ,7940,,3016138934,(301) 613-8934,
29,859653,B00921272,Insured,MEGHA,MENDIRATTA,1000 N RANDOLPH ST #607,,ARLINGTON,VA,22201,,2403815353,(240) 381-5353,MMENDIRATTA@HOTMAIL.COM
30,903144,B00675812,Insured,APRIL,JONES,1002 SITKA SPRUCE LN,,SYKESVILLE,MD,21784,7940,6103247101,(610) 324-7101,jonesx3@comcast.net
31,2323035,4220069121,Insured,BRENDAN,KENNEALEY,1005 N BANKCROFT PKWY,,Wilmington,DE,19805,,3027539225,(302) 753-9225,
32,2323035,4220069121,Owner,BRENDAN,KENNEALEY,1005 N BANKCROFT PKWY,,Wilmington,DE,19805,,3027539225,(302) 753-9225,
33,2383835,4220069120,Insured,NICOLE,DUFFY,1005 N BANKCROFT PKWY,,Wilmington,DE,19805,,,,
34,2383835,4220069120,Owner,NICOLE,DUFFY,1005 N BANKCROFT PKWY,,Wilmington,DE,19805,,,,
35,842041,4180008906,Insured,ZACHARY,HUNDLEY,1006 PLEASANT VALLEY RD,,Westminster,MD,21158,,,,
36,929179,YME0168919,Insured,KIMBERLY A,BURROUGHS,1008 DUCKETT FARM WAY,,GAMBRILLS,MD,21054,,,,
37,822582,YME0280831,Insured,KIMBERLY A,BURROUGHS,1008 DUCKETT FARM WAY,,Gambrills,MD,21054,,,,
38,440158,L8400073,Insured,DANIEL,LEVY,10088 HAT BRIM TER,,COLUMBIA,MD,21046,1318,,,nwlevy@aol.com
39,440162,L8400073,Insured,DANIEL,LEVY,10088 HAT BRIM TER,,COLUMBIA,MD,21046,1318,,,nwlevy@aol.com
40,827059,JJ7189401,Insured,DONALD RAY,DAVIS,101 BABBLING BROOK ESTATES,,MORGANTOWN,WV,26508,,,,
41,441008,V2473816,Owner,C/O AFSL,,101 E CHESAPEAKE AVE FL 5,,TOWSON,MD,21286,5338,,,
42,441060,V2636255,Owner,C/O AFSL,,101 E CHESAPEAKE AVE FL 5,,TOWSON,MD,21286,5338,,,
43,441008,V2473816,Insured,ROBERT,MARCUS,101 E CHESAPEAKE AVE FL 5,,TOWSON,MD,21286,5338,,,
44,441060,V2636255,Insured,ROBERT,MARCUS,101 E CHESAPEAKE AVE FL 5,,TOWSON,MD,21286,5338,,,
45,868686,TU3129324,Insured,THOMAS,MCCURDY,101 EASTERN BLVD,,BALTIMORE,MD,21221,7021,,,
46,907312,L7100808,Insured,WILLIAM,WILSON,1010 MILL RACE DR,,MARTINSBURG,WV,25401,9230,,,
47,859348,180607119,Insured,CHANNA,ABRAHAMS,1011 SCOTTS HILL DRIVE,,BALTIMORE,MD,21208,,,,
48,815663,180607120,Insured,MORDECHAI,ABRAHAMS,1011 SCOTTS HILL DRIVE,,PIKESVILLE,MD,21208,,,,
49,437957,82499716,Owner,,,1015 WILDA DRIVE,,,,,,,,
50,860538,YM00108519,Insured,MILLISA,WISEMAN,1016 SALUDA RIVER RD,,MYRTLE BEACH,SC,29588,,,,
51,832551,YM00108520,Insured,STEVEN M,WISEMAN,1016 SALUDA RIVER RD,,MYRTLE BEACH,SC,29588,,,,
52,810533,180511769,Insured,JOSEPH,BAUDEAN,1018 LOVE POINT RD,,STEVENSVILLE,MD,21666,,,,sambaudean@gmail.com
53,820779,YME0168400,Insured,KIMBERLY C,MIKULA,1019 ANDREWS LN,,PENNSBURG,PA,18073,,,,mikulatribe@comcast.net
54,939534,YME0729244,Insured,CURTIS N,RUSS,1019 ELM ST,,WILMINGTON,DE,19805,,2156513682,(215) 651-3682,OLDMAN0049@COMCAST.NET
55,828094,YME0372818,Insured,KIN C,WONG,102 MILLBURY ST,,GRAFTON,MA,1519,,,,
56,860516,YME0372819,Insured,MUN L,CHAN-WONG,102 MILLBURY ST,,GRAFTON,MA,1519,,,,
57,441109,L9358029,Insured,MARYELLEN,WALTON,102 WATERCREST DR,,DOYLESTOWN,PA,18901,3200,2158507282,(215) 850-7282,jonpolwal@gmail.com
58,859137,YME0168285,Insured,DAVID L,THURSTON,1021 VINEYARD HILL RD,,CATONSVILLE,MD,21228,,4102072202,(410) 207-2202,dlthurston611@aol.com
59,874277,YME0280585,Insured,TRICIA T,TRAN,10215 POHICK CREST DR,,FAIRFAX STA,VA,22039,,7035076636,(703) 507-6636,TRICIA.TRAN@GMAIL.COM
60,826755,4170030032,Insured,DESHA,BEDFORD,10227 DOTTYS WAY,,Columbia,MD,21044,,,,
61,2301274,TU5516106,Owner,,,1029 TEANECK RD STE 3D,3D,TEANECK,NJ,7666,4514,,,
62,2780654,L7206225,Insured,ELIZABETH,MONGIOVI,1030 BALLINTREE LN,,WEST CHESTER,PA,19382,6974,6107459282,(610) 745-9282,ELIZABETH.MONGIOVI@COMCAST.NET
63,2780825,L7205748,Insured,VINCENT,MONGIOVI,1030 BALLINTREE LN,,WEST CHESTER,PA,19382,6974,6107177169,(610) 717-7169,
64,2780825,L7205748,Owner,,,1030 BALLINTREE LN,,WEST CHESTER,PA,19382,6974,,,
65,2780654,L7206225,Owner,,,1030 BALLINTREE LN,,WEST CHESTER,PA,19382,6974,,,
66,817297,181217281,Insured,ELIZABETH,CAVALIER,10308 BROCK ROAD,,SPOTSYLVANIA,VA,22553,,5407975449,(540) 797-5449,bgcavalier@aol.com
67,817297,181217281,Owner,ELIZABETH,CAVALIER,10308 BROCK ROAD,,SPOTSYLVANIA,VA,22553,,5407975449,(540) 797-5449,bgcavalier@aol.com
68,855750,4180076280,Insured,MADAN,BANGALORE,10308 CONISTON CT,,Potomac,MD,20854,,3017756648,(301) 775-6648,
69,1935951,8000179288,Insured,MARTHA,CLARK,10380 CLARKSVILLE PIKE,,ELLICOTT CITY,MD,21042,,4109130985,(410) 913-0985,
70,833556,YME0730312,Insured,ROBIN J,EWELL,104 CROSSWIND DR,,SHREWSBURY,PA,17361,,,,robin-ted@comcast.net
71,924581,180594187,Insured,EDWARD,EWELL,104 CROSSWIND DRIVE,,SHREWSBURY,PA,17361,,4108085598,(410) 808-5598,
72,924581,180594187,Owner,EDWARD,EWELL,104 CROSSWIND DRIVE,,SHREWSBURY,PA,17361,,4108085598,(410) 808-5598,
73,855461,180850312,Insured,VICTORIA,MORRELL,104 GRACE LANE,,ASTON,PA,19014,,6104682007,(610) 468-2007,
74,835528,YME0729912,Insured,JENNIFER,GHEILER,104 OLD CROSSING DR,,PIKESVILLE,MD,21208,,,,eviann@hotmail.com
75,888933,B00743360,Insured,MURAJI,NAKAZANA,10420 VAN PATTEN LN,,GREAT FALLS,VA,22066,1857,7038557696,(703) 855-7696,knakazawa@gmail.com
76,820786,181430828,Insured,LAMONT,WRIGHT,105 FOREST ROAD,,GRASONVILLE,MD,21638,,2155107680,(215) 510-7680,offdahookx22@gmail.com
77,826053,180809567,Insured,SHEILA,HOLZMAN,105 FOX WELL BEND RD,,GLEN BURNIE,MD,21061,,,,
78,826053,180809567,Owner,SHEILA,HOLZMAN,105 FOX WELL BEND RD,,GLEN BURNIE,MD,21061,,,,
79,438795,L8533064,Insured,DAVID,ROSEN,105 GOTHARD RD,,LUTHVLE TIMON,MD,21093,5740,4109497846,(410) 949-7846,
80,438793,L8532982,Insured,SARA,ROSEN,105 GOTHARD RD,,LUTHVLE TIMON,MD,21093,5740,,,SVROSEN@GMAIL.COM
81,438793,L8532982,Owner,SARA,ROSEN,105 GOTHARD RD,,LUTHVLE TIMON,MD,21093,5740,,,SVROSEN@GMAIL.COM
82,832674,181384502,Insured,JESSICA,MORAN,105 PROSPECT HILL RD,,HARVARD,MA,1451,,,,
83,859986,180838479,Insured,ADRIENNE,CLOUGH,105 SUNDANCE PL,,CHAPEL HILL,NC,27514,,,,
84,859986,180838479,Owner,ADRIENNE,CLOUGH,105 SUNDANCE PL,,CHAPEL HILL,NC,27514,,,,
85,814779,180797626,Insured,JEFFREY,CLOUGH,105 SUNDANCE PL,,CHAPEL HILL,NC,27514,,9193231278,(919) 323-1278,jdclough02@gmail.com
86,917450,YME0847798,Insured,TIMOTHY A,RUMRILL,10515 DORCHESTER WAY,,WOODSTOCK,MD,21163,,,,rumsnoopy4@gmail.com
87,819657,YME0847797,Insured,TIMOTHY A,RUMRILL,10515 DORCHESTER WAY,,WOODSTOCK,MD,21163,,,,rumsnoopy4@gmail.com
88,859967,4170024859,Insured,CYNTHIA,BANKS,10530 OLD COURT RD,,Woodstock,MD,21163,,4104619663,(410) 461-9663,cyndiadu@gmail.com
89,852531,YME0728681,Insured,JESSICA D,RHODES,1056 WALGARMYR DR,,WESTMINSTER,MD,21158,,,,TOM1273@COMCAST.NET
90,807475,YME0728682,Insured,THOMAS M,RHODES,1056 WALGARMYR DR,,WESTMINSTER,MD,21158,,,,
91,893631,4189740022,Insured,CHANAY,WINKLER,106 BUTTONWOOD CT,,Rosedale,MD,21237,,4109052503,(410) 905-2503,CHANAYWINKLER@YAHOO.COM
92,858424,4189740023,Insured,KENNETH,GRIFFIN,106 BUTTONWOOD CT,,Rosedale,MD,21237,,4434537734,(443) 453-7734,KGGRIFFIN88@YAHOO.COM
93,919538,4170035962,Insured,JOHN,HERSH,106 GRAND VIEW CT,,Smithsburg,MD,21783,,,,
94,841608,4210010921,Insured,IRFANKHAN,PATHAN,106 STEWART ST,,Floral Park,NY,11001,,,,
95,883038,YM00174632,Insured,JONATHAN J,LEWIS,106 SWANHILL CT,,BALTIMORE,MD,21208,,,,JONNYLEWIS@VERIZON.NET
96,898160,180344205,Insured,MARYGRACE,CLARK,107 CHANCERY PL,,PLYMOUTH MEETING,PA,19462,,2672509491,(267) 250-9491,
97,943854,LU5533615,Insured,RICHARD,JAMES,107 WOLLASTON ST,,SPRINGFIELD,MA,1119,1639,,,
98,909797,10464815,Insured,MARY,MCMILLAN,10702 CONEFLOWER CT,,UPPER MARLBORO,MD,20772,6313,3018024544,(301) 802-4544,mcmillanlimo@verizon.net
99,909797,10464815,Owner,MARY,MCMILLAN,10702 CONEFLOWER CT,,UPPER MARLBORO,MD,20772,6313,3018024544,(301) 802-4544,mcmillanlimo@verizon.net
100,859654,B00921282,Insured,NATALLIA,SHOTASHVILI,10769 GLOXINIA DRIVE,,NORTH BETHESDA,MD,20852,,,,NSHOTASHVILI@YAHOO.COM
101,825957,YME0248260,Insured,RANDY G,SUMMERS SR,108 E LIBERTY ST,,OAKLAND,MD,21550,,,,
102,825957,YME0248260,Owner,RANDY G,SUMMERS SR,108 E LIBERTY ST,,OAKLAND,MD,21550,,,,
103,833815,YM00099623,Insured,DAWN,SUMMERS-TAKADA,1082 PALADIN PL,,SEWELL,NJ,8080,,3025210822,(302) 521-0822,
104,834635,4190022454,Insured,VIBHA,PUBBI,10830 HUNTING LANE,,Columbia,MD,21044,,,,vibhapubbisells@gmail.com
105,834635,4190022454,Owner,VIBHA,PUBBI,10830 HUNTING LANE,,Columbia,MD,21044,,,,vibhapubbisells@gmail.com
106,828305,180811558,Insured,JAMES,SHEARON,1086 WASHINGTON ROAD,,PITTSBURGH,PA,15228,,4124185131,(412) 418-5131,
107,821843,YME0487612,Insured,JAMES J,BRENNAN,1089 CREAMERY RD,,NEWTOWN,PA,18940,,2152877356,(215) 287-7356,
108,812528,YME0371010,Insured,MARIANNE C,BRENNAN,1089 CREAMERY RD,,NEWTOWN,PA,18940,,,,
109,875092,180800018,Insured,WALTER,RAFTOVICH,109 E GARRISON RD,,BROOKHAVEN,PA,19015,,,,
110,871816,YME0372737,Insured,JOANNE K,PETERSON,109 SOUTH DR,,NEWTOWN,PA,18940,,2152901686,(215) 290-1686,JOANNE.PETERSEN@GMAIL.COM
111,842648,YME0847811,Insured,OTIS,ROLLEY,109 W HUGHES ST,,Baltimore,MD,21230,,,,
112,828671,181112730,Insured,STEVEN,STRAH,109 WASHBURN AVE,,CAPITOLA,CA,95010,,7077181291,(707) 718-1291,samstrah@gmail.com
113,849789,YME0848610,Insured,DENISE M,PETTIECORD,1099 COUNTRY HILLS ROAD,,Yardley,PA,19067,,,,
114,921775,YME0848609,Insured,EVERETT G,PETTIECORD,1099 COUNTRY HILLS ROAD,,Yardley,PA,19067,,,,
115,834383,B00951164,Insured,STEVEN,MESSER,11 E CHASE ST APT 106,APT 202,BALTIMORE,MD,21202,3660,,,
116,837980,TU5402328,Insured,DEBORAH,CONNELL,11 EASTERN AVE,,WILLIAMSBURG,MA,1096,9702,4136954810,(413) 695-4810,
117,921467,UME164136L,Insured,ROGER,LAVOIE,11 OLD HOWARTH RD,,OXFORD,MA,1540,,,,
118,945722,UME164439L,Insured,MIRIAM,AZRAEL,11 OLD LYME RD,,LUTHERVILLE,MD,21093,,,,
119,862028,YME0849047,Insured,BRANDON,PERSOFSKY,11 SHADY LAWN DR,,SOUTHAMPTON,PA,18966,,2158521505,(215) 852-1505,
120,945420,YME1907178,Insured,CHARLES F,GEORGE,110 NINA LN,,FRUITLAND,MD,21826,,,,CHARLES.A.GEORGEII@GMAIL.COM
121,864943,YME0729669,Owner,JANET R,WALCZAK,110 SPA DR,,ANNAPOLIS,MD,21403,,4103534712,(410) 353-4712,ny36cheapred@gmail.com
122,864943,YME0729669,Insured,WILLIAM F,WALCZAK,110 SPA DR,,ANNAPOLIS,MD,21403,,,,walczakyacht@yahoo.com
123,2701103,BA569310471,Insured,STUART,DANKNER,11001 BARONET RD,"OWINGS MILLS, MD 21117",,,,,,,
124,882240,BA569310471,Insured,STUART,DANKNER,11001 BARONET RD,"OWINGS MILLS, MD 21117",,,,,,,
125,816251,YME0487877,Insured,JASON M,GOODMAN,1101 HARKINS RD,,PYLESVILLE,MD,21132,,4107031094,(410) 703-1094,
126,863022,YME0487878,Insured,ROBYN M,GOODMAN,1101 HARKINS RD,,PYLESVILLE,MD,21132,,7175754715,(717) 575-4715,
127,907279,4180056963,Insured,JONATHAN,EDELMAN,11012 NACIREMA LN,,Lutherville Timonium,MD,21093,,,,jonathanedelman@hotmail.com
128,907279,4180056963,Owner,JONATHAN,EDELMAN,11012 NACIREMA LN,,Lutherville Timonium,MD,21093,,,,jonathanedelman@hotmail.com
129,900533,YM00158366,Insured,JASON F,SEALING,1102 WICKFORD CT,,CROFTON,MD,21114,,,,
130,871814,180899201,Insured,JENNIFER,GARDI,1104 FAIRFAX STREET,,FAIRMONT,WV,26554,,,,
131,915821,TU5420573,Insured,RYAN,MCGRAW,1104 STEVENSON LANE,,TOWSON,MD,21286,,,,RKM1823@AOL.COM
132,942935,180690994,Insured,CECILIA,BURTNER,1105 THOROUGHBRED DR,SUITE 229,IRON STATION,NC,28080,,5404549843,(540) 454-9843,
133,830916,B00976937,Insured,ALBERT,COMEAU,11054 DORSCH FARM RD,,ELLICOTT CITY,MD,21042,6299,4107331877,(410) 733-1877,
134,864527,B00976872,Insured,BETH,COMEAU,11054 DORSCH FARM RD,,ELLICOTT CITY,MD,21042,6299,,,DRCOMEAU@BETHCOMEAUMD.COM
135,864526,TU5251818,Insured,BETH,COMEAU,11054 DORSCH FARM RD,,ELLICOTT CITY,MD,21042,6299,,,DRCOMEAU@BETHCOMEAUMD.COM
136,921960,YME0487119,Insured,SIMEON R,SHERMAN,1109 FAIRVIEW CT,,SILVER SPRING,MD,20910,,,,
137,441307,L9549162,Insured,BRIAN,KERR,111 BROWNING LN,,BRYN MAWR,PA,19010,1007,6105472438,(610) 547-2438,
138,830884,YME0168105,Insured,JOHN M,AVALLONE,111 LAFAYETTE AVE,,Annapolis,MD,21401,,,,
139,441046,L9335389,Insured,GREGORY,DUFFEY,11159 RINEHURST DRIVE,,WAYNESBORO,PA,17268,,7179771207,(717) 977-1207,jackie.duffey@gmail.com
140,441045,L9335389,Insured,GREGORY,DUFFEY,11159 RINEHURST DRIVE,,WAYNESBORO,PA,17268,,7179771207,(717) 977-1207,jackie.duffey@gmail.com
141,441104,L9356923,Insured,VITO,PETRONELLI,1118 CALVARY RD,,CHURCHVILLE,MD,21028,2014,4103031525,(410) 303-1525,
142,832955,180383701,Insured,BRYAN,LAIRD,112 DONEGAL COURT,,WINCHESTER,VA,22602,,,,
143,815228,5000020877,Insured,SANDRA,CARTER,112 NEWTOWN ROAD,,CHESTER,MD,21619,,,,
144,816905,YME1325873,Insured,STEVEN G,LASKEY,112 PENN ST,,NEWTOWN,PA,18940,,,,
145,817867,YME0248953,Insured,DENISE M,SANTARSIERO,1120 HOLLAND RD,,HOLLAND,PA,18966,,,,
146,441046,L9335389,Owner,C/O COMPANY OFFICER,,1120C PROFESSIONAL CT,,HAGERSTOWN,MD,21740,5852,,,
147,441045,L9335389,Owner,C/O COMPANY OFFICER,,1120C PROFESSIONAL CT,,HAGERSTOWN,MD,21740,5852,,,
148,440997,V2414446,Insured,JAX,AZIZ,11230 TERRACE LN,,FULTON,MD,20759,2466,,,
149,440998,V2414446,Insured,JAX,AZIZ,11230 TERRACE LN,,FULTON,MD,20759,2466,,,
150,883201,4170110514,Insured,FRANKIE,CORSI,11244 EASTWOOD DRIVE,,Hagerstown,MD,21742,,,,FRANKCOR321@GMAIL.COM
151,919539,4170035973,Insured,FRANKIE,CORSI,11244 EASTWOOD DRIVE,,Hagerstown,MD,21742,,,,FRANKCOR321@GMAIL.COM
152,823668,YME0730154,Insured,HEATHER,RAVANI,113 QUAIL RIDGE WAY,,MICKLETON,NJ,8056,,,,
153,860168,180616746,Insured,JOHN,GRECO,11320 COTSWOLD SPRING FARM LANE,,ELLICOTT CITY,MD,21042,,4014654574,(401) 465-4574,jgreco7765@gmail.com
154,860168,180616746,Owner,JOHN,GRECO,11320 COTSWOLD SPRING FARM LANE,,ELLICOTT CITY,MD,21042,,4014654574,(401) 465-4574,jgreco7765@gmail.com
155,861433,UME215973L,Insured,MIRAV,PATEL,11350 MCCORMICK RD,,HUNT VALLEY,MD,21031,,,,
156,817780,YM00112086,Insured,GARY B,SMITH,11362 HOMEWOOD RD,,ELLICOTT CITY,MD,21042,,4105308330,(410) 530-8330,
157,807903,YM00123690,Insured,STACIA,SMITH,11362 HOMEWOOD RD,,ELLICOTT CITY,MD,21042,,,,
158,832967,180724217,Owner,BROOKE,KEPNER,1137 PEIRCE ST,,PHILADELPHIA,PA,19148,,,,
159,832967,180724217,Insured,JOSHUA,KEPNER,1137 PEIRCE ST,,PHILADELPHIA,PA,19148,,,,
160,872816,TU5310737,Insured,BRIAN,LANTZ,114 GLORY LN,,FALLING WTRS,WV,25419,4325,,,boo_k_52@hotmail.com
161,930588,YME0487882,Insured,GREGORY L,HARE,114 WINEOW ST,,CUMBERLAND,MD,21502,,,,
162,2269653,TU5507759,Insured,JACOB,MARZOLF,1141 16TH ST. NE,UNIT 2,WASHINGTON,DC,20002,,3014614091,(301) 461-4091,
163,863966,180602432,Insured,PAMELA,MCCOURT,1142 POINT MOUNTAIN RD,,WEBSTER SPRINGS,WV,26288,,,,pmccourt@frontiernet.net
164,876684,180602435,Insured,SCOTT,MCCOURT,1142 POINT MOUNTAIN RD,,WEBSTER SPRINGS,WV,26288,,3046441115,(304) 644-1115,paytonmccourt@gmail.com
165,827639,180311477,Insured,FRANCES,LORENZI,11429 HIGH HAY DR,,COLUMBIA,MD,21044,,3017305634,(301) 730-5634,florenzi@yahoo.de
166,946030,180887405,Insured,ERIC,VILBERT,115 CHIPPENDALE LN,,PORT MATILDA,PA,16870,,,,
167,837607,YME0487988,Insured,TIFFANY C,KLUEBER,115 E BIDDLE ST # 2,,West Chester,PA,19380,,,,
168,865257,180427949,Insured,EDWARD,PHILLIPS,11505 FAWN LAKE PARKWAY,,SPOTSYLVANIA,VA,22551,,5408502895,(540) 850-2895,
169,841936,B00814924,Insured,DIANNA,ABNEY,11527 LOTTSFORD TERRACE,,MITCHELLVILLE,MD,20721,,3017307023,(301) 730-7023,deabney@aol.com
170,936041,181215221,Insured,MARK,GAGE,1155 SMALL OAK CT,,ELDERSBURG,MD,21784,,,,
171,865048,YME0280556,Insured,MARK R,GAGE,1155 SMALL OAKS CT,,ELDERSBURG,MD,21784,,4236769638,(423) 676-9638,mark.gage@att.net
172,896825,UME164095L,Insured,MARK,GAGE,1155 SMART OAK CT,,ELDERSBURG,MD,21784,,,,
173,918912,YME1906873,Insured,JAMES L,PETERSON,117 E DOVER ST UNIT 301,,EASTON,MD,21601,,9523340744,(952) 334-0744,
174,437052,6611612,Owner,PHOEBE,MULLINS,117 MEADE DR,,ANNAPOLIS,MD,21403,4015,,,
175,437053,6611613,Owner,TRAVIS,MULLINS,117 MEADE DR,,ANNAPOLIS,MD,21403,4015,,,
176,922799,YME0248186,Insured,ERIC,KREUSH,117 RUNNING FOX RD,,COLUMBIA,SC,29223,,,,jbkreush@hotmail.com
177,850588,4189740197,Insured,BEHNAZ,FAYAZI,11709 LE HAVRE DRIVE,,Potomac,MD,20854,,6143707071,(614) 370-7071,
178,825671,YME0372428,Insured,ARNOLD B,SHERMAN,11710 LOVEJOY ST,,SILVER SPRING,MD,20902,,,,ag.sherman@verizon.net
179,826427,YME0372427,Insured,GLORIA M,SHERMAN,11710 LOVEJOY ST,,SILVER SPRING,MD,20902,,,,
180,860570,4105529300,Insured,AMRITA,RAI,11715 PINDELL CHASE DRIVE,,FULTON,MD,20759,,,,
181,919571,4180020066,Insured,RUDRAJIT,RAI,11715 PINDELL CHASE DRIVE,,Fulton,MD,20759,,3015387155,(301) 538-7155,RRAI@GASTROMARYLAND.COM
182,919572,4180020094,Insured,RUDRAJIT,RAI,11715 PINDELL CHASE DRIVE,,Fulton,MD,20759,,3015387155,(301) 538-7155,RRAI@GASTROMARYLAND.COM
183,858859,YME1326471,Insured,JOSEPH P,LEDERMAN,11718 KEMP MILL RD,,SILVER SPRING,MD,20902,,,,JOE_LEDERMAN@YAHOO.COM
184,827061,YME1326472,Insured,VIDA F,YAZDI,11718 KEMP MILL RD,,SILVER SPRING,MD,20902,,,,vidafyazdi@yahoo.com
185,841127,YM00177681,Insured,SCOTT A,SELNICK,11874 FARSIDE RD,,ELLICOTT CITY,MD,21042,,,,
186,816283,YM00136449,Insured,DOMINIC M,PALACOROLLA,11890 TRIADELPHIA RD,,ELLICOTT CITY,MD,21042,,,,dmpunci@aol.com
187,2432489,V2800100,Insured,AARON,VAN WINGERDEN,11901 E PALMER DIVIDE AVE,,LARKSPUR,CO,80118,5009,,,
188,2432489,V2800100,Owner,AARON,VAN WINGERDEN,11901 E PALMER DIVIDE AVE,,LARKSPUR,CO,80118,5009,,,
189,436602,4798483,Owner,,,12 DANA DR,,WESTFORD,MA,1886,2047,,,
190,436610,4804474,Owner,,,12 DANA DR,,WESTFORD,MA,1886,2047,,,
191,861830,YM00174009,Insured,JAMI,WEBER,12 LARSON CIR,,BURLINGTON,MA,1803,,7819561901,(781) 956-1901,
192,861830,YM00174009,Owner,JAMI,WEBER,12 LARSON CIR,,BURLINGTON,MA,1803,,7819561901,(781) 956-1901,
193,807979,YM00175589,Insured,TIMOTHY R,WEBER,12 LARSON CIR,,BURLINGTON,MA,1803,,,,
194,827038,UM0024406L,Insured,STEVEN,HARVEY,12 NORTH ST,,HOPKINGTON,MA,1748,,5087261886,(508) 726-1886,kimfit@aol.com
195,855490,UM0024407L,Insured,STEVEN,HARVEY,12 NORTH STREET,,HOPKINGTON,MA,1748,,5087261886,(508) 726-1886,kimfit@aol.com
196,437335,6687184,Owner,DENNIS,BOYLAN,12 ROSEMORE CIR,,CHALFONT,PA,18914,2623,,,
197,815285,181211428,Insured,GARY,DEBLOIS,120 ELMDALE ROAD,,SCITUATE,RI,2857,,,,
198,904448,UME164256L,Insured,HARMON,MILLER,12014 RIDGE VALLEY DRIVE,,OWINGS MILLS,MD,21117,,,,
199,944407,T400196200,Insured,DIANE P L,SALTZMAN,12029 SMOKETREE RD,,POTOMAC,MD,20854,,,,diane.saltzman6@dell.com
200,439241,L8220749,Insured,JACOB,SIEGEL,1204 ROXBURY DR APT 3A,,LOS ANGELES,CA,90035,1024,,,
201,908319,YME0730238,Insured,RACHEL B,SIEGEL,1204 ROXBURY DR UNIT 3A,,LOS ANGELES,CA,90035,,,,
202,861061,YME0248666,Insured,PATRICK M,NUGENT,1205 DOVES COVE RD,,TOWSON,MD,21286,,,,
203,849642,YME0848620,Insured,MICHAEL,MCCLOUD,12077 KINSLEY PL,,Reston,VA,20190,,,,
204,886541,YME0848405,Insured,MICHAEL C,MCCLOUD,12077 KINSLEY PL,,Reston,VA,20190,,2024397607,(202) 439-7607,
205,2331546,TU5515200,Insured,JODI,MILLER,1209 OLD DORSEY RD,,HARMANS,MD,21077,1501,,,
206,2830769,N11040299,Insured,SAMUEL,FLEGMANN,121 RAND PL,,LAWRENCE,NY,11559,1326,,,
207,2830769,N11040299,Owner,SAMUEL,FLEGMANN,121 RAND PL,,LAWRENCE,NY,11559,1326,,,
208,823174,YME0728829,Insured,JOHN E,HEBERT,1211 BARLEY MILL RD,,WILMINGTON,DE,19807,,4155965665,(415) 596-5665,
209,823174,YME0728829,Owner,JOHN E,HEBERT,1211 BARLEY MILL RD,,WILMINGTON,DE,19807,,4155965665,(415) 596-5665,
210,817197,YME1325864,Insured,WANDA J,GRIEBEL,1211 JEFFERSON AVE,,ST MICHAELS,MD,21663,,4104585038,(410) 458-5038,
211,854801,181341831,Insured,KEVIN,QUINN,1212 BERNOUDY ROAD,,WHITE HALL,MD,21161,,,,KSQUINN32@GMAIL.COM
212,926724,181341836,Insured,SALLY,QUINN,1212 BERNOUDY ROAD,,WHITE HALL,MD,21161,,2022851599,(202) 285-1599,
213,819241,181032296,Insured,VICTORIA,VIDAL,12133 BEAVER CREEK ROAD,,CLIFTON,VA,20124,,7035862210,(703) 586-2210,
214,905106,180353800,Insured,FRANCESCO,TALIANO,12139 GRAY STAR WAY,,COLUMBIA,MD,21044,,,,
215,437097,6620134,Owner,DARREN,RICE,1215 WINTERTHUR LN,,QUAKERTOWN,PA,18951,5234,,,drice-navy@hotmail.com
216,437098,6620135,Owner,ERIN,RICE,1215 WINTERTHUR LN,,QUAKERTOWN,PA,18951,5234,6105367423,(610) 536-7423,
217,848688,YME1325733,Insured,LAWRENCE B,ARONHIME,122 WALDRON AVE,,Pikesville,MD,21208,,,,LSA2100@HOTMAIL.COM
218,830880,YME0847732,Insured,STACEY,FRADKIN,12238 TILDENWOOD DR,,ROCKVILLE,MD,20852,,,,
219,908577,YME0168704,Insured,AMIR H,ZOLFAGHARI,12255 LONGLEAF LN,,DUNKIRK,MD,20754,,,,AMIRZOLF@YAHOO.COM
220,828601,181067824,Insured,JEAN,GILMAN,12290 GREEN MEADOW DR,STE 110,COLUMBIA,MD,21044,,,,
221,933290,TU3135829,Insured,MARIA,ANDERSON,1230 CRUMMELL AVE,,ANNAPOLIS,MD,21403,4667,,,
222,933289,B00957525,Insured,MARIA,ANDERSON,1230 CRUMMELL AVE,,ANNAPOLIS,MD,21403,4667,,,
223,813121,10465019,Insured,DONALD,KNOTTS,1230 MARQUESS RD,,TUNNELTON,WV,26444,8910,,,paulaknotts1@gmail.com
224,829179,180472203,Insured,KHOI,TRAN,12301 CHERRY BRANCH DRIVE,,CLARKSBURG,MD,20871,,6824724448,(682) 472-4448,KDAO2000@HOTMAIL.COM
225,866830,YME0372151,Insured,BARBARA A,ROSENBAUM,12304 CLEMENT LN,,Silver Spring,MD,20902,,,,barbara.rosenbaum@capgemini.com
226,863934,181129982,Insured,NEIL,VICKS,1231 CEDAR CROFT RD,,BALTIMORE,MD,21239,,,,
227,827305,180604810,Insured,JESSICA,SMITH,1236 N GORSUCH ROAD,,WESTMINSTER,MD,21157,,,,jessicahorrigan@gmail.com
228,893290,180496829,Insured,PARITOSH,BHONDELE,12374 CARMEL COUNTRY RD,UNIT 302,SAN DIEGO,CA,92130,,3156013008,(315) 601-3008,PMBHONDELE@GMAIL.COM
229,833128,YME0248348,Insured,SCOTT A,HOSTETLER,12408 BUTLER DR NW,,LAVALE,MD,21502,,,,backhome443@gmail.com
230,833128,YME0248348,Owner,SCOTT A,HOSTETLER,12408 BUTLER DR NW,,LAVALE,MD,21502,,,,backhome443@gmail.com
231,821783,180306130,Insured,CONSTANCE,MURPHY,1245 ANDERS RD,,LANSDALE,PA,19446,,2155277945,(215) 527-7945,
232,808619,YME1326486,Insured,CHRISTOPHER E,DOLCH,1248 Max Lane,,Mount Pleasant,SC,29466,,,,
233,438207,9505857,Owner,COLIN,FEULING,12501 ASHLEIGH OAKS CT,,HERNDON,VA,20171,1748,,,colin.feuling@aol.com
234,900525,YME0728645,Insured,PAUL O,MURPHY,12510 HARFORD RD,,HYDES,MD,21082,,,,PAULEMURPHY56@GMAIL.COM
235,919868,180958115,Insured,DAWN,JONES,12513 MASSEY RD,,MASSEY,MD,21650,,,,
236,828698,180800016,Insured,CHRISTINE,RAFTOVICH,126 E BROOKHAVEN RD,,BROOKHAVEN,PA,19015,,6102464155,(610) 246-4155,meeppers123@aol.com
237,920846,4190165378,Insured,JUDITH,MARCUS,12618 DOVER RD,,Reisterstown,MD,21136,,,,jgmanemone@aol.com
238,837609,YME0847936,Insured,STEPHEN L,WENGER,12643 GOLDEN OAK DR,,Ellicott City,MD,21042,,,,
239,864701,ME7086914,Insured,WILLIAM BRUCE,GRANT,127 W PENNINGTON ST,,OAKLAND,MD,21550,,,,
240,830321,181264926,Insured,DENISE,SNYDER,128 KOHLERS HILL ROAD,,KUTZTOWN,PA,19530,,,,
241,912729,181137315,Insured,BRANDON,CORREIA,128 WELLESLEY DRIVE,,SOMERSET,MA,2726,,7743200602,(774) 320-0602,
242,808264,YME0372330,Insured,LISA L,LEBOW,12815 FALLS RD,,COCKEYSVILLE,MD,21030,,,,
243,892024,TU5391783,Insured,SCOTT,STOTTLEMYER,12830 QUIRAUK SCHOOL RD,,SABILLASVILLE,MD,21780,8302,,,
244,900520,TU5391780,Insured,SCOTT,STOTTLEMYER,12830 QUIRAUK SCHOOL ROAD,,SABILLASVILLE,MD,21780,,,,
245,2231441,TU5482130,Insured,ARON,KAUFMAN,129 DOWNING ST,,LAKEWOOD,NJ,8701,1457,,,
246,876058,4190109839,Insured,JOSHUA,WEISS,12A TENNYSON PL,,Passaic,NJ,7055,,,,
247,824940,180558195,Insured,CARL,HOOVER,13 HAGGERTY RD,,POTSDAM,NY,13676,,,,
248,824940,180558195,Owner,CARL,HOOVER,13 HAGGERTY RD,,POTSDAM,NY,13676,,,,
249,864960,180578154,Insured,BYRON,WARNKEN,13 RAISIN TREE CIR,,PIKESVILLE,MD,21208,,,,byron717@gmail.com
250,864961,180578149,Insured,MANDY,CHERRY,13 RAISIN TREE CIR,,PIKESVILLE,MD,21208,,,,
251,820776,180435036,Insured,SARAH,BEARD,130 WOOD STREET,,WESTERNPORT,MD,21562,,,,
252,436451,4742323,Owner,,,1300 W STRASBURG RD,,WEST CHESTER,PA,19382,1632,,,
253,941590,181014382,Insured,KAYLIE,BOYD,13006 DRY RIDGE RD.,,FLINTSTONE,MD,21530,,2405800132,(240) 580-0132,
254,945552,YME0168620,Insured,BOB,MATHEWS,13007 HIGHGROVE RD,,HIGHLAND,MD,20777,,,,
255,815492,YME0280730,Insured,DEBORA,ROSE STEWART,13016 GENT RD,,REISTERSTOWN,MD,21136,,4102998033,(410) 299-8033,
256,815492,YME0280730,Owner,DEBORA,ROSE STEWART,13016 GENT RD,,REISTERSTOWN,MD,21136,,4102998033,(410) 299-8033,
257,858742,YME0248307,Insured,SEWELL A,BROWN,1306 GATESHEAD RD,,TOWSON,MD,21286,,4104993936,(410) 499-3936,
258,943845,181056062,Insured,ELLIOT,LANDES,1306 SOUTH SECOND STREET,,PHILADELPHIA,PA,19147,,2674566556,(267) 456-6556,elliotlandes@gmail.com
259,943846,181056069,Insured,MORGAN,LANDES,1306 SOUTH SECOND STREET,,PHILADELPHIA,PA,19147,,7324921363,(732) 492-1363,
260,842373,NT10016749,Insured,AMBER J,HACKETT,1308 ARABIS CT,,BELCAMP,MD,21017,,8126399884,(812) 639-9884,IKAYSCHULZ@GMAIL.COM
261,1956496,TU5471263,Insured,KENNETH,FRENCH,13130 HANOVER PIKE,,REISTERSTOWN,MD,21136,4704,4436775776,(443) 677-5776,
262,1956514,TU5471256,Insured,TRACEY,FRENCH,13130 HANOVER PIKE,,REISTERSTOWN,MD,21136,4704,,,
263,807103,YME0487997,Insured,MARY E,ALBERT,1314 BERWICK RD,,RUXTON,MD,21204,,,,LIZALBERT@COMCAST.NET
264,439241,L8220749,Owner,,,1318 MIDWOOD PL,,SILVER SPRING,MD,20910,1645,,,
265,847976,4180136297,Insured,SHALOM,SHORE,1321 UPLAND DR APT 9944,,Houston,TX,77043,,,,
266,847976,4180136297,Owner,SHALOM,SHORE,1321 UPLAND DR APT 9944,,Houston,TX,77043,,,,
267,947822,B00960283,Insured,CHRISTINE,KELLY,13235 OLD HANOVER RD,,REISTERSTOWN,MD,21136,,4432503425,(443) 250-3425,
268,440668,L9967534,Owner,,,1325 G ST NW STE 500,STE 201,WASHINGTON,DC,20005,3136,,,
269,438442,9568177,Owner,,,1325 G ST NW STE 500,STE 201,WASHINGTON,DC,20005,3136,,,
270,923507,YME0847983,Insured,ARIEL S,WOLF,1325 IRIS ST NW,,WASHINGTON,DC,20012,,4104919360,(410) 491-9360,AWOLF7405@GMAIL.COM
271,814898,YME1906832,Insured,MICHAEL,FINN,133 Defense Highway,Suite 209,Annapolis,MD,21401,,,,
272,818785,181112988,Insured,DANIEL,BANGERT KORPON,133 DOWNING DRIVE,,SEVERNA PARK,MD,21146,,,,
273,907546,181112984,Insured,LAURA,KORPON,133 DOWNING DRIVE,,SEVERNA PARK,MD,21146,,,,A.LAURA.E@GMAIL.COM
274,808787,4190036680,Insured,CHAD,SLUTZKY,1332 GABRIEL LANE,,WARWICK,PA,18974,,9178560197,(917) 856-0197,
275,808787,4190036680,Owner,CHAD,SLUTZKY,1332 GABRIEL LANE,,WARWICK,PA,18974,,9178560197,(917) 856-0197,
276,822813,YME0849605,Insured,PATRIZIA S,THOMAS,13400 POLO RD W APT C204,,Wellington,FL,33414,,,,PATRIZIA2419@GMAIL.COM
277,883201,4170110514,Owner,,,1344 WESEL BLVD,,Hagerstown,MD,21740,,,,
278,883200,PL0946162,Owner,,,1344 WESEL BLVD,,HAGERSTOWN,MD,21740,5384,,,
279,842175,180530355,Insured,NICK,CIOTTI,1347 W 41ST ST,,BALTIMORE,MD,21211,,,,
280,842176,180530356,Insured,NICK,CIOTTI,1347 W 41ST ST,,BALTIMORE,MD,21211,,,,
281,440921,V2174900,Insured,JAMES,BISHOP,1349 TRAPPE RD,,STREET,MD,21154,2021,4107462220,(410) 746-2220,JIMBISHOP83@GMAIL.COM
282,440920,V2174900,Insured,JAMES,BISHOP,1349 TRAPPE RD,,STREET,MD,21154,2021,4107462220,(410) 746-2220,JIMBISHOP83@GMAIL.COM
283,820999,T400160793,Insured,MARTIN,MCCOURT,1355 SPLASHING BROOK CT,,ELDERSBURG,MD,21784,,3013708220,(301) 370-8220,mccourtmartin@aol.com
284,927321,4210008615,Insured,CHAVY,FEDER,1362 E 38TH ST,,Brooklyn,NY,11234,,8452225125,(845) 222-5125,chavyf98@gmail.com
285,823687,4180030412,Insured,ALLISON ASHLEY,MATHIS,13627 FOX STREAM WAY,,West Friendship,MD,21794,,,,
286,807436,4180030965,Insured,JOSEPH,MATHIS,13627 FOX STREAM WAY,,WEST FRIENDSHIP,MD,21794,,,,joemathis@gmail.com
287,813109,YM00075447,Insured,ERIC,YOUNKIN,13635 OTONO DR,,Mount Airy,MD,21771,,7037950963,(703) 795-0963,
288,813110,YM00017797,Insured,ERIC,YOUNKIN,13635 OTONO DR,,Mount Airy,MD,21771,,7037950963,(703) 795-0963,
289,813109,YM00075447,Owner,ERIC,YOUNKIN,13635 OTONO DR,,Mount Airy,MD,21771,,7037950963,(703) 795-0963,
290,813110,YM00017797,Owner,ERIC,YOUNKIN,13635 OTONO DR,,Mount Airy,MD,21771,,7037950963,(703) 795-0963,
291,863834,YM00159913,Insured,GWENN D,CRUPI,13700 MILBERT RIDGE DR,,BALDWIN,MD,21013,,,,
292,806575,YME0371297,Insured,KEISHA,JUDD,13714 WYE RIVER DR,,DAYTON,MD,21036,,,,KBRUNEY@HOTMAIL.COM
293,935506,B01003778,Insured,JOHN,HORNE,13720 BALDWIN MILL,,ROAD BALDWIN,MD,21013,,,,
294,935505,B01007133,Insured,JOHN,HORNE,13720 BALDWIN MILL ROAD,,BALDWIN,MD,21013,,,,
295,922859,YME0848689,Insured,ROBERT G,SIMS,138 LONGSHORE AVE,,YARDLEY,PA,19067,,,,
296,938958,181070564,Owner,,,138 N QUINSIGAMOND AVE,,SHREWSBURY,MA,1545,,,,
297,822075,4170142950,Insured,DUSTIN,YOON,13811 Goosefoot Ter,,Rockville,MD,20850,,7143187811,(714) 318-7811,
298,822074,4170142954,Insured,DUSTIN,YOON,13811 Goosefoot Ter,,Rockville,MD,20850,,7143187811,(714) 318-7811,
299,859513,4209570199,Insured,GWENDOLYN,MONTALVO,13851 PALMER HOUSE WY,,Silver Spring,MD,20904,,,,
300,859513,4209570199,Owner,GWENDOLYN,MONTALVO,13851 PALMER HOUSE WY,,Silver Spring,MD,20904,,,,
301,833812,4179886676,Insured,ANDREW,GOLDMAN,14 AVENUE ERNEST HENTSCH 2ND FLR,,GENEVA,,,,,,
302,854802,YME0371710,Insured,LEE I,BLECHER,14 CANFIELD CT,,POTOMAC,MD,20854,,,,
303,917368,180991949,Insured,MICHAEL,NASIF,14 FIRESIDE ROAD,,OAKLAND,MD,21550,,,,
304,848091,YM00157007,Insured,JOANNE B,GALLAGHER,14 HARP RD,,LEVITTOWN,PA,19056,,,,
305,864600,YME0729980,Insured,JOHN H,GALLAGHER,14 HARP RD,,LEVITTOWN,PA,19056,,2673558330,(267) 355-8330,
306,864600,YME0729980,Owner,JOHN H,GALLAGHER,14 HARP RD,,LEVITTOWN,PA,19056,,2673558330,(267) 355-8330,
307,927468,180482213,Insured,CASSIA,FREITAS,14 MARYCHRIS DRIVE,,HUDSON,MA,1749,,5086671698,(508) 667-1698,
308,811475,180482218,Insured,STEVEN,FREITAS,14 MARYCHRIS DRIVE,,HUDSON,MA,1749,,,,stevenfreitas@aol.com
309,903429,0000M59201,Insured,ELENA,ANZALONE,14 MASSAPOAG RD,,LEOMINSTER,MA,1453,,,,
310,865772,YME0849502,Insured,ANDREA,PAGE,14 S CHANCELLOR ST,,NEWTOWN,PA,18940,,,,
311,847970,YME1326341,Insured,DANA,LIVNE,14 WINDSONG CT,,BALTIMORE,MD,21208,,,,danalivne@yahoo.com
312,884433,YME0729667,Insured,ITAI,LIVNE,14 WINDSONG CT,,BALTIMORE,MD,21208,,,,ITAILIVNE@GMAIL.COM
313,808621,4170170831,Insured,THOMAS,SHOWALTER,1400 FOREST HILL AVE,,Baltimore,MD,21230,,,,
314,818145,YME1713564,Owner,,ALEXANDER MICHAEL JOSOWITZ 2022 IRR,1400 FRONT AVE SUITE 202,,Lutherville,MD,21093,,,,
315,883365,4180144857,Insured,THOMAS,STEM,1403 FOX GAP COURT,,Fallston,MD,21047,,,,
316,931864,YME0168157,Insured,VICKY LYN,EBERHART,14066 WHITMORE CIR,,OMAHA,NE,68142,,,,
317,931864,YME0168157,Owner,VICKY LYN,EBERHART,14066 WHITMORE CIR,,OMAHA,NE,68142,,,,
318,939003,YME1906529,Insured,MATTHEW J,KLEIN,1408 HOLLOW DR,,DOWNINGTOWN,PA,19335,,4845742902,(484) 574-2902,
319,939003,YME1906529,Owner,MATTHEW J,KLEIN,1408 HOLLOW DR,,DOWNINGTOWN,PA,19335,,4845742902,(484) 574-2902,
320,836370,YME1907075,Insured,TRACY A,KLEIN,1408 HOLLOW DR,,DOWNINGTOWN,PA,19335,,2012132794,(201) 213-2794,
321,943335,YM00122062,Insured,DOUGLAS J,GAIDA,1409 BENTLEY DR,,WARRINGTON,PA,18976,,2676642034,(267) 664-2034,
322,943335,YM00122062,Owner,DOUGLAS J,GAIDA,1409 BENTLEY DR,,WARRINGTON,PA,18976,,2676642034,(267) 664-2034,
323,817289,10465118,Insured,MARY,LEWIS,141 HENRY CLAY DR,,OAKLAND,MD,21550,8025,,,
324,811694,10465119,Insured,PAUL,LEWIS,141 HENRY CLAY DR,,OAKLAND,MD,21550,8025,,,
325,2267279,TU5499466,Insured,STACY,ROGERS,141 MEADOW RIDGE TOWNHOMES,,MORGANTOWN,WV,26505,3079,3046950334,(304) 695-0334,stacy.g.rogers@gmail.com
326,2267279,TU5499466,Owner,STACY,ROGERS,141 MEADOW RIDGE TOWNHOMES,,MORGANTOWN,WV,26505,3079,3046950334,(304) 695-0334,stacy.g.rogers@gmail.com
327,860191,YME0248418,Insured,EMILY S,KAUFMAN,1410 MALVERN AVE,,TOWSON,MD,21204,,4103362284,(410) 336-2284,
328,816694,YME0728551,Insured,LISA M,LANE,1410 RAYVILLE RD,,PARKTON,MD,21120,,,,
329,825589,YME0427896,Insured,FREDERICK L,ELRICK,14105 ROBCASTE RD,,PHOENIX,MD,21131,,,,
330,864611,YME0248488,Insured,SHERRI L,ELRICK,14105 ROBCASTE RD,,PHOENIX,MD,21131,,,,
331,895543,180591678,Insured,SHANE,HANCOCK,1416 BANKERT TERRACE,,ABINGDON,MD,21009,,4103037094,(410) 303-7094,
332,836619,180516952,Insured,KRISTEL,KASTENDIKE,14204 SAWMILL COURT,,PHOENIX,MD,21131,,4103039832,(410) 303-9832,
333,836619,180516952,Owner,KRISTEL,KASTENDIKE,14204 SAWMILL COURT,,PHOENIX,MD,21131,,4103039832,(410) 303-9832,
334,903228,4170165396,Insured,ERIC,KASTENDIKE,14204 SAWMILL CT,,Phoenix,MD,21131,,4109913744,(410) 991-3744,ekast@dii-insurance.com
335,440880,V2059140,Insured,STEPHEN,KEELTY,14221 GREENCROFT LN,,HUNT VALLEY,MD,21030,1111,4432753829,(443) 275-3829,
336,440502,L8454261,Insured,STEPHEN,KEELTY,14221 GREENCROFT LN,,HUNT VALLEY,MD,21030,1111,4432753829,(443) 275-3829,
337,440501,L8454261,Insured,STEPHEN,KEELTY,14221 GREENCROFT LN,,HUNT VALLEY,MD,21030,1111,4432753829,(443) 275-3829,
338,440879,V2059140,Insured,STEPHEN,KEELTY,14221 GREENCROFT LN,,HUNT VALLEY,MD,21030,1111,4432753829,(443) 275-3829,
339,440880,V2059140,Owner,,,14221 GREENCROFT LN,,HUNT VALLEY,MD,21030,1111,,,
340,440502,L8454261,Owner,,,14221 GREENCROFT LN,,HUNT VALLEY,MD,21030,1111,,,
341,440501,L8454261,Owner,,,14221 GREENCROFT LN,,HUNT VALLEY,MD,21030,1111,,,
342,440879,V2059140,Owner,,,14221 GREENCROFT LN,,HUNT VALLEY,MD,21030,1111,,,
343,817294,YME1326325,Insured,GREGORY B,FULLERTON,1430 S PLEASANT VALLEY RD,,WESTMINSTER,MD,21158,,,,
344,825825,YME1326326,Insured,NICOLE P,FULLERTON,1430 S PLEASANT VALLEY RD,,WESTMINSTER,MD,21158,,,,nicofllrt@aol.com
345,937509,4179886990,Insured,CHRISTOPHER,CASTILLO,14301 ASHDALE WAY,,Chesterfield,VA,23832,,8044504555,(804) 450-4555,
346,943978,4179886991,Insured,MELODY,CASTILLO,14301 ASHDALE WAY,,Chesterfield,VA,23832,,8046158550,(804) 615-8550,
347,440709,L8492413,Insured,JOSEPH,SKOCZELAK,14330 LIBERTY RD,,MOUNT AIRY,MD,21771,9505,,,
348,439638,L8859906,Insured,REBEKAH,SKOCZCLAK,14330 LIBERTY RD,,MOUNT AIRY,MD,21771,9505,3072872405,(307) 287-2405,
349,439638,L8859906,Owner,REBEKAH,SKOCZCLAK,14330 LIBERTY RD,,MOUNT AIRY,MD,21771,9505,3072872405,(307) 287-2405,
350,2301274,TU5516106,Insured,SANDRA,CONTRERAS,"144 CLIFTON AVE,",2ND FLOOR,CLIFTON,NJ,7011,,2016388583,(201) 638-8583,
351,849902,180990293,Insured,GIRARD,DAVIDSON,144 LAFAYETTE AVENUE,,ANNAPOLIS,MD,21401,,3012670555,(301) 267-0555,sikstix64@hotmail.com
352,1093126,TU5412035,Insured,ROBERT,LYONS JR,144 WILD OAK RD,,SEVERNA PARK,MD,21146,,4109847522,(410) 984-7522,
353,2331546,TU5515200,Owner,JODI,MILLER,1441 BAY HEAD RD,,ANNAPOLIS,MD,21409,5708,,,
354,927315,YME0281773,Insured,BRIAN E,WILT,145 FRANCIS SANDERS DR W,,OAKLAND,MD,21550,,,,
355,837411,YME0281774,Insured,TRISHA E,WILT,145 FRANCIS SANDERS DR W,,OAKLAND,MD,21550,,3016160836,(301) 616-0836,devgisit@gmail.com
356,874618,180779755,Insured,MATTHEW,REARDON,145 PINCKNEY STREET,APT 529,BOSTON,MA,2114,,,,
357,932919,180504425,Insured,ABRAM,KREBS,145 WAVERLY LANE,,HARLEYSVILLE,PA,19438,,,,
358,823527,YME0168471,Insured,PATRICIA L,PARK,1454 MIDDLETOWN RD,,ANNAPOLIS,MD,21409,,,,
359,836389,181535406,Insured,STEPHEN,BONO,14557 MACCINTOCK DRIVE,,GLENWOOD,MD,21738,,,,ISE-WEB@SECURITYEVALUATORS.COM
360,945421,YME0371827,Insured,OWEN B,JONES,146 CENTER MILL RD,,CHADDS FORD,PA,19317,,,,REALESTATEGUY1969@GMAIL.COM
361,827309,B00886427,Insured,JASON,LEE-LLACER,14604 PARKGATE DR,,LAUREL,MD,20707,3130,,,
362,837758,YME1906830,Insured,JASON M,LEE LLACER,14604 PARKGATE DR,,LAUREL,MD,20707,,,,JASONLEELLACER@HOTMAIL.COM
363,2831181,TU5593142,Insured,BETHANY,MCNAIR,14641 BATTERY RIDGE LN,,CENTREVILLE,VA,20120,2889,5714058746,(571) 405-8746,BETHANY.MCNAIR@GMAIL.COM
364,2831181,TU5593142,Owner,BETHANY,MCNAIR,14641 BATTERY RIDGE LN,,CENTREVILLE,VA,20120,2889,5714058746,(571) 405-8746,BETHANY.MCNAIR@GMAIL.COM
365,825699,UME215980L,Insured,ELIZABETH,ZIMMERMAN,14689 OAK ORCHARD RD,,NEW WINDSOR,MD,21776,,4698797086,(469) 879-7086,rebarzee@aol.com
366,955164,US00002789,Insured,ELIZABETH,ZIMMERMAN,14689 OAK ORCHARD RD,,NEW WINDSOR,MD,21776,7711,4698797086,(469) 879-7086,rebarzee@aol.com
367,817291,YME0849785,Insured,SUSAN D,STEWART,147 CANVASBACK LN,,LANGHORNE,PA,19047,,,,
368,817291,YME0849785,Owner,SUSAN D,STEWART,147 CANVASBACK LN,,LANGHORNE,PA,19047,,,,
369,818103,YME0730308,Insured,ALEX,PLESSETT,147 CHINABERRY DR,,LAFAYETTE HL,PA,19444,,6102561296,(610) 256-1296,PLESSETT@COMCAST.NET
370,2796275,N11038833,Insured,DANIEL,KLEIN,147-26 71ST AVE,,FLUSHING,NY,11367,,,,daniel.leo.klein@gmail.com
371,2796275,N11038833,Owner,DANIEL,KLEIN,147-26 71ST AVE,,FLUSHING,NY,11367,,,,daniel.leo.klein@gmail.com
372,933982,YME0280885,Insured,SHARI L,WEINSTEIN,14716 DUNLEITH ST,,NORTH POTOMAC,MD,20878,,3013709880,(301) 370-9880,shariweinstein@gmail.com
373,820180,181461796,Insured,BRIAN,GLADHILL,14738 HICKSVILLE RD,,CLEAR SPRING,MD,21722,,,,bgladhil@gmail.com
374,876691,180464078,Insured,WILLIAM,VUCINA,14814 CHESTNUT CT,,GLENELG,MD,21737,,,,
375,847741,B00793820,Insured,HARJEET,MANGAT,149 FORGE DR,,LEBANON,PA,17042,9822,5705277846,(570) 527-7846,
376,816769,YME0729267,Insured,TIMOTHY,FRIEND,1498 LYNNDALE RD,,OAKLAND,MD,21550,,3015010253,(301) 501-0253,timshelb@hotmail.com
377,438109,93180122,Insured,MARCIA,DUBEE,15 WHISPERING WOODS,,,,,,,,
378,438109,93180122,Owner,MARCIA,DUBEE,15 WHISPERING WOODS,,,,,,,,
379,813948,YME0728944,Insured,ELIZABETH A,BEKOS,15 WINDEY WAY LN,,DOYLESTOWN,PA,18901,,,,akamagpie@hotmail.com
380,922794,YME0728943,Insured,JEFFREY C,BEKOS,15 WINDEY WAY LN,,DOYLESTOWN,PA,18901,,,,jcbekos@dynanet.com
381,825325,UME164254L,Insured,LLOYD,ZYGLER,150 W 87TH ST APT3B,,NEW YORK,NY,10024,,,,
382,941589,YME0847700,Owner,"% ELIZABETH F HARRIS, TRUSTEE",ELIZABETH F HARRIS 2,15037 SCOTTSWOOD CT,,WOODBINE,MD,21797,,,,
383,839167,YME0371608,Insured,W SCOTT,HARRIS,15037 SCOTTSWOOD CT,,WOODBINE,MD,21797,,,,
384,941589,YME0847700,Insured,W SCOTT,HARRIS,15037 SCOTTSWOOD CT,,WOODBINE,MD,21797,,,,
385,904442,TU3129294,Insured,AMY,LANDSMAN,1505 PICKETT RD,,LUTHERVILLE,MD,21093,5819,,,AMY.LANDSMAN@HOTMAIL.COM
386,918193,YME0248105,Insured,MARCUS E,DAVIS,15050 RIDING CLUB DR,,HAYMARKET,VA,20169,,,,
387,859991,YME0248104,Insured,RHEA,DAVIS,15050 RIDING CLUB DR,,HAYMARKET,VA,20169,,,,mdavis673@yahoo.com
388,2270560,TU5507767,Insured,KATHERINE,SELIS,1506 E STREET SE,,WASHINGTON,DC,20003,,9738860501,(973) 886-0501,
389,439511,L8818029,Owner,DAVID,THOMASON,15067 JUPITER HILLS LN,,HAYMARKET,VA,20169,3111,5408199571,(540) 819-9571,davidthomason@advent-inc.com
390,439513,L8818029,Owner,DAVID,THOMASON,15067 JUPITER HILLS LN,,HAYMARKET,VA,20169,3111,5408199571,(540) 819-9571,davidthomason@advent-inc.com
391,440309,L8425238,Insured,BRENDAN,MC CARTY,151 CHESTNUT ST,,MONTCLAIR,NJ,7042,2945,,,
392,844239,UME164083L,Insured,CHARLES,DAVIS,1510 BELLONA DRIVE,,LUTHERVILLE,MD,21093,,,,charliedavis1@sigmaxi.net
393,844239,UME164083L,Owner,CHARLES,DAVIS,1510 BELLONA DRIVE,,LUTHERVILLE,MD,21093,,,,charliedavis1@sigmaxi.net
394,823304,UME164082L,Insured,LINDA,DAVIS,1510 BELLONA DRIVE,,LUTHERVILLE,MD,21093,,4438588733,(443) 858-8733,
395,859043,YME0168835,Insured,KELLY,RAINEY,1510 BENVENUE CT,,SEVERN,MD,21144,,4105987535,(410) 598-7535,
396,876077,YME0371030,Insured,FELIX J,AGUTO  III,1511 MILLERS WAY,,PORT REPUBLIC,MD,20676,,,,fjaguto001@aol.com
397,925215,YME0371131,Insured,MICHELLE L,AGUTO,1511 MILLERS WAY,,PORT REPUBLIC,MD,20676,,4104196064,(410) 419-6064,mlaguto001@comcast.net
398,925215,YME0371131,Owner,MICHELLE L,AGUTO,1511 MILLERS WAY,,PORT REPUBLIC,MD,20676,,4104196064,(410) 419-6064,mlaguto001@comcast.net
399,2594622,TU5544303,Insured,LUTHER,MOORE,1513 WINDWOOD RD,,BEL AIR,MD,21015,5709,7034318811,(703) 431-8811,luther.moore@comcast.net
400,859292,JJ7130328,Insured,LUTHER C,MOORE,1513 WINDWOOD ROAD,,BEL AIR,MD,21015,,,,
401,816343,180490498,Insured,ANDREI,PALMER,1518 FLYNT PL,,CROFTON,MD,21114,,,,apalmer@ampsysllc.com
402,821522,180490491,Insured,STEPHANIE,PALMER,1518 FLYNT PL,,CROFTON,MD,21114,,,,
403,807981,YME0168262,Insured,CHARLES,ATHAS,153 W EARLEIGH HEIGHTS RD,,SEVERNA PARK,MD,21146,,,,caathas@gmail.com
404,807981,YME0168262,Owner,CHARLES,ATHAS,153 W EARLEIGH HEIGHTS RD,,SEVERNA PARK,MD,21146,,,,caathas@gmail.com
405,920759,YME0168261,Insured,PIA,ATHAS,153 W EARLEIGH HEIGHTS RD,,SEVERNA PARK,MD,21146,,4432540633,(443) 254-0633,
406,847729,YME0729132,Insured,JEFFREY D,MCCLURE,1530 TANYARD LN,,SPARKS,MD,21152,,,,
407,906854,YME0729131,Insured,CASEY A,MCCLURE,15330 TANYARD RD,,SPARKS,MD,21152,,,,caseyamcclure@hotmail.com
408,847728,YME0848680,Insured,JEFFREY D,MCCLURE,15330 TANYARD RD,,SPARKS GLENCO,MD,21152,,4434650031,(443) 465-0031,jmcclure@cms24-7.com
409,860605,4210010789,Insured,ELIYAHU,ZLOTOWITZ,156 BEACH 9TH ST APT 5G,,Far Rockaway,NY,11691,,,,
410,860605,4210010789,Owner,ELIYAHU,ZLOTOWITZ,156 BEACH 9TH ST APT 5G,,Far Rockaway,NY,11691,,,,
411,815267,4180108717,Insured,DAVID,SOTIROS,1564 HALLWOOD CT,,CROFTON,MD,21114,,4102122600,(410) 212-2600,dsotiros@flyaerialproduction.com
412,815268,4180108716,Insured,DAVID,SOTIROS,1564 HALLWOOD CT,,CROFTON,MD,21114,,4102122600,(410) 212-2600,dsotiros@flyaerialproduction.com
413,864688,B00933933,Insured,LINDA,LIU,15640 HADDONFIELD WAY,,DARNESTOWN,MD,20878,,3018285141,(301) 828-5141,ANN.LIU@GMAIL.COM
414,838559,180819587,Insured,BROOKE,JONES,15697 HOME RD,,SPARKS,MD,21152,,2404750453,(240) 475-0453,BROOKEMSTEVENSON@GMAIL.COM
415,860001,180819582,Insured,TODD,JONES,15697 HOME RD,,SPARKS,MD,21152,,,,TRJONES09@GMAIL.COM
416,880383,UME164486L,Insured,JENNIFER,PITTS,15757 IRISH AVE,,MONKTON,MD,21111,,,,
417,859658,UME164488L,Insured,JENNIFER,PITTS,15757 IRISH AVE,,MONKTON,MD,21111,,,,
418,905626,UME164487L,Insured,JENNIFER,PITTS,15757 IRISH AVE,,MONKTON,MD,21111,,,,
419,437428,6716293,Owner,JEFFREY,CALLAHAN,1582 QUIET MEADOW WAY,,HAMPSTEAD,MD,21074,2674,,,
420,437427,6716293,Owner,JEFFREY,CALLAHAN,1582 QUIET MEADOW WAY,,HAMPSTEAD,MD,21074,2674,,,
421,437449,6722997,Owner,JEFFREY,CALLAHAN,1582 QUIET MEADOW WAY,,HAMPSTEAD,MD,21074,2674,,,
422,437448,6722997,Owner,JEFFREY,CALLAHAN,1582 QUIET MEADOW WAY,,HAMPSTEAD,MD,21074,2674,,,
423,814911,TU3135440,Insured,JULIE,CALLAHAN,1582 QUIET MEADOW WAY,,HAMPSTEAD,MD,21074,2673,,,
424,833209,4180037160,Insured,JULIE,CALLAHAN,1582 QUIET MEADOW WAY,,Hampstead,MD,21074,,,,
425,859653,B00921272,Owner,,,15825 SHADY GROVE RD STE 140,,ROCKVILLE,MD,20850,4015,,,
426,855750,4180076280,Owner,,,15825 SHADY GROVE RD STE 140,,ROCKVILLE,MD,20850,4015,,,
427,859654,B00921282,Owner,,,15825 SHADY GROVE RD STE 140,,ROCKVILLE,MD,20850,4015,,,
428,818131,B00922313,Owner,,,15825 SHADY GROVE RD STE 140,,ROCKVILLE,MD,20850,4015,,,
429,848399,UM0014760L,Insured,RICHARD,CONNOLLY,16 E VALLEY CREEK RD,,PLYMOUTH MEETING,PA,19462,,6102460438,(610) 246-0438,
430,833610,180954781,Insured,SALLY,DEGAN,16 NELSON STREET,,WINCHESTER,MA,1890,,7812235665,(781) 223-5665,
431,898541,4180049966,Insured,AARON,ZLOTOWITZ,16 POINTE CIR,,Jackson,NJ,8527,,,,
432,2424911,TU5538377,Insured,LELISE,COOK,160 HELMSWOOD CIR SW,,MARIETTA,GA,30064,5017,6786370333,(678) 637-0333,
433,2424911,TU5538377,Owner,LELISE,COOK,160 HELMSWOOD CIR SW,,MARIETTA,GA,30064,5017,6786370333,(678) 637-0333,
434,859307,4170105918,Insured,BETTY,STANCZYK,160 MINER HICKORY RD,,Grantsville,MD,21536,,,,
435,2684294,TU5560829,Insured,DEBORAH,HUNDLEY,16003 TRENTON RD,,UPPERCO,MD,21155,9522,,,
436,2623669,TU5560828,Insured,ZACHARY,HUNDLEY,16003 TRENTON RD,,UPPERCO,MD,21155,9522,,,
437,2684294,TU5560829,Owner,DEBORAH,HUNDLEY,16003 TRENTON ROAD,,UPPERCO,MD,21155,,,,
438,2623669,TU5560828,Owner,ZACHARY,HUNDLEY,16003 TRENTON ROAD,,UPPERCO,MD,21155,,,,
439,883200,PL0946162,Insured,KIMBERLEE,RAIDT,1601 CLOVERTON LN,,WILLIAMSPORT,MD,21795,,3019915579,(301) 991-5579,
440,866233,4190032886,Insured,BRYAN,SCHULTZ,1606 WALTHAM CT,,LUTHERVILLE TIMONIUM,MD,21093,,4109408544,(410) 940-8544,REDHED114@AOL.COM
441,849067,4190032887,Insured,LISA,SCHULTZ,1606 WALTHAM CT,,LUTHERVILLE TIMONIUM,MD,21093,,4435647250,(443) 564-7250,
442,2822765,5000362792,Insured,AUBREE,PARSON,1608 CASS DR,,BEL AIR,MD,21015,,8144149853,(814) 414-9853,
443,2822765,5000362792,Owner,AUBREE,PARSON,1608 CASS DR,,BEL AIR,MD,21015,,8144149853,(814) 414-9853,
444,823080,YME0848248,Insured,MONICA A,BELL,1616 MASTERS WAY,,CHADDS FORD,PA,19317,,,,
445,836158,YME1325736,Insured,TUSHAR,SHARMA,162 ASH STREET,,DENVER,CO,80220,,,,
446,827160,TU5414470,Insured,HEATHER,FREE,16227 SHAFFER RD,,SHARPSBURG,MD,21782,1036,,,
447,838822,YME0372782,Insured,WILLIAM,REED,163 WHITE SWAN WAY,,LANGHORNE,PA,19047,,2158012964,(215) 801-2964,
448,861200,TU3130452,Insured,GEORGE,GABELL,16306 OLD YORK RD,,MONKTON,MD,21111,1709,,,
449,825471,180447882,Insured,MICHAEL,POPOV,1634 NEW WINDSOR CT,,CROFTON,MD,21114,,,,
450,893774,YME0487362,Insured,SCOTT A,MCCLURE,1649 BELFAST RD,,SPARKS GLENCO,MD,21152,,,,
451,846799,YME0487361,Insured,STEPHANIE A,MCCLURE,1649 BELFAST RD,,SPARKS,MD,21152,,,,steph_mcclure@msn.com
452,815718,181488320,Insured,ANURAG,GUPTA,16506 HARBOURTOWN DR,,SILVER SPRING,MD,20905,,,,
453,846288,180474687,Insured,SCOTT,WEEKS,1657 SMOUSE ROAD,,OAKLAND,MD,21550,,,,
454,2267124,TU5491295,Insured,SHAWN,RICKER,166 FOXTROTTER LN,,RIDGELEY,WV,26753,9618,,,
455,2267124,TU5491295,Owner,SHAWN,RICKER,166 FOXTROTTER LN,,RIDGELEY,WV,26753,9618,,,
456,945562,TU5265542,Insured,YEMUL,ALMECCI,16705 GOOSENECK TER,,OLNEY,MD,20832,2459,2673579307,(267) 357-9307,
457,2609203,4220115214,Insured,SARAH,STUMPF,1671 MAGNOIA LN,,NORRISTOWN,PA,19403,,,,
458,2609203,4220115214,Owner,SARAH,STUMPF,1671 MAGNOIA LN,,NORRISTOWN,PA,19403,,,,
459,2609238,4220115213,Insured,GREGORY,MONE,1671 MAGNOLIA LANE,,Norristown,PA,19403,,7186440133,(718) 644-0133,
460,2609238,4220115213,Owner,GREGORY,MONE,1671 MAGNOLIA LANE,,Norristown,PA,19403,,7186440133,(718) 644-0133,
461,824534,YME0847724,Insured,KATHY E,FLOAM GREENSPAN,1672 HOMEWOOD LANDING RD,,ANNAPOLIS,MD,21409,,4102121592,(410) 212-1592,
462,908538,4180103261,Insured,GARY,SHUMULINSKIY,16950 NEW HAMPSHIRE DR,,Southfield,MI,48075,,2482479125,(248) 247-9125,gshumu@gmail.com
463,817206,4180103606,Insured,MIRIAM,SHUMULINSKIY,16950 NEW HAMPSHIRE DR,,SOUTHFIELD,MI,48705,,,,
464,439760,L8351196,Insured,STEPHEN,MALONE,17 JAMES ST,,MIDDLETOWN,PA,17057,3327,,,s.v.malone@comcast.net
465,439763,L8351196,Insured,STEPHEN,MALONE,17 JAMES ST,,MIDDLETOWN,PA,17057,3327,,,s.v.malone@comcast.net
466,894295,180588260,Insured,PATRICIA,JURASITS,17 LINCOLN ST,,ALLENTOWN,PA,18102,,,,
467,1093456,TU5445455,Insured,MIRVA,MODI,17 MYSTIC LN,,NORWALK,CT,6850,1911,2038109104,(203) 810-9104,
468,828706,181677250,Insured,THOMAS,SCOTT,17 PALMER DR,,GLEN MILLS,PA,19342,,,,tscott7777@aol.com
469,874677,YM00084218,Insured,RENE G,FONTAINE,17 SOUTHWICK RD,,SUTTON,MA,1590,,,,rfontaine@disneytime.net
470,822315,YM00084219,Insured,STEPHANIE A,FONTAINE,17 SOUTHWICK RD,,SUTTON,MA,1590,,5088649462,(508) 864-9462,sfontaine@disneytime.net
471,1086205,4210090957,Insured,NATALIE,PILEGGI,1701 ARLINGTON ROAD,,BLUE BELL,PA,19422,,,,
472,912691,YME0281542,Insured,LAURICE D,ROYAL,1701 TERRACE RD,,BALTIMORE,MD,21209,,,,
473,912691,YME0281542,Owner,LAURICE D,ROYAL,1701 TERRACE RD,,BALTIMORE,MD,21209,,,,
474,831140,YME0281540,Insured,WALTER,ROYAL,1701 TERRACE RD,,BALTIMORE,MD,21209,,,,
475,436739,4859404,Owner,JOHN,ROSSO,1706 EDWIN DR,,BEL AIR,MD,21015,1500,4107081508,(410) 708-1508,
476,436738,4859404,Owner,JOHN,ROSSO,1706 EDWIN DR,,BEL AIR,MD,21015,1500,4107081508,(410) 708-1508,
477,818784,YME0371670,Insured,MATTHEW,KING,171 RAMUNNO CIR,,Hockessin,DE,19707,,,,
478,818784,YME0371670,Owner,MATTHEW,KING,171 RAMUNNO CIR,,Hockessin,DE,19707,,,,
479,441002,V2447429,Insured,LISA,BROWN,1713 WOODBINE ST APT 2L,,RIDGEWOOD,NY,11385,3607,,,
480,817445,TU5249089,Insured,RODNEY,YATES JR,1715 CEDAR PARK RD,,ANNAPOLIS,MD,21401,3251,,,
481,817445,TU5249089,Owner,RODNEY,YATES JR,1715 CEDAR PARK RD,,ANNAPOLIS,MD,21401,3251,,,
482,849506,180729319,Insured,JAMES,SIMON,1716 MORSE ROAD,,FOREST HILL,MD,21050,,,,
483,942229,T400083172,Insured,MARK M,MARGOLIES,1724 KENDRICK ST,,PHILADELPHIA,PA,19152,,2154106157,(215) 410-6157,markod59@gmail.com
484,440702,L9983301,Insured,VENKAT,REDDY,17311 QUAIL CREEK CIR,,HAMILTON,VA,20158,3108,,,
485,439024,L7042287,Insured,VENKAT,REDDY,17311 QUAIL CREEK CIR,,HAMILTON,VA,20158,3108,,,
486,440702,L9983301,Owner,VENKAT,REDDY,17311 QUAIL CREEK CIR,,HAMILTON,VA,20158,3108,,,
487,898845,181448735,Insured,ALEXANDER,JANIAN,1735 ALICEANNA ST,,BALTIMORE,MD,21231,,,,
488,914268,181448742,Insured,ALEXANDER,JANIAN,1735 ALICEANNA ST,,BALTIMORE,MD,21231,,,,
489,860923,B00898379,Insured,NICHOLAS,SZPARA,1735 RED OAK ROAD,,PARKVILLE,MD,21234,,,,
490,834628,YME0729979,Insured,JAMES D,KOLB,174 E MOORESTOWN RD,,WIND GAP,PA,18091,,6105548034,(610) 554-8034,
491,439808,L8914120,Insured,JAMES,LAMBERT,17602 BEL VISTA DR SE,,OLD TOWN,MD,21550,,,,BRUNAMOURA@GMAIL.COM
492,905102,180477292,Insured,ROGER,HUTZELL,17715 OLDTOWN RD SE,,OLDTOWN,MD,21555,,,,
493,832676,YME0848884,Insured,LEE M,AMOSS,17762 HARDY RD,,MOUNT AIRY,MD,21771,,,,
494,832677,YME0848883,Insured,LEE M,AMOSS,17762 HARDY RD,,MOUNT AIRY,MD,21771,,,,
495,946026,YM00420269,Insured,ANTHONY W,MELA,178 CRITTENDEN DR,,NEWTOWN,PA,18940,,2672419596,(267) 241-9596,
496,888466,YM00420268,Insured,KIMBERLY A,MELA,178 CRITTENDEN DR,,NEWTOWN,PA,18940,,,,
497,820696,UME164459L,Insured,BRENTEN,SLUTZKY,1793 FALSTAFF RD,,BEL AIR,MD,21015,1832,,,
498,839180,YME0168720,Insured,BRENTEN D,SLUTZKY,1793 FALSTAFF RD,,BEL AIR,MD,21015,,4105914884,(410) 591-4884,bcrinnion@yahoo.com
499,906128,NT10109392,Insured,REBECCA DIANN-BAKER,GREEN,1793 FALSTAFF ROAD,,BEL AIR,MD,21015,,,,REBECCA.GREEN@HCPS.ORG
500,436361,4672420,Owner,% BHAVNA M SHYAMALAN TR,,18 CAMPUS BLVD,,NEWTOWN SQUARE,PA,19073,3240,,,
501,919636,4190161415,Insured,JESSICA,ELLINGER,18 E MAIN ST,,Huntington,MA,1050,,,,JMRL77@YAHOO.COM
502,437890,81202454,Owner,JOSHUA,ELLINGER,18 E MAIN ST,,,,,,,,
503,437890,81202454,Insured,JOSHUA,ELLINGER,18 E MAIN STREET,,,,,,,,
504,852956,181230673,Insured,MARK,BOUCOT,18 FREDERICK CIRCLE,,SWANTON,MD,21561,,,,
505,852956,181230673,Owner,MARK,BOUCOT,18 FREDERICK CIRCLE,,SWANTON,MD,21561,,,,
506,439074,L8643163,Insured,JOHN,MC CARTHY,18 KENMARE RD,,NASHUA,NH,3062,3213,6035333959,(603) 533-3959,
507,828310,181037654,Insured,DAVID,KILLMER,18 MOUNTAIN ROAD,,RINDGE,NH,3461,,,,
508,839370,YME0281683,Insured,FLORENCE C,GAPSIS,18 OHELO PL,,KULA,HI,96790,,,,FLORENCE.GAPSIS@GMAIL.COM
509,839370,YME0281683,Owner,FLORENCE C,GAPSIS,18 OHELO PL,,KULA,HI,96790,,,,FLORENCE.GAPSIS@GMAIL.COM
510,855373,YME1907107,Insured,DAVID G,MARCUS,18 THADDEUS MASON RD,,NORTHBOROUGH,MA,1532,,4107368736,(410) 736-8736,
511,439668,L8319832,Insured,THOMAS,BRENNAN,1805 GREENSPRING PL # 4-407,,FREDERICK,MD,21702,6016,,,
512,439666,L8319832,Insured,THOMAS,BRENNAN,1805 GREENSPRING PL # 4-407,,FREDERICK,MD,21702,6016,,,
513,1949849,81254635,Insured,Christopher,Marcozzi,1815 Foulk Rd,,,,,,,,
514,1949849,81254635,Owner,Christopher,Marcozzi,1815 Foulk Rd,,,,,,,,
515,824515,180370156,Insured,LORIN,ALLAN,1821 KIRBY RD,,MCLEAN,VA,22101,,7035827145,(703) 582-7145,
516,927028,180370157,Insured,MICHAEL,ALLAN,1821 KIRBY ROAD,,MCLEAN,VA,22101,,,,michaeljallan@icloud.com
517,440312,L8426222,Owner,KOLLMAN AND SAUCIER PA,,1823 YORK RD,,TIMONIUM,MD,21093,5119,,,
518,810779,180444560,Insured,ANTHONY,OBIANWU,18351 QUEEN ANNE ROAD,,UPPER MARLBORO,MD,20774,,,,tonchylo@aol.com
519,827032,180444562,Insured,CHILO,OBIANWU,18351 QUEEN ANNE ROAD,,UPPER MARLBORO,MD,20774,,2407066406,(240) 706-6406,dezybearadaezeobianwudezybear@hotmail.com
520,860648,T400033458,Insured,THOMAS M,FITZPATRICK,1842 CIRCLE RD,,RUXTON,MD,21204,,,,
521,2779810,5000362769,Insured,KRYSTAL,HOLL,1844 GLENDALE LANE,,BEL AIR,MD,21015,,,,
522,2779810,5000362769,Owner,KRYSTAL,HOLL,1844 GLENDALE LANE,,BEL AIR,MD,21015,,,,
523,810970,TU5112264,Insured,ANDREW,CHAPMAN,1855 SAINT FRANCIS ST APT 1106,,RESTON,VA,20190,6252,,,
524,846541,180683703,Insured,DAVID,ERBY,186 RIVERVIEW TRAIL,,SYKESVILLE,MD,21784,,3022937379,(302) 293-7379,mterby@aol.com
525,816179,180683738,Insured,LORI,ERBY,186 RIVERVIEW TRAIL,,SYKESVILLE,MD,21784,,2406066496,(240) 606-6496,
526,826682,UME164122L,Insured,EVELYN,SILKEY,1894 GLENDALE RD,,SWANTON,MD,21561,,,,
527,841941,180710245,Insured,MELINDA,GIBSON,18977 BRITTINGER RD,,GRANTSVILLE,MD,21536,,,,
528,846666,YME0248957,Insured,JANICE F,PORPORA,19 CROTONA CT,,LUTHERVILLE,MD,21093,,4109164509,(410) 916-4509,
529,846666,YME0248957,Owner,JANICE F,PORPORA,19 CROTONA CT,,LUTHERVILLE,MD,21093,,4109164509,(410) 916-4509,
530,900903,180634694,Insured,ERIC,BENJAMIN,19 FITHIAN AVENUE,,MERCHANTVILLE,NJ,8109,,6099230146,(609) 923-0146,
531,900903,180634694,Owner,ERIC,BENJAMIN,19 FITHIAN AVENUE,,MERCHANTVILLE,NJ,8109,,6099230146,(609) 923-0146,
532,840592,180913172,Insured,JAMES,FARRELL,19 WAVERLY RD,,MARLTON,NJ,8053,,,,
533,840592,180913172,Owner,JAMES,FARRELL,19 WAVERLY RD,,MARLTON,NJ,8053,,,,
534,844238,4210062207,Insured,DAWN,MIGHT,1901 SULAINE CT,,FINKSBURG,MD,21048,,4104937605,(410) 493-7605,
535,851759,B00963917,Insured,AMI,SHEINTAL,1903 SUNRISE DR,,ROCKVILLE,MD,20854,2675,,,
536,828676,UME164188L,Insured,LYNDA,WALCOTT,191 RUGGLES ST,,WESTBORO,MA,1581,,,,walcott0110@yahoo.com
537,947823,B00960281,Insured,MICHAEL,KELLY,1918 PHILIPS MILL RD,,FOREST HILL,MD,21050,,4109772334,(410) 977-2334,
538,832683,YME0280980,Insured,KATHLEEN J,SPINNATO,1918 TADCASTER RD,,BALTIMORE,MD,21228,,,,
539,832683,YME0280980,Owner,KATHLEEN J,SPINNATO,1918 TADCASTER RD,,BALTIMORE,MD,21228,,,,
540,847548,180431520,Insured,KALPANA,UJLA,1928 VICTORY HILLS WAY,,MARRIOTTSVILLE,MD,21104,,,,
541,847547,T700089315,Insured,KALPANA,UJLA,1928 VICTORY HILLS WAY,,MARRIOTTSVILLE,MD,21104,,,,
542,890688,4180149350,Insured,KENNETH,GARDNER,19303 JAMESTOWN DRIVE,,Hagerstown,MD,21742,,,,KENGARDNER74@GMAIL.COM
543,890688,4180149350,Owner,KENNETH,GARDNER,19303 JAMESTOWN DRIVE,,Hagerstown,MD,21742,,,,KENGARDNER74@GMAIL.COM
544,921368,YME0280693,Insured,JACQUELINE A,HIBSHMAN,194 RON GEORG RD,,ACCIDENT,MD,21520,,9083770832,(908) 377-0832,
545,814379,YME0280697,Insured,NATHAN R,HIBSHMAN,194 RON GEORG RD,,ACCIDENT,MD,21520,,,,nathanhibshman@hotmail.com
546,814379,YME0280697,Owner,NATHAN R,HIBSHMAN,194 RON GEORG RD,,ACCIDENT,MD,21520,,,,nathanhibshman@hotmail.com
547,848528,JJ7226876,Insured,MELISSA S,GOODFELLOW,19567 GARRETT HIGHWAY,,OAKLAND,MD,21550,,3016161654,(301) 616-1654,
548,871576,181414078,Insured,SAMUEL,KAUFMANN,1976 INVERNESS DR,,SCOTCH PLAINS,NJ,7076,,,,
549,437566,6752732,Owner,JEFFREY,BROCIOUS,1981 BARLEY RD,,MARRIOTTSVILLE,MD,21104,1121,,,
550,437567,6752733,Owner,TRACEY,BROCIOUS,1981 BARLEY RD,,MARRIOTTSVILLE,MD,21104,1121,,,
551,836692,YME0248146,Insured,ASHLEY J,MORGAN,2 DOROTHY AVE,,WESTMINSTER,MD,21157,,,,
552,878368,4190171685,Insured,VALENTINA,ISTRATE,2 Lochmoor Ct,,Pinehurst,NC,28374,,3522754264,(352) 275-4264,
553,437554,6751241,Owner,SONYA,SMITH PICKEL,2 N CHERRY GROVE AVE,,ANNAPOLIS,MD,21401,3332,,,
554,876080,TU5236689,Insured,STEVEN,PICKEL,2 N CHERRY GROVE AVE,,ANNAPOLIS,MD,21401,3332,,,
555,876080,TU5236689,Owner,STEVEN,PICKEL,2 N CHERRY GROVE AVE,,ANNAPOLIS,MD,21401,3332,,,
556,889692,YME0848597,Insured,JESSE,ROY,2 ORCHARD LN,,DOYLESTOWN,PA,18901,,6097516462,(609) 751-6462,
557,436497,4764270,Owner,,,2 STONEHEDGE CIR,,BILLERICA,MA,1821,1252,,,
558,819044,4170041772,Insured,JULIE,SAXENMEYER,2 WINE SPRING GARTH,,Towson,MD,21204,,,,jsaxenmeyer@bcpl.net
559,862021,LJ7236746,Insured,WALTER C,TEAGLE,200 CLEFT RD,,MILL NECK,NY,11765,,,,
560,2087610,4210100954,Insured,DANIEL,SONNENBLICK,200 JUNIPER CR S,,Lawrence,NY,11559,,,,DANIELSONNENBLICK@YAHOO.COM
561,830295,181162380,Insured,ALEXANDER,KAUFMAN,200 TUNBRIDGE ROAD,,BALTIMORE,MD,21212,,,,
562,924587,YME0168334,Insured,JEFFERY R,LEWIS,2011 GARRETT RD,,OAKLAND,MD,21550,,3018598745,(301) 859-8745,jefferylewis_2442@hotmail.com
563,924587,YME0168334,Owner,JEFFERY R,LEWIS,2011 GARRETT RD,,OAKLAND,MD,21550,,3018598745,(301) 859-8745,jefferylewis_2442@hotmail.com
564,439996,L9707535,Insured,GENE,ASHE,202 COBBLE WAY,,WALKERSVILLE,MD,21793,9152,,,
565,814012,4179886763,Insured,EDDIE,JACKSON,20212 Yankee Harbor Place,,Gaithersburg,MD,20886,,,,
566,898851,YME0168721,Insured,KIMBERLY M,GARY,2023 SAVAGE RIVER RD,,SWANTON,MD,21561,,,,
567,853756,4170164152,Insured,ELIJAH,GRAHAM,2025 EAST BALTIMORE APT 1B,,Baltimore,MD,21231,,8179074554,(817) 907-4554,
568,826293,181085658,Insured,KYLE,WAGNER,203 HOLLAND ROAD,,SEVERNA PARK,MD,21146,,,,
569,863969,YME0729765,Insured,DAVID,GARVEY,204 HERB LN,,QUEENSTOWN,MD,21658,,,,
570,900901,4180091123,Insured,STEVEN,GEYER,20420 BUCKLODGE RD,,Boyds,MD,20841,,,,lastword1963@aol.com
571,937847,YME0371497,Insured,JOHN E,DELANEY,205 BARNARD ST,,Frostburg,MD,21532,,,,jedelaney1@verizon.net
572,440572,L8483281,Insured,THOMAS,LITTLE,2062 SE HANFORD RD,,PORT ST LUCIE,FL,34952,8862,4106889884,(410) 688-9884,
573,440581,L8483281,Insured,THOMAS,LITTLE,2062 SE HANFORD RD,,PORT ST LUCIE,FL,34952,8862,4106889884,(410) 688-9884,
574,825884,180506786,Insured,MONA,NANDEDKAR,"20661 FORGE WAY, APT 357",,CUPERTINO,CA,95014,,,,
575,842826,4180018811,Insured,MARY,SCOTT HERRING,20701 WEST LIBERTY ROAD,,White Hall,MD,21161,,,,PAGIPSY@YAHOO.COM
576,896242,180954631,Insured,MICHAEL,CLARK,208 WASHINGTON ST,,CUMBERLAND,MD,21502,,,,
577,891733,181095522,Insured,JULIE,COURTNEY,209 FAYETTE ST,,CUMBERLAND,MD,21502,,,,
578,846130,181095523,Insured,ROBERT,COURTNEY,209 FAYETTE ST,,CUMBERLAND,MD,21502,,,,
579,859423,4190128135,Insured,CARLA,NADLE,21 HAMPDEN AVE,,Monson,MA,1057,,4135120788,(413) 512-0788,
580,846669,4190128138,Insured,EDWARD,NADLE,21 HAMPDEN AVE,,Monson,MA,1057,,,,
581,831017,181041208,Insured,JUDITH,BARRY,21 HOLLINGSWORTH AVENUE,,BRAINTREE,MA,2184,,,,
582,859443,4180086306,Insured,MICHAEL,CZERMAK,21 LINDA AVE,,Jackson,NJ,8527,,,,
583,859444,4180086305,Insured,MICHAEL,CZERMAK,21 LINDA AVE,,Jackson,NJ,8527,,,,
584,818171,YME0730287,Insured,CARL T,SCHMAUDER,21 MAPLEWOOD DR,,LEWES,DE,19958,,,,
585,892490,180729322,Insured,GLEN,HASTINGS,21 PICKBURN,,COCKEYSVILLE,MD,21030,,4437906873,(443) 790-6873,
586,889353,1014830,Insured,THOMAS,SEYMOUR,21 WESLEY WOODS CT,,KINGSVILLE,MD,21087,1160,4436860068,(443) 686-0068,TSEYMOURMD@COMCAST.NET
587,821078,UME215997L,Insured,BENJAMIN,STALLINGS,2100 SAHALEA TER,,SILVER SPRING,MD,20905,,,,
588,831226,YME1325668,Insured,BENJAMIN Z,STALLINGS,2100 SAHALEA TER,,SILVER SPRING,MD,20905,,,,
589,910998,B00886315,Insured,MAJID,KHALILIAN,2107 ARROWLEAF DR,,VIENNA,VA,22182,5192,,,mkhalilian@yahoo.com
590,910999,B00877364,Insured,MAJID,KHALILIAN,2107 ARROWLEAF DR,,VIENNA,VA,22182,5192,,,mkhalilian@yahoo.com
591,839896,YME0168457,Insured,KELLIE G,O CONNELL,2109 RAMONA LN,,WOODSTOCK,MD,21163,,,,
592,844227,YME0168458,Insured,STEVEN W,KURTZ,2109 RAMONA LN,,WOODSTOCK,MD,21163,,,,
593,945402,180464083,Insured,STEPHEN,CARRERA,211 ANVIL WAY,,BALTIMORE,MD,21212,,4432891633,(443) 289-1633,
594,890432,YM00117500,Insured,THOMAS M,RUDDY,211 HAYNES CT,,ABINGDON,MD,21009,,,,cms2109@gmail.com
595,822713,180492693,Insured,STEPHANIE,MAZZEO,211 SCHLEY ST,,CUMBERLAND,MD,21502,,,,smazzeo@gmail.com
596,866823,180492691,Insured,LOUIS,MAZZEO,211 SCHLEY STREET,,CUMBERLAND,MD,21502,,3012683388,(301) 268-3388,MAZZEOS@VERIZON.NET
597,439379,L8747943,Insured,AMANDA,VEILE,2112 N SALISBURY ST,,W LAFAYETTE,IN,47906,1908,5059772802,(505) 977-2802,
598,897384,180897105,Insured,FRANCIS,SALERNO,2114 SUGAR MAPLE LANE,SUITE B201,FURLONG,PA,18925,,2157833144,(215) 783-3144,vslucky@gmail.com
599,897383,180931638,Insured,FRANCIS,SALERNO,2114 SUGAR MAPLE LANE,SUITE B201,FURLONG,PA,18925,,2157833144,(215) 783-3144,vslucky@gmail.com
600,926297,181175404,Insured,LILI,HE,2115 WHITMAN WAY,,MARRIOTTSVILLE,MD,21104,,,,lili_he@msn.com
601,912680,UME502102L,Insured,LINDA,SENEZ,2118 SE 11TH PL,,CAPE CORAL,FL,33990,4658,,,
602,938355,YME0372216,Insured,PATRICK G,MCCOURT,2120 PADDOCK LN,,FINKSBURG,MD,21048,,,,ptmcc0039@aol.com
603,841241,YME0730082,Insured,PHILIP J,RUZBARSKY,2134 HERBERT AVE,,WESTMINSTER,MD,21157,,,,
604,814919,4190083203,Insured,LORI,LAUERSEN,2137 ROUTE 6,,Hawley,PA,18428,,,,
605,871823,YME0849159,Owner,LORI,LAUERSEN,2137 ROUTE 6,,Hawley,PA,18428,,,,
606,814919,4190083203,Owner,LORI,LAUERSEN,2137 ROUTE 6,,Hawley,PA,18428,,,,
607,871823,YME0849159,Insured,LORI A,LAUERSEN,2137 ROUTE 6,,HAWLEY,PA,18428,,,,l_lauersen@yahoo.com
608,822555,YME0849158,Insured,NICHOLAS K,LAUERSEN,2137 ROUTE 6,,HAWLEY,PA,18428,,5706477732,(570) 647-7732,
609,825226,4190152633,Insured,ZEV,LESHINSKY,214 JOHN STREET,,LAKEWOOD,NJ,80701,,,,
610,2267213,TU5498552,Insured,LEAH,KLIEGMAN,215 GLYNDON DR,,REISTERSTOWN,MD,21136,2117,4105969206,(410) 596-9206,
611,2267213,TU5498552,Owner,LEAH,KLIEGMAN,215 GLYNDON DR,,REISTERSTOWN,MD,21136,2117,4105969206,(410) 596-9206,
612,834367,B00989134,Insured,MARIBEL,INFANTE,215 MCHENRY AVE,,BALTIMORE,MD,21208,,,,
613,895546,YME0371157,Insured,SHANNA D,HAUBERT,2157 E DEEP RUN RD,,MANCHESTER,MD,21102,,4103743275,(410) 374-3275,
614,889688,181021467,Insured,STEPHEN,HARDY,216 AMHERST RD,,MERRIMACK,NH,3054,,,,
615,818795,180435995,Insured,JEFFREY,HENDERSON,218 MIDVALE ST,,FALLS CHURCH,VA,22046,,,,
616,441287,L9534847,Insured,RICHARD,BURTNER,21813 AINSLEY CT,,BROADLANDS,VA,20148,4529,,,
617,441288,L9534847,Insured,RICHARD,BURTNER,21813 AINSLEY CT,,BROADLANDS,VA,20148,4529,,,
618,818131,B00922313,Insured,NEELIMA,MARPU,21820 IANNIS SPRING DR,,ASHBURN,VA,20148,,,,
619,939697,YME0487002,Insured,JEFFREY,SKINNER,219 COLLINGSWOOD RD,,FAIRLESS HLS,PA,19030,,,,
620,814899,YME0487003,Insured,MARIANNE A,SKINNER,219 COLLINGSWOOD RD,,FAIRLESS HLS,PA,19030,,,,mariecaillaud@aol.com
621,841822,4190057769,Insured,JEFFREY,SKINNER,219 COLLINGSWOOD ROAD,,FAIRLESS HILLS,PA,19030,,,,
622,2265477,4220052878,Insured,JEFFREY,SKINNER,219 COLLINGSWOOD ROAD,,Fairless Hills,PA,19030,,,,
623,939697,YME0487002,Owner,JEFFREY,SKINNER,219 COLLINGSWOOD ROAD,,Fairless Hills,PA,19030,,,,
624,841822,4190057769,Owner,JEFFREY,SKINNER,219 COLLINGSWOOD ROAD,,Fairless Hills,PA,19030,,,,
625,2265477,4220052878,Owner,JEFFREY,SKINNER,219 COLLINGSWOOD ROAD,,Fairless Hills,PA,19030,,,,
626,915425,115315848,Insured,CAROLYN,MAYLE,220 S GLENCOE ST,,DENVER,CO,80246,,,,
627,2716873,115315848,Insured,CAROLYN,MAYLE,220 S GLENCOE ST,,DENVER,CO,80246,,,,
628,2698553,115315761,Insured,EDWARD J,MAYLE,220 S GLENCOE ST,,DENVER,CO,80246,,,,
629,844675,115315761,Insured,EDWARD J,MAYLE,220 S GLENCOE ST,,DENVER,CO,80246,,,,
630,854312,UME164075L,Insured,LISA,SINGER,2201 CHILHAM RD,,BALTIMORE,MD,21209,,,,
631,439422,L8779930,Insured,ERIC,KREINAR,22023 TURNER,,CHAPEL HILL,NC,27517,8359,7037985894,(703) 798-5894,EKREINAR@GMAIL.COM
632,439424,L8779930,Insured,ERIC,KREINAR,22023 TURNER,,CHAPEL HILL,NC,27517,8359,7037985894,(703) 798-5894,EKREINAR@GMAIL.COM
633,439422,L8779930,Owner,ERIC,KREINAR,22023 TURNER,,CHAPEL HILL,NC,27517,8359,7037985894,(703) 798-5894,EKREINAR@GMAIL.COM
634,439424,L8779930,Owner,ERIC,KREINAR,22023 TURNER,,CHAPEL HILL,NC,27517,8359,7037985894,(703) 798-5894,EKREINAR@GMAIL.COM
635,439419,L8779847,Insured,HEIDI,STEIBER,22023 TURNER,,CHAPEL HILL,NC,27517,8359,2024362155,(202) 436-2155,
636,439421,L8779847,Insured,HEIDI,STEIBER,22023 TURNER,,CHAPEL HILL,NC,27517,8359,2024362155,(202) 436-2155,
637,841935,4170148761,Insured,MINAXI,SHAH,2207 MANOR GATE TERRACE,,Upper Marlboro,MD,20774,,,,
638,814381,YME1906538,Insured,DONNIE J,ORNDORFF,2211 BARNET CT,,WOODSTOCK,MD,21163,,,,
639,859139,YME0248419,Insured,PHYLLIS M,CRUTCH,222 GLYNDON DR,,REISTERSTOWN,MD,21136,,4109613419,(410) 961-3419,
640,859139,YME0248419,Owner,PHYLLIS M,CRUTCH,222 GLYNDON DR,,REISTERSTOWN,MD,21136,,4109613419,(410) 961-3419,
641,896065,181351112,Insured,ORZE,KILLGO,2221 N EMERSON ST,,ARLINGTON,VA,22207,,,,
642,907301,181195540,Insured,WILMA,KILLGO,2221 N EMERSON ST,,ARLINGTON,VA,22207,,,,
643,932348,YME0848896,Insured,JAMES R,OSTERSTOCK,2224 STACKHOUSE DR,,YARDLEY,PA,19067,,2017070019,(201) 707-0019,jrustyo@aol.com
644,859928,180515619,Insured,ANDREW,BIGART,2240 CASEMONT DR,,FALLS CHURCH,VA,22046,,5712306065,(571) 230-6065,jvenable2009@gmail.com
645,2545254,T400434298,Owner,,,225 REINEKERS LN STE 200,,ALEXANDRIA,VA,22314,2873,,,
646,928499,180995119,Insured,GUILLERMO,COREA TURCIOS,2289 MEADOW TRAIL LN,,WEST FRIENDSHIP,MD,21794,,,,
647,844829,4190095206,Insured,AARON,BRILLIANT,23 RENFREW RD,,Spring Valley,NY,10977,,,,
648,2798524,N11036783,Insured,AARON,BRILLIANT,23 RENFREW RD,,SPRING VALLEY,NY,10977,6905,,,
649,827093,4190095277,Insured,CHANA,POLTER,23 RENFREW RD,,Spring Valley,NY,10977,,,,
650,807756,YME0487074,Insured,MICHAEL A,DINOIA,230 JEFFERSON AVE,,HADDONFIELD,NJ,8033,,,,
651,872825,YME0168920,Insured,WILLIAM E,DEAN,230 RACHEL CIR,,FOREST HILL,MD,21050,,,,
652,438790,L8531569,Insured,JARED,MALLALIEU,2304 ANNAPOLIS RIDGE CT,,ANNAPOLIS,MD,21401,6577,4432230561,(443) 223-0561,
653,438790,L8531569,Owner,JARED,MALLALIEU,2304 ANNAPOLIS RIDGE CT,,ANNAPOLIS,MD,21401,6577,4432230561,(443) 223-0561,
654,927471,180278305,Insured,JASON,BROWN,2304 BENNETT POINT ROAD,,QUEENSTOWN,MD,21658,,4103201657,(410) 320-1657,
655,820775,180278314,Insured,JASON,BROWN,2304 BENNETT POINT ROAD,,QUEENSTOWN,MD,21658,,4103201657,(410) 320-1657,
656,860675,YME0371869,Insured,JOSHUA,LIPPY,2304 BOWERSOX RD,,NEW WINDSOR,MD,21776,,,,
657,837983,YME0487231,Insured,JOSHUA D,LIPPY,2304 BOWERSOX RD,,NEW WINDSOR,MD,21776,,,,jlippy@gmail.com
658,923495,4170165395,Insured,CHRISTOPHER,KASTENDIKE,2306 TUFTON SPRINGS LN,,Reisterstown,MD,21136,,,,CHRIS-KASTENDIKE@MDPINS.COM
659,439188,L8201491,Insured,JOHN,TAMEL,2307 WESTOVER RD,,AUSTIN,TX,78703,1201,,,jetam2@yahoo.com
660,859441,TU5391786,Insured,AUBREY,STIRES,231 RACHEL CIR,,FOREST HILL,MD,21050,1340,,,
661,945716,TU5391790,Insured,CHRISTOPHER,STIRES,231 RACHEL CIR,,FOREST HILL,MD,21050,1340,,,
662,833800,YME0168515,Insured,KATHLEEN M,FOXX,2311 NOVA DR,,HVRE DE GRACE,MD,21078,,,,
663,439530,L8819677,Insured,MIKHAEL,COHN,2312 ESKOW AVE,,HALETHORPE,MD,21227,4729,,,
664,439532,L8819677,Insured,MIKHAEL,COHN,2312 ESKOW AVE,,HALETHORPE,MD,21227,4729,,,
665,439697,L8876742,Owner,,,2312 ESKOW AVE,,BALTIMORE,MD,21227,4729,,,
666,439694,L8876742,Owner,,,2312 ESKOW AVE,,BALTIMORE,MD,21227,4729,,,
667,808771,180757749,Insured,EILEEN,FICARO,2313 SPRINGVIEW ROAD,,NORRISTOWN,PA,19401,,6106626251,(610) 662-6251,
668,808771,180757749,Owner,EILEEN,FICARO,2313 SPRINGVIEW ROAD,,NORRISTOWN,PA,19401,,6106626251,(610) 662-6251,
669,814305,180757748,Insured,JAMES,FICARO,2313 SPRINGVIEW ROAD,,EAST NORRITON,PA,19401,,5127717072,(512) 771-7072,
670,437318,6683466,Owner,,,2315 BEL AIR RD,NR C7,FALLSTON,MD,21047,2740,,,
671,437317,6683466,Owner,,,2315 BEL AIR RD,NR C7,FALLSTON,MD,21047,2740,,,
672,919635,TU3136771,Insured,JEAN,SILVER,2317 FARRINGDON RD,,BALTIMORE,MD,21209,2645,,,
673,437071,6617294,Owner,BRANDON,MARTINEZ,2319 BOLLINGER MILL RD,,FINKSBURG,MD,21048,2727,,,
674,437070,6617294,Owner,BRANDON,MARTINEZ,2319 BOLLINGER MILL RD,,FINKSBURG,MD,21048,2727,,,
675,820520,180383696,Insured,MATTHEW,BUCHERT,2324 N. TRENTON,,ARLINGTON,VA,22207,,,,
676,930703,YME1906572,Insured,BRUCE,GOLDENBERG,2328 SWEET MEADOW RD,,BALTIMORE,MD,21209,,9173240564,(917) 324-0564,murep@yahoo.com
677,866224,YME0728770,Insured,LISA,HARRIS,2330 NEVADA DR,,Manchester,MD,21102,,,,lharris525@gmail.com
678,439259,L8703824,Insured,MICHAEL,TABRIZI,234 HOLLIDAY ST APT 702,,BALTIMORE,MD,21202,3670,,,
679,439258,L8703824,Insured,MICHAEL,TABRIZI,234 HOLLIDAY ST APT 702,,BALTIMORE,MD,21202,3670,,,
680,824932,4190149439,Insured,JENNIFER,D AMICO,234 Winding Way,,Morrisville,PA,19067,,,,
681,913898,181417291,Insured,ANDREW,MILLMAN,2348 GOLFVIEW LANE,,HAMPSTEAD,MD,21074,,4104564874,(410) 456-4874,
682,811987,180835932,Insured,LYLE,SAYLOR,235 ST THOMAS LANE,,OWINGS MILLS,MD,21117,,,,
683,912686,UME215623L,Insured,LARRY,GIBSON,237 LAMBETH ROAD,,BALTIMORE,MD,21218,,,,lsgibson@aol.com
684,876693,180316067,Insured,MICHAEL,KALTEN,2370 N FILLMORE ST,,ARLINGTON,VA,22207,,,,
685,2629118,4230092762,Insured,BEN,JAKOB,2370 SWEET MEADOW RD,,Baltimore,MD,21209,,,,
686,2629118,4230092762,Owner,BEN,JAKOB,2370 SWEET MEADOW RD,,Baltimore,MD,21209,,,,
687,440624,L9149874,Insured,NAPHTALI,BURNSTEIN,23794 WENDOVER DR,,BEACHWOOD,OH,44122,1538,,,nrburnstein@gmail.com
688,440626,L9149874,Insured,NAPHTALI,BURNSTEIN,23794 WENDOVER DR,,BEACHWOOD,OH,44122,1538,,,nrburnstein@gmail.com
689,862560,181040079,Insured,RACHEL,BURNSTEIN,23794 WENDOVER DRIVE,,BEACHWOOD,OH,44122,,2165448913,(216) 544-8913,
690,855491,UM0024403L,Insured,BENJAMIN,HARVEY,24 BREWER DRIVE,,WESTBORO,MA,1581,,5083354909,(508) 335-4909,bjams76@aol.com
691,816448,UM0024405L,Insured,BENJAMIN,HARVEY,24 BREWER DRIVE,,WESTBORO,MA,1581,,5083354909,(508) 335-4909,bjams76@aol.com
692,900528,4190102294,Insured,AMIEL,CHICHEPORTICHE,24 DIAMOND CREST CT,,Baltimore,MD,21209,,,,amielc75@gmail.com
693,924705,4190102354,Insured,MICHELLE,HOENLEIN,24 DIAMOND CREST CT,,Baltimore,MD,21209,,,,MICHALB183@GMAIL.COM
694,807643,YME0371535,Insured,CHRISTOPHER A,GAY,24 HERITAGE RD,,Hilton Head Island,SC,29928,,2674540771,(267) 454-0771,
695,934955,YME0371536,Insured,KAREN M,GAY,24 HERITAGE RD,,HILTON HEAD,SC,29928,,,,
696,438008,93058157,Insured,JOAN,JUDY,24 RILEY RD,,,,,,,,
697,438008,93058157,Owner,JOAN,JUDY,24 RILEY RD,,,,,,,,
698,855463,JJ7132264,Insured,SARAH,DAVISON,24 TREADWELL COURT,,LUTHERVILLE,MD,21093,,,,
699,1093450,TU5447050,Insured,DEVORA,SANFIELD,2400 SHELLEYDALE DR,,BALTIMORE,MD,21209,3210,,,
700,861901,4210079487,Insured,ZACHARY,SANFIELD,2400 SHELLEYDALE DR,,BALTIMORE,MD,21209,,,,
701,861902,181610873,Insured,ZACHARY,SANFIELD,2400 SHELLEYDALE DR,,BALTIMORE,MD,21209,,,,
702,924705,4190102354,Owner,MICHELLE,HOENLEIN,2402 SHELLYDALE DR,,Baltimore,MD,21209,,,,MICHALB183@GMAIL.COM
703,822587,180495712,Insured,FERD,FRANK,2405 SYLVALE ROAD,,BALTIMORE,MD,21209,,,,
704,881858,180461652,Insured,SHARON,MERCURE,2412 CHERRY ST,,PARKERSBURG,WV,26104,,2679923601,(267) 992-3601,SHARMERC@VERIZON.NET
705,871820,180492697,Insured,JOYCE,CODD,2417 W LIBERTY ROAD,,WESTMINSTER,MD,21157,,4433405032,(443) 340-5032,ryandcodd@gmail.com
706,2115991,T400372190,Insured,SEAN,DUFFY,2432 MATHEWS GREEN,,VIRGINIA,VA,23456,,,,
707,830318,181038520,Insured,ANDREW,KRUC,2447 S LEE ST,,PHILADELPHIA,PA,19148,,,,
708,814724,YME0371327,Insured,BRENDA K,BROSNIHAN,245 N RIDGE RD,,MC HENRY,MD,21541,,3015010400,(301) 501-0400,BRENDASBODYSHOP@GMAIL.COM
709,814724,YME0371327,Owner,BRENDA K,BROSNIHAN,245 N RIDGE RD,,MC HENRY,MD,21541,,3015010400,(301) 501-0400,BRENDASBODYSHOP@GMAIL.COM
710,831417,YME0371326,Insured,PETER T,BROSNIHAN,245 N RIDGE RD,,MC HENRY,MD,21541,,,,peteconcept@comcast.net
711,840295,YME0847711,Insured,DANIEL A,BURGOON,245 SAINT JOHNS GOLF DR,,ST AUGUSTINE,FL,32092,,9045405615,(904) 540-5615,danielburgoon@yahoo.com
712,826318,T400029639,Insured,BASHIR,BSEIRANI,24667 SALMON RIVER PLACE,,ALDIE,VA,20105,,,,
713,859642,B00807432,Insured,JOHN,SKOCZELAK,2475 SAMS CREEK RD,,WESTMINSTER,MD,21157,7724,,,
714,440159,L9023565,Insured,JEREMY,SKOCZELAK,2479 SAMS CREST RD,,WESTMINSTER,MD,21157,,,,
715,883498,180507819,Insured,PATRICIA,ROTA,249 2ND ST,,BONITA SPRINGS,FL,34134,,6097429218,(609) 742-9218,paba9123@aol.com
716,818961,180533887,Insured,PATRICIA,ROTA,249 2ND ST,,BONITA SPRINGS,FL,34134,,6097429218,(609) 742-9218,paba9123@aol.com
717,938958,181070564,Insured,PATRICA,CRONIN,25  WORTHINGTON AVE,,SHREWSBURY,MA,1545,,,,
718,2382368,TU5526709,Insured,ASTHA,JAISWAL,25 FLINT POND DR,,NORTH GRAFTON,MA,1536,1448,,,
719,2382368,TU5526709,Owner,ASTHA,JAISWAL,25 FLINT POND DR,,NORTH GRAFTON,MA,1536,1448,,,
720,2382684,TU5526705,Insured,SHUBHAM,GOEL,25 FLINT POND DR,,NORTH GRAFTON,MA,1536,1448,,,
721,2382684,TU5526705,Owner,SHUBHAM,GOEL,25 FLINT POND DR,,NORTH GRAFTON,MA,1536,1448,,,
722,846665,YME1325849,Insured,LAUREN N,SPERA,25 PENN CIR,,SOUTHAMPTON,PA,18966,,,,
723,438801,L8533728,Insured,PETER,SPERA,25 PENN CIR,,HOLLAND,PA,18966,2339,2155301683,(215) 530-1683,
724,438335,9544974,Owner,JOSHUA,HILL,25 S ST NW,,WASHINGTON,DC,20001,1127,,,joochill2@verizon.net
725,438336,9544976,Owner,KA KEI,WONG,25 S ST NW,,WASHINGTON,DC,20001,1127,,,
726,871170,4180007726,Insured,AVIGAYIL,SALOMON,2501 SHELLEYDALE DR,APT D,Baltimore,MD,21209,,,,
727,861908,180387647,Insured,STEVEN,LACHER,2503 GAINFORD ROAD,,TIMONIUM,MD,21093,,,,slacher31@yahoo.com
728,890111,4190119839,Insured,PERRY,LAZAR,2503 Ozark Circle,UNIT 107,Baltimore,MD,21209,,8625711172,(862) 571-1172,
729,890112,4190077461,Insured,PERRY,LAZAR,2503 Ozark Circle,UNIT 107,Baltimore,MD,21209,,8625711172,(862) 571-1172,
730,2110809,TU5488620,Insured,DAVID,WEALCATCH,2507 WILLOW GLEN DR,403,BALTIMORE,MD,21209,3106,,,
731,834249,4190019911,Insured,SHAUL,ENGELSBERG,2510 WETHERBURN RD,,Baltimore,MD,21209,,2483965613,(248) 396-5613,
732,859007,YME0372384,Insured,KENNETH,TINNEY III,252 MAPLE WREATH CT,,ABINGDON,MD,21009,,,,
733,837064,YME0372385,Insured,SHANNON,TINNEY,252 MAPLE WREATH CT,,ABINGDON,MD,21009,,,,
734,808970,181166661,Insured,STEVEN,OLES,2520 SHIPS WATCH COURT,,VIRGINIA BEACH,VA,23451,,4195444504,(419) 544-4504,
735,438291,9535480,Owner,JILL,OLES,2520 SHIPS WATCH CT,,VIRGINIA BEACH,VA,23451,1267,4124186765,(412) 418-6765,
736,440864,V2040765,Insured,RACHEL,ZYGLER,2524 FARRINGDON RD,,BALTIMORE,MD,21209,2543,,,
737,439851,L8360273,Insured,RACHEL,ZYGLER,2524 FARRINGDON RD,,BALTIMORE,MD,21209,2543,,,
738,825325,UME164254L,Owner,RUTH,ZYGLER,2524 FARRINGDON RD,,BALTIMORE,MD,21209,,,,
739,825326,UME164253L,Owner,RUTH,ZYGLER,2524 FARRINGDON RD,,BALTIMORE,MD,21209,,,,
740,825323,YME0487233,Owner,RUTH,ZYGLER,2524 FARRINGDON RD,,BALTIMORE,MD,21209,,,,
741,825324,YME0487234,Owner,RUTH,ZYGLER,2524 FARRINGDON RD,,BALTIMORE,MD,21209,,,,
742,2414100,4220100527,Insured,HARRIS,LOPATO,2525 DEAR MEADOW COURT,,REISTERSTOWN,MD,21136,,,,HARRIS.LOPATO@GMAIL.COM
743,2414100,4220100527,Owner,HARRIS,LOPATO,2525 DEAR MEADOW COURT,,REISTERSTOWN,MD,21136,,,,HARRIS.LOPATO@GMAIL.COM
744,2379957,4220088933,Insured,ALEXANDRA,LOPATO,2525 DEER MEADOW CT,,Reisterstown,MD,21136,,3012522231,(301) 252-2231,ALEXANDRA@BALTIMOREDIAMONDS.COM
745,2379957,4220088933,Owner,ALEXANDRA,LOPATO,2525 DEER MEADOW CT,,Reisterstown,MD,21136,,3012522231,(301) 252-2231,ALEXANDRA@BALTIMOREDIAMONDS.COM
746,818651,180535133,Insured,ABRAHAM,ZUCKERBROD,2529 FARRINGDON RD,,BALTIMORE,MD,21209,,4104284182,(410) 428-4182,
747,936204,UME164306L,Insured,COLLEEN,COHEN,2535 ASH ST,,DENVER,CO,80207,,,,
748,836367,YME1325575,Insured,YOUSSEF J,DERGHAM,2542 GRACE LYN DR,,WESTMINSTER,MD,21157,,4436295226,(443) 629-5226,
749,938527,YME0729661,Insured,TAMAR G,SPOLTER,2595 LARCHMONT RD,,BEACHWOOD,OH,44122,,,,TAMAR3000@HOTMAIL.COM
750,883644,180978510,Insured,YONATAN,SPOLTER,2595 LARCHMONT RD,,BEACHWOOD,OH,44122,,,,
751,819175,UME164252L,Insured,MICHAEL,SPENCE,26 BELOAK CT,,NOTTINGHAM,MD,21236,,,,
752,819175,UME164252L,Owner,MICHAEL,SPENCE,26 BELOAK CT,,NOTTINGHAM,MD,21236,,,,
753,814472,YME0248954,Insured,MICHAEL C,SPENCE,26 BELOAK CT,,NOTTINGHAM,MD,21236,,4435707288,(443) 570-7288,oillady0109@gmail.com
754,814472,YME0248954,Owner,MICHAEL C,SPENCE,26 BELOAK CT,,NOTTINGHAM,MD,21236,,4435707288,(443) 570-7288,oillady0109@gmail.com
755,2254619,T400397771,Insured,MARK,JANASKIE,26 CANDLELIGHT LANE,,REHOBOTH BEACH,DE,19971,,,,
756,2779042,TU5581248,Insured,LORI,KIRR,26 EMERALD RIDGE CT,,BALTIMORE,MD,21209,1560,,,
757,2779042,TU5581248,Owner,LORI,KIRR,26 EMERALD RIDGE CT,,BALTIMORE,MD,21209,1560,,,
758,2794806,4230139063,Insured,STEPHEN,KIRR,26 EMERALD RIDGE CT,,Baltimore,MD,21209,,4433104001,(443) 310-4001,
759,2794806,4230139063,Owner,STEPHEN,KIRR,26 EMERALD RIDGE CT,,Baltimore,MD,21209,,4433104001,(443) 310-4001,
760,888086,181406351,Insured,SHARI,WESTON,260 MATTHEWS AVE,,NEW BRITAIN,PA,18901,,2158133589,(215) 813-3589,
761,823081,180878806,Insured,TIMOTHY,WESTON,260 MATTHEWS AVE,,NEW BRITAIN,PA,18901,,2152841296,(215) 284-1296,stitches1@hotmail.com
762,928506,YME0729923,Insured,JENNIFER M,HAWK,2603 GUNPOWDER FARMS RD,,FALLSTON,MD,21047,,,,JTHAWK@COMCAST.NET
763,859416,YME0280793,Insured,SAUL J,WEINREB,2607 CROWNE RIDGE CT,,VESTAVIA,AL,35243,,4109089258,(410) 908-9258,
764,815502,YME0372363,Insured,KEVIN J,MCFALLS,2607 LAUREL BROOK RD,,FALLSTON,MD,21047,,8082561479,(808) 256-1479,
765,816465,JJ7108679,Insured,MENDEL,VIM,2614 WILLOW GLEN DR,,BALTIMORE,MD,21209,,,,MVIM@HOTMAIL.COM
766,926344,181686887,Insured,CHEYENNE,PHILLIPS,2616 KAETZEL ROAD,,KNOXVILLE,MD,21758,,,,
767,808977,4190088027,Insured,BRENT,LEVENSON,2617 BLAINE DR,,CHEVY CHASE,MD,20815,,,,BRENTLEVENSONES@GMAIL.COM
768,808977,4190088027,Owner,BRENT,LEVENSON,2617 BLAINE DR,,CHEVY CHASE,MD,20815,,,,BRENTLEVENSONES@GMAIL.COM
769,808780,4180031066,Insured,BRANDY,MCINTYRE,2618 PETERS CORNER RD,,Marydel,MD,21649,,,,
770,821183,4180031004,Insured,JOSEPH,MCINTYRE,2618 PETERS CORNER RD,,Marydel,MD,21649,,4434807428,(443) 480-7428,
771,945816,YME0847937,Insured,STEPHEN L,WENGER,2618 THOMPSON DR,,MARRIOTTSVL,MD,21104,,,,
772,861145,YME0487036,Insured,GREGORY R,MOULDER,2627 BOXWOOD DR,,WILMINGTON,DE,19810,,3028971416,(302) 897-1416,
773,876682,UME215755L,Insured,RONALD,GREEN,2656 EMPIE DR,,LELAND,NC,28451,257,4109771300,(410) 977-1300,
774,807851,YME1326091,Insured,LUCA,PESCI,27 SMITH MILL RD,,NEW FREEDOM,PA,17349,,4439965431,(443) 996-5431,matatertot@icloud.com
775,807850,YME1326084,Insured,LUCA,PESCI,27 SMITH MILL RD,,NEW FREEDOM,PA,17349,,4439965431,(443) 996-5431,matatertot@icloud.com
776,897862,YME1326097,Insured,LUCA,PESCI,27 SMITH MILL RD,,NEW FREEDOM,PA,17349,,4439965431,(443) 996-5431,matatertot@icloud.com
777,438896,L8554840,Insured,WILLIAM,FLANIGAN,27 TEABERRY LN,,FROSTBURG,MD,21532,2318,,,
778,928526,YME0168898,Insured,VICTOR L,CARRERA,2700 EMERALD RD,,PARKVILLE,MD,21234,,,,vci65@yahoo.com
779,2381888,TU5534362,Insured,CHAIM,WOLF,2704 JEREMY CT APT F,,BALTIMORE,MD,21209,3015,,,
780,2381888,TU5534362,Owner,CHAIM,WOLF,2704 JEREMY CT APT F,,BALTIMORE,MD,21209,3015,,,
781,2116004,TU5487448,Insured,JOSEPH,BIZOUATI,2705 JEREMY CT,D,BALTIMORE,MD,21209,3023,3053320405,(305) 332-0405,
782,2115960,TU5487449,Insured,SHOSHANA,SILBER,2705 JEREMY CT APT D,APT D,BALTIMORE,MD,21209,3023,,,
783,944406,TU5264303,Insured,KAREN,WLADKOWSKI,2706 BERWICK AVE,,BALTIMORE,MD,21234,7617,4104463015,(410) 446-3015,karen.wladkowski@dii-ins.com
784,944406,TU5264303,Owner,KAREN,WLADKOWSKI,2706 BERWICK AVE,,BALTIMORE,MD,21234,7617,4104463015,(410) 446-3015,karen.wladkowski@dii-ins.com
785,822073,TU5264307,Insured,WILLIAM,WLADKOWSKI,2706 BERWICK AVE,,BALTIMORE,MD,21234,7617,,,
786,860735,180337855,Insured,ISAAC,THOMAS,2709 ACCENT COURT,,BOWIE,MD,20716,,3012195841,(301) 219-5841,
787,840024,4160021329,Insured,RONALD,TEITELBAUM,2729 OLD WASHINGTON ROAD,,WESTMINSTER,MD,21157,,4104284880,(410) 428-4880,RON@3DICC.COM
788,808244,180924960,Insured,NATALIE,CRANE,2732 MERRICK WAY,,ABINGDON,MD,21009,,,,
789,808244,180924960,Owner,NATALIE,CRANE,2732 MERRICK WAY,,ABINGDON,MD,21009,,,,
790,855349,B00961477,Insured,CLAIRE,DUGGAL,275 FAIRTREE PLZ,,SERENA PARK,MD,21146,,2487039729,(248) 703-9729,CLAIRE.DUGGAL@GMAIL.COM
791,2269871,TU5515626,Insured,ELIE,REINER,277 MERRISON ST,,TEANECK,NJ,7666,3436,,,
792,2269627,TU5515676,Insured,GABRIELLA,PFEFFER REINER,277 MERRISON ST,,TEANECK,NJ,7666,3436,,,
793,2269871,TU5515626,Owner,ELIE,REINER,277 MERRISON STREET,,TEANECK,NJ,7666,,,,
794,2269627,TU5515676,Owner,GABRIELLA,PFEFFER REINER,277 MERRISON STREET,,TEANECK,NJ,7666,,,,
795,917334,YME0248564,Insured,DAVID W,STOWELL,277 WASHINGTON ST,,GLOUCESTER,MA,1930,,9788371727,(978) 837-1727,dakota353119@gmail.com
796,844375,4180020536,Insured,MONA,MARTIN,2785 GABCO LANE,,Glenville,PA,17329,,7178808308,(717) 880-8308,
797,830695,4210034276,Insured,KYLE,ALGAZE,279 EAGLE HILL RD,,Pasadena,MD,21122,,,,
798,439697,L8876742,Insured,JEFFREY,COHN,28 ASTON CT,,OWINGS MILLS,MD,21117,1439,,,
799,439694,L8876742,Insured,JEFFREY,COHN,28 ASTON CT,,OWINGS MILLS,MD,21117,1439,,,
800,897871,4190115066,Insured,ANNE,STERNBERG,28 CATHLEEN DRIVE,,RICHBORO,PA,18954,,,,
801,826686,181251318,Insured,MICHAEL,GISRIEL,28 CROFTLEY ROAD,,LUTHERVILLE,MD,21093,,,,MGISRIEL@GMAIL.COM
802,859574,YM00166620,Insured,KAREN L,HANAFIN,28 DOWNS AVE,,Binghamton,NY,13905,,,,
803,900778,YM00166619,Insured,PAUL G,HANAFIN,28 DOWNS AVE,,Binghamton,NY,13905,,,,PAUL.HANAFIN@GMAIL.COM
804,874673,180724963,Insured,GERARD,DECOSTE,28 LANDING ROAD,,MARSHFIELD,MA,2050,,7819646048,(781) 964-6048,
805,936346,YM00139437,Insured,ARON,KATZ,2808 STEELE RD,,BALTIMORE,MD,21209,,4436909017,(443) 690-9017,SHARON.KATZ@GMAIL.COM
806,832664,4170019157,Insured,ATARA,LEWIS,2810 HANSON AVE,,Baltimore,MD,21209,,,,
807,837408,4170017498,Insured,MOSHE,MILLER,2810 HANSON AVE,,Baltimore,MD,21209,,,,
808,823349,B00974660,Insured,MATHEW,CHAKOLA,2820 MARKER RD,,MIDDLETOWN,MD,21769,,,,mchakola@aol.com
809,823350,B00911885,Insured,MATHEW,CHAKOLA,2820 MARKER ROAD,,MIDDLETON,MD,21769,,,,mchakola@aol.com
810,439500,L8813653,Insured,RODNEY,ANDERSON,2823 DIANA DR,,WEBSTER SPGS,WV,26288,9030,,,
811,441076,V2677690,Insured,JACOB,WEALCATCH,2823 W STRATHMORE AVE,,BALTIMORE,MD,21209,3808,,,JACOB@WEALCATCHMD.COM
812,441077,V2677690,Insured,JACOB,WEALCATCH,2823 W STRATHMORE AVE,,BALTIMORE,MD,21209,3808,,,JACOB@WEALCATCHMD.COM
813,892504,YME0730063,Owner,JACOB,WEALCATCH,2823 W STRATHMORE AVE,,Baltimore,MD,21209,,,,JACOB@WEALCATCHMD.COM
814,441076,V2677690,Owner,,,2823 W STRATHMORE AVE,,BALTIMORE,MD,21209,3808,,,
815,441077,V2677690,Owner,,,2823 W STRATHMORE AVE,,BALTIMORE,MD,21209,3808,,,
816,845413,YME0730064,Insured,JACOB,WEALCATCH,2826 TANEY RD,,BALTIMORE,MD,21209,,,,
817,893296,1012943,Insured,VINCENT,BUONO,284 GOLF HILLS RD,,HAVERTOWN,PA,19083,1026,,,
818,878179,TU3142715,Insured,ANTHONY,SANDSTROM,28416 OPENFIELD LOOP,,WESLEY CHAPEL,FL,33543,5757,9544107301,(954) 410-7301,
819,908325,YM00261665,Insured,VALERIE,KULL,289 WOODS EDGE PL,,LANGHORNE,PA,19047,,,,
820,831994,180670907,Insured,WILLIAM,SMITH,29  WEMPE DR,,CUMBERLAND,MD,21502,,,,ironman_ss@hotmail.com
821,816338,181251151,Insured,THOMAS,BRUNEAU,29 MARLOWE RD,,NASHUA,NH,3062,,6032357602,(603) 235-7602,TOM.BRUNEAU05@GMAIL.COM
822,833613,181251155,Insured,MELISSA,BRUNEAU,29 MARLOWE ROAD,,NASHUA,NH,3062,,6038018407,(603) 801-8407,MELISSA.BRUNEAU02@GMAIL.COM
823,807622,TU5140221,Insured,JOSEPH,SAWYER SR,29 PARLIAMENT CT,,BALTIMORE,MD,21212,1235,,,josephsawyer01@yahoo.com
824,1093179,TU5446685,Insured,STEPHANIE,BODENHEIM,29 TENNYSON PL # 1,,PASSAIC,NJ,7055,4513,,,
825,1093181,TU5446682,Insured,YOEL,BODENHEIM,29 TENNYSON PL # 1,,PASSAIC,NJ,7055,4513,,,
826,818968,181082470,Insured,LAURA,ALBERT,290 HIGHLAND AVE,,WINCHESTER,MA,1890,,,,
827,818967,181082482,Insured,MICHAEL,ALBERT,290 HIGHLAND AVE,,WINCHESTER,MA,1890,,6176995566,(617) 699-5566,
828,2594010,TU5546367,Insured,ALIZA,CALM,2901 FALLSTAFF RD UNIT 102,,BALTIMORE,MD,21209,3566,3035187439,(303) 518-7439,
829,883139,TU5383703,Insured,JOSEPH,FRIED,2901 FALLSTAFF RD UNIT 102,,BALTIMORE,MD,21209,3566,,,
830,817450,T400202974,Insured,MEIRA,FERENCE,2901 FALLSTAFF RD UNIT 107,,BALTIMORE,MD,21209,,,,
831,2413682,NT10223124,Insured,JOSEPH,FRIED,2901 FALLSTAFF ROAD UNIT 102,,BALTIMORE,MD,21209,,,,
832,921486,TU5327655,Insured,BINYAMIN,GERSTENFELD,2903 CHOKEBERRY CT,,BALTIMORE,MD,21209,1401,,,
833,825670,TU5327650,Insured,ZEHAVA,GERSTENFELD,2903 CHOKEBERRY CT,,BALTIMORE,MD,21209,1401,,,
834,918920,4190137099,Insured,ARI,WEISS,2904 W JARLATH ST,,Chicago,IL,60645,,,,
835,954844,4210073859,Insured,ZEHAVA,SIMON,2916 MARNAT RD APT B,,Baltimore,MD,21209,,3143599004,(314) 359-9004,
836,954844,4210073859,Owner,ZEHAVA,SIMON,2916 MARNAT RD APT B,,Baltimore,MD,21209,,3143599004,(314) 359-9004,
837,840770,YME0248192,Insured,JOEL M,MARGOLIES,2920 W COYLE AVE,,CHICAGO,IL,60645,,3126362832,(312) 636-2832,
838,840770,YME0248192,Owner,JOEL M,MARGOLIES,2920 W COYLE AVE,,CHICAGO,IL,60645,,3126362832,(312) 636-2832,
839,910294,180554478,Insured,EDWARD,NAIDICH,2953 CHESHAM ST,,FAIRFAX,VA,22031,,7038958432,(703) 895-8432,
840,904450,YME0487001,Insured,KATHRYN S,THOMAS,2979 VALLEY VIEW RD,,ANNAPOLIS,MD,21401,,8507482736,(850) 748-2736,
841,826692,B01048389,Insured,BRANDON,WALLACE,2998 KENSHAW DR,,FINKSBURG,MD,21048,2149,4437891789,(443) 789-1789,
842,929409,YME0849604,Insured,STEVEN G,THOMAS,3 BOWMANS DR,,NEW HOPE,PA,18938,,2159332419,(215) 933-2419,ptmd@erols.com
843,436848,4891730,Owner,,,3 EXECUTIVE PARK DR STE 200,,BEDFORD,NH,3110,6954,,,
844,436850,4891736,Owner,,,3 EXECUTIVE PARK DR STE 200,,BEDFORD,NH,3110,6954,,,
845,818801,YME0847793,Insured,ALYSON D,WELLS,3 QUAIL COVEY CT,,REISTERSTOWN,MD,21136,,,,
846,872982,4189740229,Insured,JAMIE,MILLER,30 HICKORY MEADOW ROAD,,Cockeysville,MD,21030,,,,
847,437270,6664098,Owner,,,30 IRVING PL,,NEW YORK,NY,10003,2303,,,
848,831418,180590196,Insured,EMILY,LISKOW,30 LOUISBURG CIR,,EXETER,NH,3833,,,,
849,840029,181250313,Insured,CARL,CATHELL,30 RIVER HILL ROAD,,OAKLAND,MD,21550,,,,ccathell@yahoo.com
850,1936988,8000184920,Insured,BRANDON,BAFFONE,300 GUN CLUB RD,,HOCKESSIN,DE,19707,8202,,,bbaffone@gmail.com
851,900902,YME0729306,Insured,RALPH C,FEY,300 N BROAD ST,,DOYLESTOWN,PA,18901,,,,ralph.fey@gmail.com
852,924701,YME0729949,Insured,PHILIP J,MADDOX,3006 SCENIC VIEW DR,,FOREST HILL,MD,21050,,,,philmadxx@yahoo.com
853,924701,YME0729949,Owner,PHILIP J,MADDOX,3006 SCENIC VIEW DR,,FOREST HILL,MD,21050,,,,philmadxx@yahoo.com
854,933411,UME164373L,Insured,JEFFREY,WOLOSHIN,301 OXFORD VALLEY RD STE 103B,,YARDLEY,PA,19067,,,,
855,933410,YME0372449,Insured,JEFFREY,WOLOSHIN,301 OXFORD VALLEY RD STE 103B,,YARDLEY,PA,19067,,,,
856,933409,4160005083,Insured,JEFFREY,WOLOSHIN,301 OXFORD VALLEY RD STE 103B,,Yardley,PA,19067,,,,
857,818027,181435273,Insured,CYNTHIA,PACHECO,301 TEAROSE LANE,,CHERRY HILL,NJ,8003,,,,
858,854551,181435275,Insured,LUIS,PACHECO,301 TEAROSE LANE,,CHERRY HILL,NJ,8003,,,,
859,940093,181233593,Insured,ASHOK,GOWDA,3010 DUMBARTON STREET NW,,WASHINGTON,DC,20007,,,,
860,872094,181233589,Insured,PUJA,PAREKH,3010 DUMBARTON STREET NW,,WASHINGTON,DC,20007,,9178175727,(917) 817-5727,
861,942985,4190010007,Insured,ARIEL,KRAMER,3011 FALLSTAFF RD UNIT 304A,,BALTIMORE,MD,21209,,,,
862,938952,4190010008,Insured,TZIPORA,KRAMER,3011 FALLSTAFF RD UNIT 304A,,BALTIMOORE,MD,21209,,,,
863,844919,181240206,Insured,CHERYLANN,GEORGE,3012 PURITY PLACE LOOP,,MURRELLS INLET,SC,29576,,2672182519,(267) 218-2519,cmgeorge76@yahoo.com
864,862163,4200058371,Insured,MICHAEL,TWEEDLE,3015 EBBTIDE DR,,Edgewood,MD,21040,,,,
865,826684,YME0372373,Insured,HEIDEMARIE,MCDOWELL,30171 SOUTHAMPTON BRIDGE RD,,SALISBURY,MD,21804,,4432507143,(443) 250-7143,
866,860812,YME0372891,Insured,DAVID L,MEIER,3018 IRONHILL WAY,,WOODSTOCK,GA,30189,,6787707684,(678) 770-7684,dbardavid@hotmail.com
867,842180,YME0372643,Insured,DEBORAH A,MEIER,3018 IRONHILL WAY,,WOODSTOCK,GA,30189,,,,debbytennis@hotmail.com
868,2267291,TU5496712,Insured,JOEL,SUNSHINE,3023 OLD COURT RD,,BALTIMORE,MD,21208,3303,,,
869,2394698,4220062515,Insured,SARAH,SUNSHINE,3023 OLD COURT RD,,BALTIMORE,MD,21208,,,,
870,437362,6694884,Owner,SAMANTHA,KING,303 E 37TH ST,APT 2E,NEW YORK,NY,10016,33,4433865435,(443) 386-5435,
871,437363,6694884,Owner,SAMANTHA,KING,303 E 37TH ST,APT 2E,NEW YORK,NY,10016,33,4433865435,(443) 386-5435,
872,815224,180440607,Insured,PATRICIA,KENNEY,3030 SW 28TH AVE,,CAPE CORAL,FL,33914,,4103366403,(410) 336-6403,PATTI@KENNEYSALES.COM
873,874623,T700048443,Insured,SALLY A,GROBANI,3031 FALLSTAFF RD # 408 C,,BALTIMORE,MD,21209,,2014038199,(201) 403-8199,
874,874623,T700048443,Owner,SALLY A,GROBANI,3031 FALLSTAFF RD # 408 C,,BALTIMORE,MD,21209,,2014038199,(201) 403-8199,
875,819664,180843676,Insured,LANA,FORBES,3051 DORCHESTER STREET EAST,,FURLONG,PA,18925,,,,FORBESMAIL@VERIZON.NET
876,878184,4180147902,Insured,ERIK,ROSENMAN,31 ARLINGTON STREET,,Acton,MA,1720,,,,peachd@hotmail.com
877,912721,4210019626,Insured,JACK,LITMAN,31 BEDFORD ST,APT 20,New York,NY,10014,,,,
878,878185,4190006346,Insured,RITESH,KUMAR,31 BELMONT DRIVE,,Robbinsville,NJ,8691,,,,
879,438712,L8516742,Owner,,,31 CLOVER LN,,LONDONDERRY,NH,3053,2444,,,
880,2780637,L7210811,Insured,CHRISTOPHER,FIRKEL,310 HORSESHOE RD,,SOUTH MILLS,NC,27976,9513,,,
881,2780637,L7210811,Owner,CHRISTOPHER,FIRKEL,310 HORSESHOE RD,,SOUTH MILLS,NC,27976,9513,,,
882,872097,UME164192L,Insured,DANIEL,O LEARY,3100 FOSTER AVENUE,,BALTIMORE,MD,21224,,4109603048,(410) 960-3048,
883,872097,UME164192L,Owner,DANIEL,O LEARY,3100 FOSTER AVENUE,,BALTIMORE,MD,21224,,4109603048,(410) 960-3048,
884,816253,YME0371826,Insured,MICHAEL J,FRADKIN,3100 STONE CLIFF DR UNIT 209,,BALTIMORE,MD,21209,,,,RPARADISECOVE@VERIZON.NET
885,849641,YME0847731,Insured,MICHAEL J,FRADKIN,3100 STONE CLIFF DR UNIT 209,,BALTIMORE,MD,21209,,,,RPARADISECOVE@VERIZON.NET
886,818896,UM0071522L,Insured,JACOB,EXLER,3103 SMITH AVE,,BALTIMORE,MD,21208,,,,jacobexler@gmail.com
887,833549,180381646,Insured,RACHANA,JAISWAL,3107 FRANKLINS WAY,,OAK HILL,VA,20171,,,,
888,440228,L8412474,Insured,RAJAN,RAI,3107 FRANKLINS WAY,,HERNDON,VA,20171,1924,,,
889,440229,L8412474,Insured,RAJAN,RAI,3107 FRANKLINS WAY,,HERNDON,VA,20171,1924,,,
890,933420,T400086271,Insured,SHARON,SINGERMAN,3109 MARNAT RD,,BALTIMORE,MD,21208,,,,nadavshopping1@gmail.com
891,923494,UME164463L,Insured,ERIC,KASTENDIKE,311 INTERNATIONAL CIR,,COCKEYSVILLE,MD,21030,1460,,,
892,865039,YME0487759,Insured,ERIC N,KASTENDIKE,311 INTERNATIONAL CIR,,COCKEYSVILLE,MD,21030,,,,
893,440725,L9205435,Insured,ERIC,KASTENDIKE,311 INTERNATIONAL CIR STE 140,,COCKEYSVILLE,MD,21030,1460,,,
894,845563,180687835,Insured,CHRISTOPHER,KASTENDIKE,311 INTERNATIONAL CIRCLE,SUITE 140,COCKEYSVILLE,MD,21030,,,,
895,832977,180687854,Insured,ERIC,KASTENDIKE,311-INTERNATIONAL CIRCLE,SUITE 140,COCKEYSVILLE,MD,21030,,,,
896,914533,181182985,Insured,WESLEY,POTTER,313 VALLEY VIEW ROAD,,MEDIA,PA,19063,,,,
897,921127,4190006341,Insured,THOMAS,KNOX,3149 CHERRY AVE,,Saint Louis,MO,63143,,2027706804,(202) 770-6804,
898,921127,4190006341,Owner,THOMAS,KNOX,3149 CHERRY AVE,,Saint Louis,MO,63143,,2027706804,(202) 770-6804,
899,915685,181869869,Insured,SCOTT,COLBY,316 WINDSOR CIRCLE,,CHERRY HILL,NJ,8002,,,,
900,915686,181869872,Insured,STEPHANIE,COLBY,316 WINDSOR CIRCLE,,CHERRY HILL,NJ,8002,,,,
901,807811,YME0372710,Insured,JEREMY W,WOLFE,3196 BISMARCK RD,,MOUNT STORM,WV,26739,,,,
902,844195,YME1713269,Insured,JOHN A,WARNER,32 SUNSET DR,,Gettysburg,PA,17325,,4439745455,(443) 974-5455,jwarner@atotl.com
903,808798,180488237,Insured,JOSEPH,MILLER,320 N VAN BUREN,,FALLS CHURCH,VA,22046,,,,coachjoemiller@yahoo.com
904,855892,YME0168755,Insured,BRIAN R,MINKIN,3202 HATTON RD,,BALTIMORE,MD,21208,,4438892139,(443) 889-2139,
905,813847,JJ7133517,Insured,LOIS JUDITH,VOLOSOV,3203 FALLSTAFF ROAD,,BALTIMORE,MD,21215,,4107460255,(410) 746-0255,loisvolosov@gmail.com
906,2294941,4220071709,Insured,NATHAN,ADLIN,3204 PINKNEY RD,,BALTIMORE,MD,21215,,4123200339,(412) 320-0339,
907,2294941,4220071709,Owner,NATHAN,ADLIN,3204 PINKNEY RD,,BALTIMORE,MD,21215,,4123200339,(412) 320-0339,
908,886859,4190051393,Insured,WILFRED,GERSTEIN,3208 LABYRINTH RD,,Baltimore,MD,21208,,,,
909,919541,YME1907179,Insured,RABBI HERBERT,HEXTER,3208 SHELBURNE RD,,PIKESVILLE,MD,21208,,,,
910,847340,4170020913,Insured,BRIAN,HOLLAND,32086 West Post Office RD,,Princess Anne,MD,21853,,4438805530,(443) 880-5530,lhollandrlj@aol.com
911,846293,B00986326,Insured,NADAV,SINGERMAN,3209 MIDFIELD RD,,BALTIMORE,MD,21208,4421,4106522244,(410) 652-2244,nadav.singerman@gmail.com
912,846293,B00986326,Owner,NADAV,SINGERMAN,3209 MIDFIELD RD,,BALTIMORE,MD,21208,4421,4106522244,(410) 652-2244,nadav.singerman@gmail.com
913,860813,YME1906598,Insured,REEUT E,SINGERMAN,3209 MIDFIELD RD,,PIKESVILLE,MD,21208,,,,R.EVGEY@GMAIL.COM
914,861823,YME1907079,Insured,DAVID A,BELMAN,3209 OLIVER ST NW,,WASHINGTON,DC,20015,,2023651958,(202) 365-1958,
915,865046,YME1907078,Insured,DONNA L,OETZEL,3209 OLIVER ST NW,,WASHINGTON,DC,20015,,2024150818,(202) 415-0818,
916,811206,UME215991L,Insured,GERALD,ZOLLER,321 CHISELED STONE RD,,SYKESVILLE,MD,21784,,,,
917,839047,YME1325651,Owner,GERALD,ZOLLER,321 CHISELED STONE RD,,SYKESVILLE,MD,21784,,,,
918,811206,UME215991L,Owner,GERALD,ZOLLER,321 CHISELED STONE RD,,SYKESVILLE,MD,21784,,,,
919,839047,YME1325651,Insured,GERALD F,ZOLLER,321 CHISELED STONE RD,,SYKESVILLE,MD,21784,,,,AZOLLER1@YAHOO.COM
920,440740,L9214547,Insured,ALEXANDER,COHEN,3210 SHELBURNE RD,,BALTIMORE,MD,21208,5623,,,
921,840036,YME1906564,Insured,TSIONA R,COHEN,3210 SHELBURNE RD,,PIKESVILLE,MD,21208,,,,
922,840036,YME1906564,Owner,TSIONA R,COHEN,3210 SHELBURNE RD,,BALTIMORE,MD,21208,,,,
923,823176,180452719,Insured,ROBIN,LEVINE,3211 TANEY RD,,BALTIMORE,MD,21215,,,,
924,832345,4190121394,Insured,YAAKOV,BARAK,3212 LABYRINTH RD,,Pikesville,MD,21208,,,,
925,832346,4190121393,Insured,YAAKOV,BARAK,3212 LABYRINTH RD,,Pikesville,MD,21208,,,,
926,2832046,TU5582302,Insured,YAEL,WEISBORD,3213 PINKNEY RD,,BALTIMORE,MD,21215,3710,,,
927,2832046,TU5582302,Owner,YAEL,WEISBORD,3213 PINKNEY RD,,BALTIMORE,MD,21215,3710,,,
928,2777041,TU5582298,Insured,YEHUDA,WEISBORD,3213 PINKNEY RD,,BALTIMORE,MD,21215,3710,4439295741,(443) 929-5741,YWEISBORD@GMAIL.COM
929,2777041,TU5582298,Owner,YEHUDA,WEISBORD,3213 PINKNEY ROAD,,BALTIMORE,MD,21215,,4439295741,(443) 929-5741,YWEISBORD@GMAIL.COM
930,2724373,TU5575514,Insured,MENACHEM,LASDUN,3218 SHELBURNE RD,,BALTIMORE,MD,21208,5623,,,
931,2724373,TU5575514,Owner,MENACHEM,LASDUN,3218 SHELBURNE RD,,BALTIMORE,MD,21208,5623,,,
932,809743,180507718,Insured,ANDREW,WISE,3231 QUESADA ST NW,,WASHINGTON,DC,20015,,,,
933,928508,YME0248025,Insured,KARIN L,SORENSON,3233 PINE BLUFFS DR,,ELLICOTT CITY,MD,21042,,,,
934,834360,YME0248026,Insured,MARK S,SORENSON,3233 PINE BLUFFS DR,,ELLICOTT CITY,MD,21042,,,,
935,839608,180710254,Insured,AMY,BIANCONE,324 SUNSET DRIVE,,LAVALE,MD,21502,,,,amybiancone@hotmail.com
936,820685,180710248,Insured,RICHARD,BIANCONE,324 SUNSET DRIVE,,CUMBERLAND,MD,21502,,3016430464,(301) 643-0464,rbiancone@gmail.com
937,825122,180555042,Insured,KERRI,FREIDL,3244 MARCHANT DRIVE,,BETHLEHEM,PA,18017,,4844373527,(484) 437-3527,
938,439249,L8224003,Insured,RONALD,CHIU,3250 CORNWALLIS CT,,DAYTON,OH,45414,2191,9376544884,(937) 654-4884,
939,439250,L8224003,Insured,RONALD,CHIU,3250 CORNWALLIS CT,,DAYTON,OH,45414,2191,9376544884,(937) 654-4884,
940,927658,T400333518,Insured,TERESA,LYONS,3273 GREEN WAY DRIVE,,WESTMINSTER,MD,21157,,5403253809,(540) 325-3809,
941,815661,YM00089110,Insured,JAMES,GAYHARDT,3279 AVENHAM AVE SW,,ROANOKE,VA,24014,,5712156473,(571) 215-6473,
942,815662,YM00089109,Insured,JAMES,GAYHARDT,3279 AVENHAM AVE SW,,ROANOKE,VA,24014,,5712156473,(571) 215-6473,
943,2120205,L7127546,Insured,JAMES,GAYHARDT,3279 AVENHAM AVE SW,,ROANOKE,VA,24014,1438,5712156473,(571) 215-6473,
944,815978,181866256,Insured,KRISTINE,SEGERMARK-DELMONTE,329 MERION AVENUE,,NARBERTH,PA,19072,,,,KRISTINE_DELMONTE@HOTMAIL.COM
945,815978,181866256,Owner,KRISTINE,SEGERMARK-DELMONTE,329 MERION AVENUE,,NARBERTH,PA,19072,,,,KRISTINE_DELMONTE@HOTMAIL.COM
946,947480,180542438,Insured,LEE,COUTEAU,329 S EAST AVE,,BALTIMORE,MD,21224,,4436299155,(443) 629-9155,leeanncouteau@gmail.com
947,862165,180542443,Insured,THOMAS,COUTEAU,329 S EAST AVE,,BALTIMORE,MD,21224,,,,thomarcouteau@gmail.com
948,878186,4180148890,Insured,KENNETH,CHASE,33 HIGHROCK ROAD,,WAYLAND,MA,1778,,6172834970,(617) 283-4970,JLC8KSC@AOL.COM
949,436505,4769971,Owner,,,33 NEVADA RD,,TYNGSBORO,MA,1879,2358,,,
950,924399,T400055407,Insured,ELIE,CALM,3300 NERAK RD,,PIKESVILLE,MD,21208,,,,
951,924399,T400055407,Owner,ELIE,CALM,3300 NERAK RD,,PIKESVILLE,MD,21208,,,,
952,834759,TU5384260,Insured,LEEBA,SIMON,3307 NERAK RD,,BALTIMORE,MD,21208,5619,,,
953,862425,TU5384241,Insured,MENACHEM,SIMON,3307 NERAK RD,,BALTIMORE,MD,21208,5619,3145465897,(314) 546-5897,
954,923888,180854390,Insured,JONATHAN,ROSENBLATT,3307 TIMBERFIELD LANE,,BALTIMORE,MD,21208,,,,
955,808792,180854392,Insured,RACHEL,ROSENBLATT,3307 TIMBERFIELD LANE,,BALTIMORE,MD,21208,,,,
956,2259509,T400404441,Insured,AVRAHAM,GOLISH,3308 MARNAT RD,,BALTIMORE,MD,21208,,,,
957,2267103,TU5510589,Insured,RUCHAMA,GOLISH,3308 MARNAT RD,,BALTIMORE,MD,21208,4507,,,
958,2267103,TU5510589,Owner,RUCHAMA,GOLISH,3308 MARNAT RD,,BALTIMORE,MD,21208,4507,,,
959,833965,180926435,Insured,STEVEN,DAVISS,3312 RUECKERT CT,,BALTIMORE,MD,21224,,4125800354,(412) 580-0354,stevendaviss911@gmail.com
960,833965,180926435,Owner,STEVEN,DAVISS,3312 RUECKERT CT,,BALTIMORE,MD,21224,,4125800354,(412) 580-0354,stevendaviss911@gmail.com
961,830732,YM05080188,Insured,MOISHE M,ABRAMSON,3314 SHELBURNE RD,,PIKESVILLE,MD,21208,,,,
962,827666,YME0730066,Insured,LYNNE G,MIRON,332 N WARNER AVE,,Fremont,MI,49412,,,,
963,2246886,TU5497911,Insured,AHUVA,ROZWASKI,3321 CLARKS LN,A,BALTIMORE,MD,21215,2532,,,
964,2246867,TU5497539,Insured,MICHAEL,ROZWASKI,3321 CLARKS LN,A,BALTIMORE,MD,21215,2532,,,
965,876692,181025718,Insured,KRISTIN,VUCINA,3323 GOVERNOR HOWARD DRIVE,,ELLICOTT CITY,MD,21043,,,,
966,889148,TU5312433,Insured,LEIF,JACKSON,3326 SUE MAC CT,,MONROVIA,MD,21770,8714,2404462004,(240) 446-2004,LEJA316@GMAIL.COM
967,440262,L9803994,Insured,LLOYD,ZYGLER,3333 HENRY HUDSON PKWY APT 17H,,BRONX,NY,10463,3260,,,LZYGLER@GMAIL.COM
968,439854,L8360399,Insured,LLOYD,ZYGLER,3333 HENRY HUDSON PKWY APT 17H,,BRONX,NY,10463,3260,,,LZYGLER@GMAIL.COM
969,437961,82566860,Insured,LLOYD,ZYGLER,3333 HENRY HUDSON PKWY APT 17H,,,,,,,,
970,2544194,TU5541050,Insured,MEIR,BERGER,3334 CLARKS LN APT D,,BALTIMORE,MD,21215,2570,,,
971,2544194,TU5541050,Owner,MEIR,BERGER,3334 CLARKS LN APT D,,BALTIMORE,MD,21215,2570,,,
972,2542957,TU5539709,Insured,BRIAN,HALL,336 PARK AVE,,FREDERICK,MD,21701,4931,2404571397,(240) 457-1397,brian@hedgegardencare.com
973,2542957,TU5539709,Owner,BRIAN,HALL,336 PARK AVE,,FREDERICK,MD,21701,4931,2404571397,(240) 457-1397,brian@hedgegardencare.com
974,2424160,TU5539713,Insured,LUCIA,HALL,336 PARK AVE,,FREDERICK,MD,21701,4931,2023211301,(202) 321-1301,lucia@hedgegardencare.com
975,2424160,TU5539713,Owner,LUCIA,HALL,336 PARK AVE,,FREDERICK,MD,21701,4931,2023211301,(202) 321-1301,lucia@hedgegardencare.com
976,819716,181314424,Insured,LAURA,NAFF,33707 ASHLAND DR,28,FRANKFORD,DE,19945,,,,
977,819180,B00965994,Insured,JOYCE,KOH,339 SANTA LOUISA,,IRVINE,CA,92606,806,,,JOYCEKOHMD@GMAIL.COM
978,908328,YME0487318,Insured,BENJAMIN,SOBOL,3400 OLD POST DR,,Pikesville,MD,21208,,,,jbsobol@gmail.com
979,890559,A71013258L,Insured,JOSHUA,AMBUSH,3402 LABYRINTH,,BALTIMORE,MD,21215,,,,
980,827964,YME0728673,Insured,SHULAMIT,AMBUSH,3402 LABYRINTH RD,,BALTIMORE,MD,21215,,,,
981,947423,4190031468,Insured,LEORA,SONNENBERG,3405 SHELBURNE RD,,PIKESVILLE,MD,21208,,,,
982,860719,YME0168101,Insured,RONIT T,BORCK,3407 OVERBROOK RD,,PIKESVILLE,MD,21208,,4438658264,(443) 865-8264,
983,828705,YME0730366,Insured,JENNIFER B,ZUSSMAN,341 LITTLE QUARRY RD,,GAITHERSBURG,MD,20878,,7038539057,(703) 853-9057,
984,918922,181127777,Insured,DAVID,SALOMON,3415 CLARKS LN,APT C2,BALTIMORE,MD,21215,,6466449443,(646) 644-9443,
985,918922,181127777,Owner,DAVID,SALOMON,3415 CLARKS LN,APT C2,BALTIMORE,MD,21215,,6466449443,(646) 644-9443,
986,919378,4200079774,Insured,RACHEL,BAYLIN,3420 BIRCH HOLLOW ROAD,,Baltimore,MD,21208,,4109086785,(410) 908-6785,
987,862025,181153116,Insured,JEFFREY,TURNER,34209 MARYLAND LINE ROAD,,MASSEY,MD,21650,,,,
988,808979,181433866,Insured,RICHARD,WEHMEYER,345 HUNTINGTON CT,,WEST CHESTER,PA,19380,,,,
989,828586,181532625,Insured,SUSAN,WEHMEYER,345 HUNTINGTON CT,,WEST CHESTER,PA,19380,,,,
990,842529,181107651,Insured,MATTHEW,BROZENA,346 ERIE AVE,,TELFORD,PA,18969,,,,pkradioman@gmail.com
991,847896,181279912,Insured,ROBERT,DOYON,35 CLARK ROAD,,UXBRIDGE,MA,1569,,,,
992,847896,181279912,Owner,ROBERT,DOYON,35 CLARK ROAD,,UXBRIDGE,MA,1569,,,,
993,859924,180525226,Insured,LEE,MILLER,350 BONNIE MEADOW CIR,,REISTERSTOWN,MD,21136,,4104584565,(410) 458-4565,
994,808659,181083671,Insured,AMADEA,RIVERA,350 HERON LANDING WAY,,PRINCE FREDERICK,MD,20678,,4102313939,(410) 231-3939,
995,859885,YME1906872,Insured,MODESTO S,RIVERA,350 HERON LANDING WAY,,Prince Frederick,MD,20678,,4105072100,(410) 507-2100,madyrivera@gmail.com
996,438687,L8512239,Insured,MARK,GHEILER,3500 OLD COURT RD,,BALTIMORE,MD,21208,3123,4432509800,(443) 250-9800,gheilerm@hotmail.com
997,438687,L8512239,Owner,,,3500 OLD COURT RD,,BALTIMORE,MD,21208,3123,,,
998,841936,B00814924,Owner,,,3500 OLD WASHINGTON RD STE 101,,WALDORF,MD,20602,3205,,,
999,841935,4170148761,Owner,,,3500 OLD WASHINGTON ROAD SUITE 101,,Waldorf,MD,20602,,,,
1000,860821,8000086274,Insured,SETH,ROTENBERG,3500 SHELBURNE RD,,BALTIMORE,MD,21208,5629,,,
1001,929169,YM05092681,Insured,SETH M,ROTENBERG,3500 SHELBURNE RD,,BALTIMORE,MD,21208,,,,
1002,929168,YME1907035,Insured,SETH M,ROTENBERG,3500 SHELBURNE RD,,BALTIMORE,MD,21208,,,,
1003,891735,YME0487777,Insured,JONATHAN,EHRENFELD,3502 SOUTHVALE RD,,PIKESVILLE,MD,21208,,4432204419,(443) 220-4419,
1004,921893,114325294,Insured,RICHARD C,MOLLETT,3515 RUNNYMEDE ROAD,,TANEYTOWN,MD,21787,,4104568349,(410) 456-8349,
1005,2698405,114325294,Insured,RICHARD C,MOLLETT,3515 RUNNYMEDE ROAD,,TANEYTOWN,MD,21787,,4104568349,(410) 456-8349,
1006,824554,YME0729768,Insured,ANDREW,FARRELL,3517 PLYERS MILL CT,,KENSINGTON,MD,20895,,,,
1007,441063,V2637151,Insured,LISA,WILLIAMS,3533 WABASH AVE,,BALTIMORE,MD,21215,7433,,,
1008,807499,YME0848031,Insured,JEFFREY M,HUBER,357 VALLEY STREAM RD,,Severna Park,MD,21146,,7203186265,(720) 318-6265,jhuber33@gmail.com
1009,845570,YME0848032,Insured,KATHERINE R,HUBER,357 VALLEY STREAM RD,,Severna Park,MD,21146,,3037259217,(303) 725-9217,KATIEROSSINI@AOL.COM
1010,845570,YME0848032,Owner,KATHERINE R,HUBER,357 VALLEY STREAM RD,,Severna Park,MD,21146,,3037259217,(303) 725-9217,KATIEROSSINI@AOL.COM
1011,821501,4179886924,Insured,DIANA,ROZENBERG,3570 KNERR DRIVE,,Macungie,PA,18062,,,,
1012,819201,180860198,Insured,GREGORY,RENSHAW,36 HIGHLAND ST,,PAXTON,MA,1612,,,,
1013,817247,YME1906527,Insured,ANDREW S,HUDAK,36 LYNDALE AVE,,NOTTINGHAM,MD,21236,,,,
1014,939532,UME164216L,Insured,LLOYD,MAILMAN,3603 WOODVALLEY DR,,BALTIMORE,MD,21208,,2062352925,(206) 235-2925,
1015,909962,181315697,Insured,BARUCH,GUTOW,3604 BANCROFT ROAD,APT D,BALTIMORE,MD,21215,,,,
1016,909961,181315696,Insured,SHOSHANA,GUTOW,3604 BANCROFT ROAD,APT D,BALTIMORE,MD,21215,,,,
1017,438720,L8517279,Insured,MOSHE,KAZIN,3611 ANTON FARMS RD,,PIKESVILLE,MD,21208,1705,4433240696,(443) 324-0696,MOE@MICASATG.COM
1018,438826,L8537915,Insured,REBECCA,KAZIN,3611 ANTON FARMS RD,,PIKESVILLE,MD,21208,1705,,,
1019,832087,180755338,Insured,REBECCA,KAZIN,3611 ANTON FARMS RD,,PIKESVILLE,MD,21208,,,,
1020,438720,L8517279,Owner,,,3611 ANTON FARMS RD,,PIKESVILLE,MD,21208,1705,,,
1021,844508,181044451,Insured,JANINE,LIPINSKI,362 VILLAGE WAY,,CHALFONT,PA,18914,,2679805371,(267) 980-5371,jlipinski@eastech.org
1022,831984,181044446,Insured,ROBERT,BAUERSMITH,362 VILLAGE WAY,,CHALFONT,PA,18914,,,,rbauersmith@comcast.net
1023,809100,180421457,Insured,JOHN,SEES,3622 NANTON TERRACE,,PHILADELPHIA,PA,19154,,2157153148,(215) 715-3148,
1024,808264,YME0372330,Owner,RICHARD A,LEBOW,36234 WATERLEAF WAY,,Selbyville,DE,19975,,4434652009,(443) 465-2009,
1025,823353,YME0168918,Insured,SEAN M,HYLIND,3630 CORNUS LN,,ELLICOTT CITY,MD,21042,,,,
1026,1935953,TU5468909,Insured,DINA,SCHWARTZ,3634 BANCROFT RD,,BALTIMORE,MD,21215,3227,,,
1027,1935953,TU5468909,Owner,DINA,SCHWARTZ,3634 BANCROFT RD,,BALTIMORE,MD,21215,3227,,,
1028,1956507,TU5468912,Insured,MAURICE,SCHWARTZ,3634 BANCROFT RD,,BALTIMORE,MD,21215,3227,3477338868,(347) 733-8868,MAURICESCHWARTZ2@GMAIL.COM
1029,878676,180430411,Insured,ELLIOT,KING,3644 EPPING FOREST WAY,,OWINGS MILLS,MD,21117,,,,
1030,878675,180423742,Insured,ELLIOT,KING,3644 EPPING FOREST WAY,,OWINGS MILLS,MD,21117,,,,
1031,841343,TU3142723,Insured,BRIAN,HENRY,3653 JUNEBERRY DR,,WESLEY CHAPEL,FL,33543,6903,8569040918,(856) 904-0918,
1032,893635,180356493,Insured,DONNA,MILLMAN,3682 ASHLEY WAY,,OWINGS MILLS,MD,21117,,,,donnamccc@verizon.net
1033,908048,YME0280507,Insured,MICHAEL,SATURDAY III,3685 Oakland Sang Run Road,,Oakland,MD,21550,,,,msaturday@gmail.com
1034,818869,UME215884L,Insured,RONALD,VANE,36899 WOOD DUCK WAY,,SELBYVILLE,DE,19975,3855,,,
1035,1214653,4210092024,Insured,RICKY,SACKETT,36981 MOUNT PLEASANT RD,,Willards,MD,21874,,,,
1036,2246152,TU5490702,Insured,DAVID,VARNER,37 MEADOWBROOK CIR,,SUDBURY,MA,1776,2641,6175496689,(617) 549-6689,
1037,906866,4190034551,Insured,STEVEN,ROTHMAN,3702 LABYRINTH RD,,BALTIMORE,MD,21215,,,,
1038,889047,YME0729938,Insured,DOVID S,BLAU,3711 CLARINTH RD,,BALTIMORE,MD,21215,,,,
1039,859995,YME0730113,Insured,PENINA,SAUER,3711 CLARINTH RD,,BALTIMORE,MD,21215,,3013675992,(301) 367-5992,SAUERP613@HOTMAIL.COM
1040,863968,4180072292,Insured,JULIA PATRICIA,NOBLE,375 ROSE GLEN DRIVE,,Radnor,PA,19087,,,,
1041,2001885,4210111298,Insured,RAJALAKSHMI,ANANTHASEKAR,3753 MILLPOND COURT,,Fairfax,VA,22033,,,,
1042,859998,181015319,Insured,DAVID,TUEL,379 GLENWOOD RIDGE RD,,ACCIDENT,MD,21520,,3015011204,(301) 501-1204,
1043,439528,L8819423,Insured,DANIELLE,COHEN,38 STONYBROOK RD,,WESTFORD,MA,1886,1924,,,
1044,828702,YME0847721,Insured,EILEEN B,COCCI,38 TANGLEWOOD RD,,STERLING,MA,1564,,5088461431,(508) 846-1431,ebc07@comcast.net
1045,900129,YM00153345,Insured,WILLIAM D,COCCI,38 TANGLEWOOD RD,,STERLING,MA,1564,,,,wcocci@gmail.com
1046,917807,YME0847720,Insured,WILLIAM D,COCCI,38 TANGLEWOOD RD,,STERLING,MA,1564,,,,wcocci@gmail.com
1047,833212,180782540,Insured,LINDA,SWEENEY,38 W BELLWOOD ST,,HOLLAND,PA,18966,,2158010203,(215) 801-0203,
1048,860672,180782541,Insured,TERRANCE,SWEENEY,38 W BELLWOOD ST,,HOLLAND,PA,18966,,,,
1049,847967,181043354,Insured,EDWARD,ANDRADE,38 WILDER ROAD,,STERLING,MA,1564,,5087283406,(508) 728-3406,rmbcorp@yahoo.com
1050,847968,181043357,Insured,KERI,ANDRADE,38 WILDER ROAD,,STERLING,MA,1564,,,,
1051,841600,4179886705,Insured,YEHOSHUA,HOPFER,3801 MENLO DR,,Baltimore,MD,21215,,,,
1052,821784,4190088564,Insured,JAMES,SCHROEDER,3801 OLD GUN RD E,,Midlothian,VA,23113,,,,
1053,855889,4190088562,Insured,JAMES,SCHROEDER,3801 OLD GUN RD E,5502 ROLAND AVE,Midlothian,VA,23113,,,,
1054,821784,4190088564,Owner,JAMES,SCHROEDER,3801 OLD GUN RD E,,Midlothian,VA,23113,,,,
1055,855889,4190088562,Owner,JAMES,SCHROEDER,3801 OLD GUN RD E,,Midlothian,VA,23113,,,,
1056,906145,YME1907021,Insured,MARK,CIARAPICA,38028 SAILORS CT,,GREENBACKVILE,VA,23356,,,,
1057,910908,YME0371791,Insured,ILLANA B,GOLDFINGER,3809 BANCROFT RD,,BALTIMORE,MD,21215,,4105647659,(410) 564-7659,igoldfinger@aol.com
1058,931294,YME0490828,Insured,PINCHAS,GOLDFINGER,3809 BANCROFT RD,,BALTIMORE,MD,21215,,,,
1059,857510,181267958,Insured,ILLANA,GOLDFINGER,3809 BANCROFT ROAD,,BALTIMORE,MD,21215,,,,
1060,931293,181267951,Insured,PINCHAS,GOLDFINGER,3809 BANCROFT ROAD,,BALTIMORE,MD,21215,,,,
1061,2425126,TU5538084,Insured,PINKAS,MANDEL,3809 MENLO DR,,BALTIMORE,MD,21215,3414,,,
1062,2425126,TU5538084,Owner,PINKAS,MANDEL,3809 MENLO DR,,BALTIMORE,MD,21215,3414,,,
1063,937508,T700070606,Insured,ALEXANDER S,KAUFMAN,3811 CURTIS AVE,,BALTIMORE,MD,21226,,,,
1064,933287,TU5389541,Insured,ELIYAHU,MANDEL,3824 MENLO DR,,BALTIMORE,MD,21215,3431,,,
1065,822324,UME502064L,Insured,JOHN,HOLLAND,3833 RIDERWOOD DR,,SALISBURY,MD,21804,,,,
1066,2270092,8000236834,Insured,JOHN,HOLLAND,3833 RIDERWOOD DRIVE,,SALISBURY,MD,20804,,,,
1067,2270092,8000236834,Owner,JOHN,HOLLAND,3833 RIDERWOOD DRIVE,,SALISBURY,MD,20804,,,,
1068,2269825,8000236838,Insured,ROBYN,HOLLAND,3833 RIDERWOOD DRIVE,,SALISBURY,MD,20804,,,,
1069,2269825,8000236838,Owner,ROBYN,HOLLAND,3833 RIDERWOOD DRIVE,,SALISBURY,MD,20804,,,,
1070,916382,YME1906259,Insured,MICHAEL,FEENEY,384 STONYHILL DR,,CHALFONT,PA,18914,,,,
1071,818957,YME1906258,Insured,PATRICIA C,FEENEY,384 STONYHILL DR,,CHALFONT,PA,18914,,2152805669,(215) 280-5669,
1072,942943,180554991,Insured,JAMIE,STANDRING,39 RESERVOIR AVE,,SWANSEA,MA,2777,,,,
1073,911717,180554961,Insured,MELANIE,STANDRING,39 RESERVOIR AVE,,SWANSEA,MA,2777,,,,
1074,892457,181737274,Insured,NUREEN,IGNACIO,39 TWOMEY CT,,WYNCOTE,PA,19095,,2678085781,(267) 808-5781,
1075,892457,181737274,Owner,NUREEN,IGNACIO,39 TWOMEY CT,,WYNCOTE,PA,19095,,2678085781,(267) 808-5781,
1076,891861,YME1907106,Insured,ISIDOR R,STRAUSS,3906 W STRATHMORE AVE,,BALTIMORE,MD,21215,,,,
1077,920716,TU5243665,Insured,DANIEL,BALSAM,3918 FALLSTAFF RD,,BALTIMORE,MD,21215,1404,6172339881,(617) 233-9881,
1078,942228,TU5243668,Insured,MICHAL,BALSAM,3918 FALLSTAFF RD,,BALTIMORE,MD,21215,1404,9177101314,(917) 710-1314,
1079,818479,TU3135388,Insured,RYAN,MYERS,3921 CARROLLTON RD,,UPPERCO,MD,21155,9626,,,ryan.lee.myers@gmail.com
1080,833605,180762961,Insured,DEVORAH,GERTZ,3921 LABYRINTH ROAD,,BALTIMORE,MD,21215,,,,DOVID.GERTZ@GMAIL.COM
1081,833605,180762961,Owner,DEVORAH,GERTZ,3921 LABYRINTH ROAD,,BALTIMORE,MD,21215,,,,DOVID.GERTZ@GMAIL.COM
1082,816876,181297056,Insured,ADAM,COLEMAN,3931 KESWICK ROAD,,BALTIMORE,MD,21211,,,,
1083,849500,181309199,Insured,LYNN,DESROSIERS,3931 KESWICK ROAD,,BALTIMORE,MD,21211,,5087253104,(508) 725-3104,lynndesrosiers@yahoo.com
1084,863972,181017563,Insured,LINWOOD,HOWARD,39340 CROOKED BRIDGE ROAD,,LEESBURG,VA,20175,,7038638568,(703) 863-8568,
1085,816280,180576590,Insured,MATTHEW,WEIGL,3972 FOREST VALLEY ROAD,,PARKVILLE,MD,21234,,4102452044,(410) 245-2044,
1086,807477,T700019306,Insured,MICHEAUX C,BRANDAU,3A LAKE FANNY RD,,BEL AIR,MD,21014,,,,
1087,824533,TU3121618,Insured,CAROLE,GELOTTI,4 AIRLEY AVE,,NASHUA,NH,3062,1039,,,
1088,809536,YME0848534,Insured,ELLIOT O,ABREU,4 Arabian Way,,Holland,PA,18966,,2155957315,(215) 595-7315,
1089,440660,L9175604,Insured,SCOTT,CONNOR,4 BELMONT DR,,STERLING,MA,1564,1452,9785144895,(978) 514-4895,scottconnor4@comcast.net
1090,440661,L9175604,Insured,SCOTT,CONNOR,4 BELMONT DR,,STERLING,MA,1564,1452,9785144895,(978) 514-4895,scottconnor4@comcast.net
1091,846813,181054208,Insured,SUSAN,CONNOR,4 BELMONT DR,,STERLING,MA,1564,,,,
1092,815710,181035610,Insured,DENNIS,FALLERS,4 GALTS CT,,WILMINGTON,DE,19808,,,,
1093,815710,181035610,Owner,DENNIS,FALLERS,4 GALTS CT,,WILMINGTON,DE,19808,,,,
1094,934870,181035611,Insured,PAMELA,FALLERS,4 GALTS CT,,WILMINGTON,DE,19808,,,,
1095,817298,YM00091193,Insured,ANTHONY V,FEROCI,4 RIDGEWOOD RD,,STERLING,MA,1564,,9783375950,(978) 337-5950,
1096,817298,YM00091193,Owner,ANTHONY V,FEROCI,4 RIDGEWOOD RD,,STERLING,MA,1564,,9783375950,(978) 337-5950,
1097,876053,YME0487577,Insured,BRIDGET R,FEROCI,4 RIDGEWOOD RD,,STERLING,MA,1564,,,,BRIDGET.FEROCI@GMAIL.COM
1098,826314,TU3116548,Insured,JACQUELYN,WAITKUS,4 STONE RUN DR,,NORTON,MA,2766,2565,,,
1099,824533,TU3121618,Owner,,,4 SWALLOW DR,,HOLLIS,NH,3049,6291,,,
1100,830692,TU5422981,Insured,CHAIM,KAUFMAN,40 DANIELLE CT,,JACKSON,NJ,8527,2928,,,
1101,2270026,TU5497639,Insured,MINDY,KAUFMAN,40 DANIELLE CT,,JACKSON,NJ,8527,2928,,,
1102,2270026,TU5497639,Owner,MINDY,KAUFMAN,40 DANIELLE CT,,JACKSON,NJ,8527,,,,
1103,816081,180583716,Insured,MEGHANN,BOOSINGER,400 RIGGS AVE,,SEVERNA PARK,MD,21146,,,,MEGHANN.MUNDY@GMAIL.COM
1104,862422,180583719,Insured,MICHAEL,BOOSINGER,400 RIGGS AVE,,SEVERNA PARK,MD,21146,,,,
1105,439877,L9660422,Insured,BRUCE,STEGER,4001 TILLERMAN CT,,HAMPSTEAD,MD,21074,2562,,,brucesteger@gmail.com
1106,841169,181053472,Insured,CHER,PRZELOMSKI,4004 COLERIDGE RD,,WILMINGTON,DE,19802,,3023883601,(302) 388-3601,
1107,818112,YME0730129,Insured,ANGELA,STARR,401 HIGHLAND AVE,,FITCHBURG,MA,1420,,,,astarr401@gmail.com
1108,439296,L8236732,Insured,KEVIN,STARR,401 HIGHLAND AVE,,FITCHBURG,MA,1420,2667,,,
1109,862197,181220753,Insured,STEVEN,GOLDSTEIN,401 YESHIVA LANE,APT 3D,PIKESVILLE,MD,21208,,,,
1110,2725188,TU5572798,Insured,STEVEN,GOLDSTEIN,401 YESHIVA LN APT 3D,,BALTIMORE,MD,21208,1162,,,
1111,2725188,TU5572798,Owner,STEVEN,GOLDSTEIN,401 YESHIVA LN APT 3D,,BALTIMORE,MD,21208,1162,,,
1112,811689,UM0072473L,Insured,YEVGENIY,SHEYN,4012 GLENROSE ST,,KENSINGTON,MD,20895,,2402747769,(240) 274-7769,gsheyn05@yahoo.com
1113,808655,180393512,Insured,KEVIN,WADZINSKI,4018 N 18TH RD,,ARLINGTON,VA,22207,,7577358911,(757) 735-8911,kwadzinski@gmail.com
1114,818732,YME0371917,Insured,LINDA R,BURTON,4019 OVERLOOK DR,,ELLICOTT CITY,MD,21043,,,,
1115,927657,YME0730166,Insured,LESLY,BERGER,4029 TWILIGHT GROVE CT,,ELLICOTT CITY,MD,21042,,4109053546,(410) 905-3546,
1116,438902,L8557024,Insured,ANDREW,SMITH,403 GRANDVIEW DR,,FROSTBURG,MD,21532,1439,,,
1117,438902,L8557024,Owner,ANDREW,SMITH,403 GRANDVIEW DR,,FROSTBURG,MD,21532,1439,,,
1118,818760,180969444,Insured,YEHUDA,FRIEDMAN,403 YESHIVA LANE,APT 3B,BALTIMORE,MD,21208,,,,
1119,818761,4200029316,Insured,YEHUDA,FRIEDMAN,403 YESHIVA LN APT 3B,,Pikesville,MD,21208,,,,
1120,440619,L9920905,Insured,CHARLES,CHILCOAT,404 ALAN A DALE RD,,ANNAPOLIS,MD,21405,2016,4109205583,(410) 920-5583,
1121,440619,L9920905,Owner,,,404 ALAN A DALE RD,,ANNAPOLIS,MD,21405,2016,,,
1122,883203,YM00136446,Insured,KEVIN D,WATTS,404 PHELPS AVE,,GLEN BURNIE,MD,21060,,,,
1123,440117,L9760056,Owner,,,4042 N NASHVILLE AVE,,CHICAGO,IL,60634,1427,,,
1124,863290,180764120,Insured,EDMOND,TABRIKIAN,405 YESHIVA LANE,APT 3C,BALTIMORE,MD,21208,,,,
1125,859414,180589922,Insured,MICHAEL,NEBLETT,406 DRUM POINT COURT,,PERRYVILLE,MD,21903,,,,
1126,921369,180589845,Insured,MONIQUE,TOWNES-NEBLETT,406 DRUM POINT COURT,,PERRYVILLE,MD,21903,,,,
1127,439983,L8379055,Insured,ROBERT,CANAPP,406 N GORSUCH RD,,WESTMINSTER,MD,21157,6500,,,
1128,439989,L8379064,Insured,ROBERT,CANAPP,406 N GORSUCH RD,,WESTMINSTER,MD,21157,6500,,,
1129,911309,180565513,Insured,BENJAMIN,JANNEY,407 EVANS AVENUE,,WILLOW GROVE,PA,19090,,,,bnjann@aol.com
1130,808969,180565504,Insured,THERESA,JANNEY,407 EVANS AVENUE,,WILLOW GROVE,PA,19090,,,,
1131,814648,180432746,Insured,STEVEN,JOHNSTON,407 OAK CT,,CATONSVILLE,MD,21228,,,,
1132,859333,YME0371371,Insured,EMMANUEL,LIBROWICZ,407 YESHIVA LN APT 1C,,PIKESVILLE,MD,21208,,,,
1133,828300,YME0371370,Insured,AVIVA RACHEL,LIBROWICZ,407 YESHIVA LN APT 2C,,PIKESVILLE,MD,21208,,,,
1134,828300,YME0371370,Owner,AVIVA RACHEL,LIBROWICZ,407 YESHIVA LN APT 2C,,PIKESVILLE,MD,21208,,,,
1135,828157,YME0371254,Insured,EDEN P,GOLDMAN,407 YESHIVA LN APT 3B,,BALTIMORE,MD,21208,,,,
1136,436384,4690967,Owner,,,407BH,C/O GRANDVIEW AVIATION,MIDDLE RIVER,MD,21220,498,,,
1137,436383,4690967,Owner,,,407BH,C/O GRANDVIEW AVIATION,MIDDLE RIVER,MD,21220,498,,,
1138,930379,180925009,Insured,JENNIFER,WALSH,408 WASHINGTON ST,,CUMBERLAND,MD,21502,,,,
1139,816260,181304581,Insured,JACLYN,RYAN,409 HANCOCK DRIVE,,MULLICA HILL,NJ,8062,,6107614000,(610) 761-4000,lasalle_56@comcast.net
1140,888652,YME0248648,Insured,CATHERINE V,CHEEK,409 NEEPIER RD,,BALTIMORE,MD,21228,,,,
1141,888652,YME0248648,Owner,CATHERINE V,CHEEK,409 NEEPIER RD,,BALTIMORE,MD,21228,,,,
1142,843182,181137319,Insured,ASHLEY,CORREIA,41 WELLESLEY DRIVE,,SOMERSET,MA,2726,,,,
1143,927960,UME164324L,Insured,JOHN,STUDE JR,4103 RAVEN HURST CIRCLE,,GLEN ARM,MD,21057,,,,studeta18@gmail.com
1144,842539,YME0168266,Insured,JONATHAN,RUDICK,4117 LELAND ST,,CHEVY CHASE,MD,20815,,2026692208,(202) 669-2208,jonrudick@hotmail.com
1145,925031,YME0168362,Insured,SHAYNA H,RUDICK,4117 LELAND ST,,CHEVY CHASE,MD,20815,,,,shaynarudick@gmail.com
1146,925031,YME0168362,Owner,SHAYNA H,RUDICK,4117 LELAND ST,,CHEVY CHASE,MD,20815,,,,shaynarudick@gmail.com
1147,857692,180942590,Insured,KATHLEEN,MEST,414 AIGBURTH RD,,TOWSON,MD,21286,,,,
1148,878682,181634868,Insured,JOHN,THOMAS,414 COMMONWEALTH DRIVE,,LINCOLN UNIVERSITY,PA,19352,,,,cha.se.t@gmail.com
1149,843935,181634863,Insured,MEGAN,THOMAS,414 COMMONWEALTH DRIVE,,LINCOLN UNIVERSITY,PA,19352,,,,MEGANKAP@HOTMAIL.COM
1150,861600,YME1906581,Insured,PENNY B,EVINS,414 KILMARNOCK DR,,HENRICO,VA,23229,,,,
1151,818144,YME1906580,Insured,SAMUEL N,EVINS,414 KILMARNOCK DR,,HENRICO,VA,23229,,,,
1152,836576,180678344,Insured,BERNARD,WOLTERS,4142 BETHLEHEM ROAD,# E,OAKLAND,MD,21550,,,,
1153,836576,180678344,Owner,BERNARD,WOLTERS,4142 BETHLEHEM ROAD,,OAKLAND,MD,21550,,,,
1154,831837,4210008610,Insured,JOSHUA,GOTTESMAN,4150 DAVIE ROAD EXT APT 2104,,Hollywood,FL,33024,,,,
1155,907303,4170167393,Insured,SEAN,MCPEAK,416 MISAK DR,,West Chester,PA,19380,,,,SSDB.MCPEAK@GMAIL.COM
1156,437369,6699192,Owner,SEAN,MC PEAK,416 MISAK DR,,WEST CHESTER,PA,19380,6331,,,SSDB.MCPEAK@GMAIL.COM
1157,819482,181028952,Insured,RONALD,RAYNE,416 PARK CREEK ROAD,,PASADENA,MD,21122,,,,ron.rayne@ascendantinnovations.com
1158,909244,YME0280617,Insured,BENNETT G,KAUFMAN,4175 PRADO DE LOS ZORROS,,CALABASAS,CA,91302,,,,bkball2@mindspring.com
1159,439570,L8830818,Insured,NICHOLAS,LOUGH,42 LOUGH LN,,WEBSTER SPGS,WV,26288,8369,,,
1160,847975,B01049565,Insured,AUDREY,HOM,42 SABRINA DR,,BETHANY,CT,6524,3181,,,
1161,942934,YME0847792,Insured,BARRY L,STEIN,423 Harrison Drive,,Northfield,NJ,8225,,,,
1162,440117,L9760056,Insured,SHAUN,QUINN,4237 N KOLMAR AVE,,CHICAGO,IL,60641,1948,,,
1163,837716,UME164230L,Insured,STEPHEN,REDD,425 OAK LN,,TOWSON,MD,21286,,,,
1164,909410,UME164028L,Insured,STEPHEN,REDD,425 OAK LN,,TOWSON,MD,21286,7329,,,
1165,922857,TU5146381,Insured,BRAD,VACCA,426 BARNES AVE,,WESTMINSTER,MD,21157,5966,,,
1166,922857,TU5146381,Owner,BRAD,VACCA,426 BARNES AVE,,WESTMINSTER,MD,21157,5966,,,
1167,875851,YME0168943,Insured,BRAD A,VACCA,426 BARNES AVE,,WESTMINSTER,MD,21157,,,,bradvacca@yahoo.com
1168,875851,YME0168943,Owner,BRAD A,VACCA,426 BARNES AVE,,WESTMINSTER,MD,21157,,,,bradvacca@yahoo.com
1169,878181,4160021156,Insured,JENNIFER,NOLEN,427 TIMBERLINE DR,,Mount Laurel,NJ,8054,,,,
1170,890005,B00668414,Insured,STEVEN,GLAZER,427 YESHIVA LN,,BALTIMORE,MD,21208,1120,,,
1171,810221,181246747,Insured,VICTORIA,WERNER,428 MANOR RD,,ARNOLD,MD,21012,,,,
1172,893783,180793582,Insured,MICHAEL,CLARKE,43 BRISTOL ROAD,,WELLESLEY,MA,2481,,,,
1173,866902,180713538,Insured,COREY,HUTSON,43 BURT ST,,BERKLEY,MA,2779,,,,tyhutson8@yahoo.com
1174,925228,4170158087,Insured,LEE,WEBB,431 BRIARCREEK DR,,Hockessin,DE,19707,,4107263367,(410) 726-3367,LEE.LAI@HOTMAIL.COM
1175,925228,4170158087,Owner,LEE,WEBB,431 BRIARCREEK DR,,Hockessin,DE,19707,,4107263367,(410) 726-3367,LEE.LAI@HOTMAIL.COM
1176,937485,180329028,Insured,NAKISHA,LEWIS,4316 ASHBURNER ST,,PHILADELPHIA,PA,19136,,2672282357,(267) 228-2357,lnakisha@gmail.com
1177,904893,4180125701,Insured,NICOLE,SMITH,4339 REGALWOOD TERRACE,,Burtonsville,MD,20866,,,,
1178,942415,180704103,Insured,THOMAS,OBRIEN,435 CROSS CREEK DRIVE,,HUNTINGTOWN,MD,20639,,,,
1179,913892,YME0730233,Insured,ARTHUR E,STRIETBECK,44 REGATTA CT,,Ridgeley,WV,26753,,,,
1180,829656,YME0730234,Insured,ELIZABETH L,STRIETBECK,44 REGATTA CT,,Ridgeley,WV,26753,,,,
1181,870975,YME0848674,Insured,BRIAN N,GOLDBLUM,4427 SUMMER MEADOW DR,,DOYLESTOWN,PA,18902,,,,
1182,870975,YME0848674,Owner,BRIAN N,GOLDBLUM,4427 SUMMER MEADOW DR,,DOYLESTOWN,PA,18902,,,,
1183,829336,180504011,Insured,CHARLES,MCMAHON,445 CHARLES STREET AVE,,TOWSON,MD,21204,,,,
1184,440959,V2278103,Owner,MARY,JOHNSON KELLEY,4450 S PARK AVE APT 1809,,CHEVY CHASE,MD,20815,3647,,,
1185,440959,V2278103,Insured,ROBERT,KELLEY,4450 S PARK AVE APT 1809,,CHEVY CHASE,MD,20815,3647,,,viva.kelley@mac.com
1186,833795,YM00161299,Insured,LINDA J,KALLMYER,4459 DONCASTER DR,,ELLICOTT CITY,MD,21043,,4109167438,(410) 916-7438,
1187,848006,YM00161298,Insured,ROCH J,KALLMYER,4459 DONCASTER DR,,ELLICOTT CITY,MD,21043,,,,roch@comcast.net
1188,848005,YM00174248,Insured,ROCH J,KALLMYER,4459 DONCASTER DR,,ELLICOTT CITY,MD,21043,,,,roch@comcast.net
1189,882232,181113312,Insured,AARON,LUNDNER,4460 UNIVERSITY PARKWAY,,UNIVERSITY HEIGHTS,OH,44118,,2164964782,(216) 496-4782,andlundner@yahoo.com
1190,439852,L8924779,Insured,MICHAEL,TOLBERT,4491 CHICKEN CITY RD,,CHINCOTEAGUE,VA,23336,2305,,,
1191,818533,YME1710201,Insured,DENNIS M,JANKOWIAK,45 LOGAN DR,,NEW FREEDOM,PA,17349,,,,
1192,835531,YME1710203,Insured,LORI L,JANKOWIAK,45 LOGAN DR,,NEW FREEDOM,PA,17349,,,,LORIJANKOWIAK@GMAIL.COM
1193,866832,4180110456,Insured,CHERIE,SCHOLL,4507 BROOKSIDE AVE,,Bristol,PA,19007,,,,
1194,909223,4180110466,Insured,FRANK,SCHOLL,4507 BROOKSIDE AVE,,BRISTOL,PA,14007,,2153505227,(215) 350-5227,
1195,838997,YME0168295,Insured,RODNEY L,CROWNOVER,4509 FOWLERS CREEK DR,,Zebulon,NC,27597,,9198170525,(919) 817-0525,
1196,940564,YME0168294,Insured,SHERRY L,BARR,4509 Fowlers Creek Drive,,Zebulon,NC,27597,,,,
1197,831402,YME0248396,Insured,SUSAN C,ANDERSON,453 MARYLEBORN RD,,SEVERNA PARK,MD,21146,,,,
1198,831402,YME0248396,Owner,SUSAN C,ANDERSON,453 MARYLEBORN RD,,SEVERNA PARK,MD,21146,,,,
1199,811699,YME0248395,Insured,WILLIAM J,ANDERSON,453 MARYLEBORN RD,,SEVERNA PARK,MD,21146,,,,
1200,878075,180332321,Insured,JULIE,NOSKOW,4533 FAIRFIELD DRIVE,,BETHESDA,MD,20814,,,,jknoskow@yahoo.com
1201,822353,YME1907182,Insured,DALE,VAN AKEN,46 BOWMANS DR,,NEW HOPE,PA,18938,,,,
1202,810784,UME164304L,Insured,STEVEN,LOUKO,46 KING ARTHUR RD,,NORTH EASTON,MA,2356,,7818880358,(781) 888-0358,bbalgrl703@hotmail.com
1203,945715,180967068,Insured,PATRICK,MCGRADY,46 PARADISE ROAD,,ABERDEEN,MD,21001,,8103947278,(810) 394-7278,plm5002@gmail.com
1204,884122,180474238,Insured,MELISSA,HOPKINS,460 GLEASONDALE RD,,STOW,MA,1775,,,,
1205,890565,180474236,Insured,PATRICK,HOPKINS,460 GLEASONDALE RD,,STOW,MA,1775,,,,
1206,841177,TU5271992,Insured,ELISE,KNOBLOCH,460 GLENVILLE ROAD,,GLENVILLE,PA,17329,,4437893647,(443) 789-3647,KNOBLOCHELISE@COMCAST.NET
1207,843180,180714996,Insured,ROBERT,MANSURE,461 MARKLE ST,,PHILADELPHIA,PA,19128,,,,
1208,933349,YME0281869,Insured,ELIZABETH,MARQUIS,4614 BERGSTROM RD,,DOYLESTOWN,PA,18902,,2155880535,(215) 588-0535,
1209,848090,180413397,Insured,HARTMUT,SCHNEIDER,4620 WINDOM PL NW,,WASHINGTON,DC,20016,,,,SHARTMUT@GMAIL.COM
1210,929856,180496831,Insured,MANJARI,MISHRA,4623 TORREY CIR,APT Q307,SAN DIEGO,CA,92130,,3153516454,(315) 351-6454,MANJARI.MISHRA@GMAIL.COM
1211,895019,YME0730168,Insured,OLIVER C,GALITA,4627 LEARNED SAGE,,ELLICOTT CITY,MD,21042,,,,o_galita@hotmail.com
1212,932923,4170144427,Insured,SCOTT,SHANKS,4629 S LEISSURE CT,,Ellicott City,MD,21043,,4108689292,(410) 868-9292,
1213,2302011,TU5523768,Insured,GUY,CRAGWELL,4634 DILLON PL,,BALTIMORE,MD,21224,5190,,,FOURGUY@HOTMAIL.COM
1214,2302011,TU5523768,Owner,GUY,CRAGWELL,4634 DILLON PLACE,,BALTIMORE,MD,21224,,,,FOURGUY@HOTMAIL.COM
1215,1154845,4210085236,Insured,JEREMY,JACOBOWITZ,465 MONROE ST,,Cedarhurst,NY,11516,,,,
1216,437296,6672908,Owner,ALYSON,GASS,468 BARRINGTON ST,,HORSHAM,PA,19044,1256,9737230151,(973) 723-0151,
1217,437295,6672907,Owner,DAVID,GASS,468 BARRINGTON ST,,HORSHAM,PA,19044,1256,9736150955,(973) 615-0955,dgass24@hotmail.com
1218,939702,YME0730101,Insured,KARYN,YAGER,47 GOUCHER WOODS CT,,TOWSON,MD,21286,,,,karynyager@verizon.net
1219,939702,YME0730101,Owner,KARYN,YAGER,47 GOUCHER WOODS CT,,TOWSON,MD,21286,,,,karynyager@verizon.net
1220,842835,181369729,Insured,KEVIN,NEWTON,47 SUMMIT AVE,,NORTH SMITHFIELD,RI,2896,,,,
1221,937837,180431201,Insured,SAMI,SATOURI,4703 AUTUMN GLORY WAY,,CHANTILLY,VA,20151,,7036262112,(703) 626-2112,
1222,937838,180431199,Insured,SAMI,SATOURI,4703 AUTUMN GLORY WAY,,CHANTILLY,VA,20151,,7036262112,(703) 626-2112,
1223,837817,180372334,Insured,ANTONI,AKARIS,4704 HARVARD RD,,COLLEGE PARK,MD,20740,,,,
1224,837817,180372334,Owner,ANTONI,AKARIS,4704 HARVARD RD,,COLLEGE PARK,MD,20740,,,,
1225,844682,180372333,Insured,MELISSA,AKARIS,4704 HARVARD RD,,COLLEGE PARK,MD,20740,,2406010684,(240) 601-0684,MASSIVEARTATTACKER@GMAIL.COM
1226,856005,180658799,Insured,BRAD,BECKSTROM,4710 6TH STREET SOUTH,,ARLINGTON,VA,22204,,,,bradbeckstrom@gmail.com
1227,907304,181356557,Insured,KIM,SMITH,4731 FALCON ST,,ROCKVILLE,MD,20853,,,,
1228,881196,181311949,Insured,MARIE,KAHLAN,477 WOODHAVEN ROAD,,PHILADELPHIA,PA,19116,,2677849660,(267) 784-9660,
1229,830324,181311953,Insured,RONALD,KAHLAN,477 WOODHAVEN ROAD,,PHILADELPHIA,PA,19116,,2677849661,(267) 784-9661,
1230,943329,YME1326327,Insured,JOSE J,ALBORNOZ,48 KINGSBURY DR,,HOLLISTON,MA,1746,,,,ALBORNOZJULIAN@YAHOO.COM
1231,863263,YME0487960,Insured,LAWRENCE B,HOFFMAN,4801 DRUMMOND AVE,,CHEVY CHASE,MD,20815,,,,
1232,837751,181648319,Insured,DANIEL,PALESE,483 ELK FOREST ROAD,,ELKTON,MD,21921,,,,HARLEYADOG@GMAIL.COM
1233,814010,YME0371133,Insured,MATTHEW E,DIAMOND,484 EMERSON AVE,,TEANECK,NJ,7666,,2019812529,(201) 981-2529,mdiamond8@yahoo.com
1234,946757,180818691,Insured,STEFANIE,DIAMOND,484 EMERSON AVE,,TEANECK,NJ,7666,,,,stefdiamond@gmail.com
1235,859757,181384814,Insured,HERSHEL,LIBBER,4903 WEST TOWNSEND ST,,MILWAUKEE,WI,53216,,,,
1236,2684166,TU5566804,Insured,ANSHUL,SAXENA,4914 MARCH BROWN RD,,ELKRIDGE,MD,21075,6339,,,
1237,888094,TU5290337,Insured,ANSHUL,SAXENA,4914 MARCH BROWN RD,,ELKRIDGE,MD,21075,6339,,,
1238,938953,5000008897,Insured,CHHAVI,JAISWAL,4914 MARCH BROWN ROAD,,ELKRIDGE,MD,21075,,,,
1239,938640,YM05089183,Insured,ALAN M,BLANK,4976 WESCOTT BLVD APT 1112,,Summerville,SC,29485,,,,
1240,825674,181209747,Insured,AARON,SYLVIA,5 COLIN CIRCLE,,WARREN,RI,2885,,4014651803,(401) 465-1803,AJIGGA@GMAIL.COM
1241,2697009,109009936,Insured,LEE A,BARSKY,5 HANOVER COURT,,LANGHORNE,PA,19047,,,,labarsky@aol.com
1242,909778,109009936,Insured,LEE A,BARSKY,5 HANOVER COURT,,LANGHORNE,PA,19047,,,,labarsky@aol.com
1243,849551,YME0487913,Insured,ELIZABETH,KUHN,5 HARFORD VIEW DR,,PORT DEPOSIT,MD,21904,,,,
1244,844823,YME1325726,Insured,CHARLES W,MCDERMOTT,5 MEDORI CT,,KINGSVILLE,MD,21087,,,,
1245,846580,YME1325727,Insured,KRISTIN M,MCDERMOTT,5 MEDORI CT,,KINGSVILLE,MD,21087,,,,
1246,827016,YME0849521,Insured,ALISSA,REINHARDT,5 QUINCE CIR,,NEWTOWN,PA,18940,,,,
1247,826424,FL0135670,Insured,MARY,CICCARELLI,5 STEVEN CIR,,NATICK,MA,1760,3650,,,
1248,821186,180928145,Insured,JACQUELYN,HASHER,50 CRESTON AVENUE,,AUDUBON,NJ,8106,,,,
1249,874618,180779755,Owner,,,50 SALEM STREET,SUITE 303,LYNNFIELD,MA,1940,,,,
1250,930581,YME0847808,Insured,JESSICA R,ZIMMERMAN,500 GANK RD,,OAKLAND,MD,21550,,,,
1251,908584,YME0847794,Insured,MATTHEW L,ZIMMERMAN,500 GANK RD,,OAKLAND,MD,21550,,,,MATJESZIMMERMAN@LIVE.COM
1252,841335,4180108698,Insured,ANDREW,ZOLLER,5000 LAKEHILL BLVD,,Frisco,TX,75034,,,,
1253,841336,4180085508,Insured,ANDREW,ZOLLER,5000 LAKEHILL BLVD,,Frisco,TX,75034,,,,
1254,922850,180276105,Insured,GLENN,PAGE,502 DEERING AVE,,PORTLAND,ME,4103,,,,
1255,924582,YME1714832,Insured,DANIEL A,WEINBERG,5024 STONE HILL DR,,ELLICOTT CITY,MD,21043,,,,
1256,924582,YME1714832,Owner,DANIEL A,WEINBERG,5024 STONE HILL DR,,ELLICOTT CITY,MD,21043,,,,
1257,894438,180913721,Insured,JACKIE,WEINBERG,5024 STONE HILL DR,,ELLICOTT CITY,MD,21043,,3123202222,(312) 320-2222,
1258,441052,V2605506,Insured,OLGA,D'AGOSTINO,504 PELHAM DR,,GALLOWAY,NJ,8205,9666,,,
1259,441052,V2605506,Owner,OLGA,D'AGOSTINO,504 PELHAM DR,,GALLOWAY,NJ,8205,9666,,,
1260,833780,10464543,Insured,KAREN,BUCKMASTER,505 48TH ST,,BALTIMORE,MD,21224,3115,,,
1261,817175,YME0168299,Insured,SEMRA,SAHINCI,507 LAKELAND RD S,,SEVERNA PARK,MD,21146,,4136877983,(413) 687-7983,
1262,923731,YME0487987,Insured,RICHARD W,KLUEBER,510 BEAUMONT CIR,,WEST CHESTER,PA,19380,,,,RICH.KLUEBER@MICROSOFT.COM
1263,923731,YME0487987,Owner,RICHARD W,KLUEBER,510 BEAUMONT CIR,,WEST CHESTER,PA,19380,,,,RICH.KLUEBER@MICROSOFT.COM
1264,837607,YME0487988,Owner,TIFFANY C,KLUEBER,510 BEAUMONT CIR,,WEST CHESTER,PA,19380,,,,
1265,865051,180760238,Insured,MICHAEL,JOY,5107 CATHEDRAL AVENUE NW,,WASHINGTON,DC,20016,,2022887908,(202) 288-7908,
1266,837931,B00989782,Insured,JAMES,RASCH,5113 DUSTY LN,,LINEBORO,MD,21102,3141,,,
1267,890319,B00989783,Insured,SUSAN,RASCH,5113 DUSTY LN,,LINEBORO,MD,21102,3141,4432861624,(443) 286-1624,
1268,810524,180432631,Insured,GLENN,RUPERT,5117 SWISSWOOD DR,,RALEIGH,NC,27613,,9196080918,(919) 608-0918,gtrupert@nc.rr.com
1269,810525,180432628,Insured,GLENN,RUPERT,5117 SWISSWOOD DR,,RALEIGH,NC,27613,,9196080918,(919) 608-0918,gtrupert@nc.rr.com
1270,441207,L9455447,Insured,STACY,ZACHRY,512 HARRINGTON RD,,RISING SUN,MD,21911,2425,,,
1271,441207,L9455447,Owner,STACY,ZACHRY,512 HARRINGTON RD,,RISING SUN,MD,21911,2425,,,
1272,868692,YME0371475,Insured,ANDREW M,BRIGHTON,515 SCRIMSHAW WAY,,SEVERNA PARK,MD,21146,,4105625062,(410) 562-5062,melissabrighton@gmail.com
1273,868691,YME0371863,Insured,ANDREW M,BRIGHTON,515 SCRIMSHAW WAY,,SEVERNA PARK,MD,21146,,4105625062,(410) 562-5062,melissabrighton@gmail.com
1274,905097,YME0371865,Insured,MELISSA L,BRIGHTON,515 SCRIMSHAW WAY,,SEVERNA PARK,MD,21146,,,,melissa.brighton@gmail.com
1275,437927,81984643,Insured,SCOTT,GREENWALD,5166 MEADOWCREEK DR,,,,,,,,
1276,437927,81984643,Owner,SCOTT,GREENWALD,5166 MEADOWCREEK DR,,,,,,,,
1277,845419,180745710,Insured,DEBRA,LONG,517 FAIRHILL RD,,HATFIELD,PA,19440,,2154291337,(215) 429-1337,my3critters@msn.com
1278,920836,180745664,Insured,JOHN,LONG,517 FAIRHILL RD,,HATFIELD,PA,19440,,2673827157,(267) 382-7157,
1279,823700,180342549,Insured,JENNIFER,KALISH,519 S 45TH STREET,,PHILADELPHIA,PA,19104,,2034445557,(203) 444-5557,jennifer.kalish@gmail.com
1280,823699,180869418,Insured,JENNIFER,KALISH,519 S 45TH STREET,,PHILADELPHIA,PA,19104,,2034445557,(203) 444-5557,jennifer.kalish@gmail.com
1281,836398,180342551,Insured,YECHIEL,SCHUR,519 S 45TH STREET,,PHILADELPHIA,PA,19104,,,,
1282,836399,180869421,Insured,YECHIEL,SCHUR,519 S 45TH STREET,,PHILADELPHIA,PA,19104,,,,
1283,936197,180821657,Insured,NATHAN,KNAUER,5191 W HEAPS RD,,PYLESVILLE,MD,21132,,,,NATEKNAUER@YAHOO.COM
1284,934951,180878263,Insured,J,GRACE,52 WILLOW ST,,BRAINTREE,MA,2184,,7814245462,(781) 424-5462,
1285,934951,180878263,Owner,J,GRACE,52 WILLOW ST,,BRAINTREE,MA,2184,,7814245462,(781) 424-5462,
1286,859662,181037626,Insured,VICTORIA,VASQUES,520 1/2 S PITT ST,,ALEXANDRIA,VA,22314,,,,
1287,816882,181177172,Insured,ANNA,FEDON,520 MOUNTAIN VIEW RD,,NAZARETH,PA,18064,,,,annafedon@gmail.com
1288,888092,180408066,Insured,CARMEN,RUFFO BRAY,5206 KINGS PARK DRIVE,,SPRINGFIELD,VA,22151,,,,
1289,888091,180408061,Insured,STEPHEN,BRAY,5206 KINGS PARK DRIVE,,SPRINGFIELD,VA,22151,,,,novatbbucfan@yahoo.com
1290,847321,YME0487528,Insured,NEIL A,DIFFENDERFER,5215 OLD HANOVER RD,,WESTMINSTER,MD,21158,,,,
1291,1956488,TU5462767,Insured,AARON,MAGID,5228 GROVEMONT DR,,ELKRIDGE,MD,21075,5549,,,
1292,1215542,TU5462778,Insured,MARGARET,BRISCOE,5228 GROVEMONT DR,,ELKRIDGE,MD,21075,5549,,,sagebriscoe@gmail.com
1293,2264089,T400411083,Insured,JAMES,LEE,5231 PARK RIDGE CT,,CROZET,VA,22932,3162,,,jamesdlee@hotmail.com
1294,2264089,T400411083,Owner,JAMES,LEE,5231 PARK RIDGE CT,,CROZET,VA,22932,3162,,,jamesdlee@hotmail.com
1295,890896,180469605,Insured,JAY,MAUST,528 AIKEN MILLER RD,,ACCIDENT,MD,21520,,,,
1296,818083,YME0729924,Insured,JEFFREY T,HAWK,528 ARAMA DRIVE,,FALSTON,MD,21047,,,,JEFF.HAWK@HOTMAIL.COM
1297,438206,9505856,Owner,ALANA,FEULING,528 W 51ST ST,,MIAMI BEACH,FL,33140,2611,,,
1298,825482,YM00107038,Insured,CHRISTINE C,CANNON,529 DUDLEY AVE,,NARBERTH,PA,19072,,,,
1299,932335,YM00104597,Insured,TIMOTHY A,CANNON,529 DUDLEY AVE,,NARBERTH,PA,19072,,,,
1300,438669,L8502407,Insured,LORETTA,KSIAZEK,53 FAIR OAKS CT,,NEWTOWN,PA,18940,2339,8508033850,(850) 803-3850,
1301,438671,L8502552,Insured,MICHAEL,KSIAZEK,53 FAIR OAKS CT,,NEWTOWN,PA,18940,2339,,,lorriekeys88@gmail.com
1302,936333,YME4004955,Insured,BENJAMIN L,MILLER,530 GRAND WAILEA DR APT 912,,Hope Mills,NC,28348,,,,blmill04@gmail.com
1303,826848,B00950291,Insured,PAUL,MATHEWS,530 W OLD LIBERTY RD,,SYKESVILLE,MD,21784,9034,,,DEB_MATHEWS@COMCAST.NET
1304,902257,YME1326273,Insured,CHRISTINA,DANIELEWICZ,5317 MERGANSER WAY,,BENSALEM,PA,19020,,,,byk_rydr@hotmail.com
1305,884680,YME1326274,Insured,GREGORY,DANIELEWICZ,5317 MERGANSER WAY,,BENSALEM,PA,19020,,2159622241,(215) 962-2241,
1306,902255,YME1325945,Insured,JESSICA,DANIELEWICZ,5317 MERGANSER WAY,,BENSALEM,PA,19020,,2675665986,(267) 566-5986,
1307,902256,YME1325944,Insured,NICOLE,DANIELEWICZ,5317 MERGANSER WAY,,BENSALEM,PA,19020,,2672296232,(267) 229-6232,
1308,905792,YME0728595,Insured,VALERIE,UCCELLANI,532 ARABELLA ST,,NEW ORLEANS,LA,70115,,5042322959,(504) 232-2959,UVALERIE@YAHOO.COM
1309,943850,180470481,Insured,RICHARD,MOLLETT,54 DUNKIRK ROAD,,BALTIMORE,MD,21212,,,,
1310,809421,YME0848633,Insured,MARC B,MUROFF,54 SPARROW WALK,,NEWTOWN,PA,18940,,2152873525,(215) 287-3525,
1311,908286,YM00097073,Insured,LAURA L,WADE,545 ASHBURNHAM ST,,FITCHBURG,MA,1420,,9785499220,(978) 549-9220,
1312,833816,YM00098596,Insured,WARREN M,WADE,545 ASHBURNHAM ST,,FITCHBURG,MA,1420,,9785492202,(978) 549-2202,
1313,855522,YM00153475,Insured,LAURA S,MICHAEL,545 N FIRST ST,,CUMBERLAND,MD,21502,,,,
1314,864392,0000M69343,Insured,BABETTE M,POYER,548 POINT FIELD DR,,MILLERSVILLE,MD,21108,,,,
1315,855375,181466707,Insured,GREGORY,WHITE,550 SHAKESPEARE DR,,HARLEYSVILLE,PA,19438,,2154992200,(215) 499-2200,colewhite80@gmail.com
1316,923281,181007193,Insured,PAMELA,DALTON,5509 WESTCOTT CIRCLE,,FREDERICK,MD,21703,,,,pammsdr@aol.com
1317,860824,181128187,Insured,ROSEMARIE,MARTIN,553 HOUCK ROAD,,WESTMINSTER,MD,21157,,,,
1318,832665,JJ7201953,Insured,MICHAEL GUY,TRICE,5581 HAWKEYE RD,,E NEW MARKET,MD,21631,,,,
1319,440634,L9939499,Insured,WANDA,STREETT,5611 WILLIAMS RD,,HYDES,MD,21082,9532,4109161186,(410) 916-1186,scottstreett@yahoo.com
1320,876086,180872599,Insured,SARAH,HEMMINGER,5618 SAINT ALBANS WAY,,BALTIMORE,MD,21212,,4104932363,(410) 493-2363,SARAH.HEMMINGER@GMAIL.COM
1321,440668,L9967534,Insured,WILLIAM,COLGROVE,5634 46TH PL,,HYATTSVILLE,MD,20781,1953,,,
1322,855376,YME0168141,Insured,NANCY M,MANDELL,565 INDEPENDENCE PATH,,THE VILLAGES,FL,32163,,4105307637,(410) 530-7637,
1323,1093138,TU5427561,Insured,JILL,GENTRY,567 COUNTRY RIDGE CIR,,BEL AIR,MD,21015,8533,,,
1324,946749,B00781955,Insured,PHILIP,BENVENUTO,5670 SCOTTISH HIGHLANDS CIR,,SALISBURY,MD,21801,,,,
1325,1215568,TU5445462,Insured,BRENDAN,GANGL,57 STONECLEAVE RD,,BOXFORD,MA,1921,2232,,,
1326,885799,YME0848715,Insured,ANNMARIE A,KLIBERT,570 El Camino Real #2103,,Naples,FL,34119,,,,
1327,947472,YME1325667,Insured,JAMES,STRYKER,5701 WINDSOR GATE LN,,FAIRFAX,VA,22030,,,,
1328,828679,YME0371064,Insured,MARK J,CHANDLER,571 COUNTY LINE RD,,RADNOR,PA,19087,,6107455715,(610) 745-5715,
1329,814303,180859046,Insured,HEATHER,OWENS,5710 RUSK AVENUE,,BALTIMORE,MD,21215,,,,HEATHER.FRIGGE@GMAIL.COM
1330,914258,UME164446L,Insured,VINCENT,PERANIO,5720 RANNY RD,,BALTIMORE,MD,21209,4408,,,
1331,823480,T400029633,Insured,BASHIR,BSEIRANI,580 HERNDON PARKWAY #300,,HERNDON,VA,20170,,,,
1332,440312,L8426222,Insured,LISA,LABORWIT,5800 LAUREL LEAVES LN,,CLARKSVILLE,MD,21029,1687,,,
1333,814902,181762178,Insured,EVAN,ROBERTSON,5801 PRIVATE RD,,DOYLESTOWN,PA,18901,,,,EVAN@OBVIOUSSTATE.COM
1334,834372,YME1906576,Insured,BRIAN L,ARNDT,5802 HANNA RD,,SYKESVILLE,MD,21784,,,,
1335,834373,YME1906575,Insured,BRIAN L,ARNDT,5802 HANNA RD,,SYKESVILLE,MD,21784,,,,
1336,815762,4170174202,Insured,AARON,WEALCATCH,5818 HARVEST HILL RD,,Dallas,TX,75230,,,,
1337,859755,180687926,Insured,PEDRO,RAMIREZ,5903 MYSTIC OCEAN LANE,,CLARKSVILLE,MD,21029,,8017188512,(801) 718-8512,
1338,825127,YME0372287,Insured,DAVID C,LEHMANN,5906 BERKELEY AVE,,BALTIMORE,MD,21209,,6177758508,(617) 775-8508,qt69@comcast.net
1339,825126,YME0372288,Insured,DAVID C,LEHMANN,5906 BERKELEY AVE,,BALTIMORE,MD,21209,,6177758508,(617) 775-8508,qt69@comcast.net
1340,846300,YME0372291,Insured,PAMELA S,LEHMANN,5906 BERKELEY AVE,,BALTIMORE,MD,21209,,,,
1341,846301,YME0372290,Insured,PAMELA S,LEHMANN,5906 BERKELEY AVE,,BALTIMORE,MD,21209,,,,
1342,892605,4170007419,Insured,JOSEPH,ZUCKERBROD,5911 Hobart Street,2705 COPPERFIELD CT.,Pittsburgh,PA,15217,,,,
1343,816575,4170007424,Insured,RACHEL,ZUCKERBROD,5911 Hobart Street,,Pittsburgh,PA,15217,,,,mridup@yahoo.com
1344,1023342,4210075813,Insured,MARC,MINKOVE,5913 EAST CLIFF DR,,Baltimore,MD,21209,,4109523484,(410) 952-3484,mdmink@aol.com
1345,844059,109042011,Insured,THOMAS,MC LAUGHLIN,5915 DEWEES RD.,,DOYLESTOWN,PA,18902,,2679843452,(267) 984-3452,
1346,2697410,109042011,Insured,THOMAS,MC LAUGHLIN,5915 DEWEES RD.,,DOYLESTOWN,PA,18902,,2679843452,(267) 984-3452,
1347,863829,4170174175,Insured,RENA,WEALCATCH,5918 HARVEST HILLD RD,,Dallas,TX,75230,,,,
1348,823674,YME0487120,Insured,NECHAMA,GOLDMAN,5918 SIMMONDS AVE,,BALTIMORE,MD,21215,,,,
1349,817895,YME0729808,Insured,CHRISTINE P,SHIELDS,5921 AVALON DR,,ELKRIDGE,MD,21075,,,,shield2187@yahoo.com
1350,824937,YME0730207,Insured,JUN,BAE,5937 CLIFTON OAKS DR,,CLARKSVILLE,MD,21029,,4107460563,(410) 746-0563,
1351,816909,YME0847768,Insured,TERESA A,SHUE,594 SINES CEMETERY DR,,OAKLAND,MD,21550,,3013877642,(301) 387-7642,
1352,905101,180582807,Insured,KIMBERLY,SWARTZER,597 LOST ROAD,,MARTINSBURG,WV,25403,,,,
1353,937491,YME1907074,Insured,ANDREA L,STACK,6 ALSTON RD,,LUTHVLE TIMON,MD,21093,,,,
1354,823521,YME1907073,Insured,THOMAS W,STACK,6 ALSTON RD,,LUTHVLE TIMON,MD,21093,,,,
1355,919631,MG10077139,Insured,JUDITH A,GROSSI,6 BOW CENTER RD APT 3-206,# 115,BOW,NH,3304,,,,
1356,823664,180376274,Insured,PETER,MANOS,6 BURNING TREE CT,,BETHESDA,MD,20817,,2022500048,(202) 250-0048,CAROLYNCMANOS@YAHOO.COM
1357,844824,T700045761,Insured,LAWRENCE F,BRUDER,6 DEEP RUN ROAD,,LUTHERVILLE,MD,21093,,,,
1358,836159,180429832,Insured,DANIEL,LACHER,6 GLEN HIGHLAND CT,,PHOENIX,MD,21131,,,,
1359,814004,YME0248832,Insured,MELISSA,PROFY,6 GRACE CIR,,Newtown,PA,18940,,,,
1360,816912,YME1907105,Insured,JONATHAN P,WILSON,6 HOLLY LEAF CT,,BETHESDA,MD,20817,,,,jonathanandsuzy@mac.com
1361,808181,4210075002,Insured,VIJI,SEETHARAMAN,6 KINGSLEY COURT,,NEWTOWN,PA,18940,,7326667415,(732) 666-7415,VIJIGOBS@GMAIL.COM
1362,2779938,5000386543,Insured,SCOTT,MON,6 LETCHWORTH LN,,AVONDALE,PA,19311,,,,SMONPRINT@YAHOO.COM
1363,2779938,5000386543,Owner,SCOTT,MON,6 LETCHWORTH LN,,AVONDALE,PA,19311,,,,SMONPRINT@YAHOO.COM
1364,844057,180411436,Insured,VIRGINIA,FIGUEIREDO,6 UTICA DR,,HUDSON,MA,1749,,5089625573,(508) 962-5573,
1365,847745,180768874,Insured,GEORGE,PEEL,600 AUSTIN DR,,FAIRLESS HILLS,PA,19030,,,,georgepeel123@aol.com
1366,847744,180772058,Insured,GEORGE,PEEL,600 AUSTIN DRIVE,,FAIRLESS HILLS,PA,19030,,,,georgepeel123@aol.com
1367,914187,180333717,Insured,WILLIAM,SEMKO,600 DEERFIELD POND CT,,GREAT FALLS,VA,22066,,,,
1368,917367,180740417,Insured,MARK,FOSTER,600 E SEMINARY AVE,,TOWSON,MD,21286,,4435625479,(443) 562-5479,
1369,917366,A7E063815L,Insured,MARK,FOSTER,600 E SEMINARY AVE,,TOWSON,MD,21286,1357,4435625479,(443) 562-5479,
1370,824765,180747578,Insured,BRANDON,SHERMAN,6008 22ND ST N,,ARLINGTON,VA,22205,,,,
1371,819246,4190154080,Insured,JOSHUA,WEINBERGER,6008 PIMLICO RD,,Baltimore,MD,21209,,,,LEINERBOY@GMAIL.COM
1372,819245,4190154072,Insured,JOSHUA,WEINBERGER,6008 PIMLICO RD,,Baltimore,MD,21209,,,,LEINERBOY@GMAIL.COM
1373,912035,4190154751,Insured,SHOSHANA,STEIN,6008 PIMLICO RD,,Baltimore,MD,21209,,,,
1374,912036,4190154081,Insured,SHOSHANA,STEIN,6008 PIMLICO RD,,Baltimore,MD,21209,,,,
1375,903493,4180130688,Insured,ABRAHAM,HERZ,6013 PARK HEIGHTS AVE,,Baltimore,MD,21215,,,,
1376,814026,4180130689,Insured,GITTY,HERZ,6013 PARK HEIGHTS AVE,,Baltimore,MD,21215,,,,
1377,907300,JJ7078409,Insured,CHARLES D,MIRON,6014 JERRYS LANE,,COLUMBIA,MD,21044,,,,
1378,2393689,T400426489,Insured,RICHARD,BAKER,6015 ALTAMONT PLACE,,BALTIMORE,MD,21210,,,,
1379,2393689,T400426489,Owner,RICHARD,BAKER,6015 ALTAMONT PLACE,,BALTIMORE,MD,21210,,,,
1380,825231,YME0847556,Insured,NATHAN,GROSS,6017 BAYWOOD AVE,,BALTIMORE,MD,21209,,4435258024,(443) 525-8024,
1381,909411,TU5143121,Insured,JANUARY,ADKINS,6018 JOSEPH SCOTT DR,,ELKRIDGE,MD,21075,5427,2024375563,(202) 437-5563,princess.adkins6@gmail.com
1382,813210,180567960,Insured,HILLEL,TRAUB,6022 BERKELEY AVENUE,,BALTIMORE,MD,21209,,,,TRAUBLAW@GMAIL.COM
1383,437229,6652695,Owner,JENIFER,THOMAS,604 MISTY HOLLOW DR,,MAPLE GLEN,PA,19002,2332,6102134840,(610) 213-4840,
1384,826747,4170042372,Insured,MICHAEL,THOMAS,604 MISTY HOLLOW DR,,Maple Glen,PA,19002,,2156808338,(215) 680-8338,mst616@gmail.com
1385,903955,4170114465,Insured,TREVOR,PERKINS,606 BEACH DR,,Annapolis,MD,21403,,,,
1386,439637,L9590302,Insured,VIDYASAGAR,ANMANGANDLA,6060 SIMMS DR,,LA PLATA,MD,20646,5645,,,
1387,818077,4170161348,Insured,VIDYASAGAR,ANMANGANDLA,6060 SIMMS DR,,La Plata,MD,20646,,,,
1388,896070,YM00212405,Insured,DANIEL,RUBIN,6101 STUART AVE,,BALTIMORE,MD,21209,,4105914736,(410) 591-4736,horseygirl11375@aol.com
1389,825677,YM00212406,Insured,ETHEL,RUBIN,6101 STUART AVE,,BALTIMORE,MD,21209,,,,
1390,914955,B00883030,Insured,LESLIE,BOWYER,6103 BUCKINGHAM MANOR DR,,BALTIMORE,MD,21210,1003,4102365632,(410) 236-5632,les_bow@msn.com
1391,845249,180367033,Insured,PAMELA,RASMUSSEN,6103 PARADE FIELD WAY,,LANSDALE,PA,19446,,2154805330,(215) 480-5330,scandihu55@yahoo.com
1392,845249,180367033,Owner,PAMELA,RASMUSSEN,6103 PARADE FIELD WAY,,LANSDALE,PA,19446,,2154805330,(215) 480-5330,scandihu55@yahoo.com
1393,828496,180380797,Insured,LAIB,SCHULMAN,6104 PARK HEIGHTS AVE,,BALTIMORE,MD,21215,,,,
1394,828496,180380797,Owner,LAIB,SCHULMAN,6104 PARK HEIGHTS AVE,,BALTIMORE,MD,21215,,,,
1395,2794758,N11036460,Insured,JONATHAN,MARKOWITZ,611 ARBUCKLE AVE,,WOODMERE,NY,11598,2701,,,
1396,2794758,N11036460,Owner,JONATHAN,MARKOWITZ,611 ARBUCKLE AVE,,WOODMERE,NY,11598,2701,,,
1397,814418,180393779,Insured,JACOB,GUR,6110 BENHURST RD,,BALTIMORE,MD,21209,,4109080401,(410) 908-0401,JACOBSGUR@GMAIL.COM
1398,927852,YME0168292,Insured,MICAH,MALES,6115 STUART AVE,,BALTIMORE,MD,21209,,,,MALESFAMILY@GMAIL.COM
1399,928963,YME0248121,Insured,NHIEN PHUONG K,LU,6116 ROLLING RD STE 108,,SPRINGFIELD,VA,22152,,,,
1400,918016,YME0248311,Insured,REBEKA,GURFINCHEL,6122 BELINA CT,,SARASOTA,FL,34238,,4103650840,(410) 365-0840,rgurfinchel@yahoo.com
1401,932342,UME164043L,Insured,DONNA,DURST,615 NICKLAUS AVE,,OAKLAND,MD,21550,5516,3016168964,(301) 616-8964,donnadurst@hotmail.com
1402,932342,UME164043L,Owner,DONNA,DURST,615 NICKLAUS AVE,,OAKLAND,MD,21550,5516,3016168964,(301) 616-8964,donnadurst@hotmail.com
1403,916867,YME1906839,Insured,ROBERT M,JONES,6160 FREEDOM AVE,,SYKESVILLE,MD,21784,,4104045070,(410) 404-5070,rmjones00@comcast.net
1404,823530,YME0371080,Insured,MARGARET E,KEATING,617 AUBURN RD,,FAIRLESS HLS,PA,19030,,8504776951,(850) 477-6951,
1405,898853,YME0371081,Insured,MICHAEL D,KEATING,617 AUBURN RD,,FAIRLESS HLS,PA,19030,,2158055508,(215) 805-5508,
1406,914535,180793689,Insured,MANUEL,RAMOS,618 LOCKSLEY MANOR DRIVE,,ABERDEEN,MD,21001,,,,
1407,918474,180516784,Insured,DEDE,ORRACA-TETTEH,619 LONG WALL DR,,REISTERSTOWN,MD,21136,,,,
1408,839895,4190133477,Insured,DOV,WEINSCHNEIDER,6204 LINCOLN AVE,,BALTIMORE,MD,21209,,,,
1409,832963,B00989487,Insured,MICHELE,LOEWENTHAL,6205 GREEN MEADOW WAY,,BALTIMORE,MD,21209,3300,,,
1410,828595,4190006520,Insured,JESSICA,ROSE,6207 WESTERN RUN DR,,Baltimore,MD,21209,,,,
1411,811981,4190006521,Insured,STEVEN,ATKIN,6207 WESTERN RUN DR,,Baltimore,MD,21209,,,,
1412,860703,YME0729880,Insured,AHRON,GREEN,6208 WINNER AVE,,BALTIMORE,MD,21215,,,,
1413,860702,TU5235042,Insured,AHRON,GREEN,6208 WINNER AVE,,BALTIMORE,MD,21215,3736,,,
1414,839928,YME0729881,Insured,NECHAMA,GREEN,6208 WINNER AVE,,BALTIMORE,MD,21215,,,,
1415,839929,TU5235040,Insured,NECHAMA,GREEN,6208 WINNER AVE,,BALTIMORE,MD,21215,3736,,,
1416,854850,YME0248725,Insured,NEKIA A,STALEY NEITHER,621 TWEED WAY,,LANDOVER,MD,20785,,,,
1417,854850,YME0248725,Owner,NEKIA A,STALEY NEITHER,621 TWEED WAY,,LANDOVER,MD,20785,,,,
1418,831835,YM00169682,Insured,NORMAN,LENCZ,6214 IVYMOUNT RD,,BALTIMORE,MD,21209,,,,
1419,918477,180623281,Insured,JEFFERY,RHODES,622 WASHINGTON ST,,CUMBERLAND,MD,21502,,3017077400,(301) 707-7400,
1420,946033,4179886826,Insured,ARIEL,ZIFFER,6220 N LAWNDALE AVE,,Chicago,IL,60659,,,,
1421,909794,TU3135550,Insured,PETER,MARTIN,624 OVERBROOK RD,,BALTIMORE,MD,21212,2103,4437103959,(443) 710-3959,zeddylep@yahoo.com
1422,808177,4189740400,Insured,LAURA,MARTIN,624 OVERBROOK ROAD,,Baltimore,MD,21212,,,,GTBELKOT@HOTMAIL.COM
1423,2286152,4220029084,Insured,ALLEN,BARUCH,6242 WOODCREST AVE,,BALTIMORE,MD,21209,,,,
1424,2286152,4220029084,Owner,ALLEN,BARUCH,6242 WOODCREST AVE,,BALTIMORE,MD,21209,,,,
1425,884937,UME215649L,Insured,LARRY,FOX,625 QUARRY VIEW CT,,REISTERSTOWN,MD,21136,6267,,,
1426,817113,181038522,Insured,KAMI,KRUC,628 BEECH RD,,MANTUA,NJ,8051,,,,
1427,922800,0000S14310,Insured,LORRAINE M,GALLAGHER,63 BIRCH CROFT RD,,LEOMINSTER,MA,1453,,,,
1428,439511,L8818029,Insured,KEVIN,MC LAUGHLIN,63 BLOSSOM WOOD CT,,STAFFORD,VA,22554,3786,,,
1429,439513,L8818029,Insured,KEVIN,MC LAUGHLIN,63 BLOSSOM WOOD CT,,STAFFORD,VA,22554,3786,,,
1430,936196,180516587,Insured,JOSHUA,BEKER,63 KIRKWOOD ROAD,,BRIGHTON,MA,2135,,,,
1431,810529,180433446,Insured,STACEY,SHEAHAN,630 CLOVER HILL ROAD,,SOMERSET,PA,15501,,3015733903,(301) 573-3903,
1432,810529,180433446,Owner,STACEY,SHEAHAN,630 CLOVER HILL ROAD,,SOMERSET,PA,15501,,3015733903,(301) 573-3903,
1433,878172,YME0535157,Insured,DIANNA C,MCDEVITT,630 GORWIN DR,,HANSON,MA,2341,,7814799786,(781) 479-9786,d.mcdevitt@comcast.net
1434,883367,YME0535156,Insured,JAMES T,MCDEVITT,630 GORWIN DR,,HANSON,MA,2341,,6176975195,(617) 697-5195,mcdevittjt@comcast.net
1435,890308,4190166559,Insured,DAN,HENDERSON,630 NORTH WILLEY STREET,,SEAFORD,DE,19973,,,,
1436,438726,L8519207,Insured,MORRIS,MAYER,6301 SHELRICK DR,,BALTIMORE,MD,21209,3213,,,
1437,438726,L8519207,Owner,MORRIS,MAYER,6301 SHELRICK DR,,BALTIMORE,MD,21209,3213,,,
1438,837881,0000M41247,Owner,MORRIS,MAYER,6301 SHELRICK DR,,BALTIMORE,MD,21209,3213,,,
1439,861828,0000M41248,Insured,JANE,MAYER,6301 SHELRICK DRIVE,,BALTIMORE,MD,21209,,,,thesimchashop@msn.com
1440,837881,0000M41247,Insured,MORRIS Z,MAYER,6301 SHELRICK DRIVE,,BALTIMORE,MD,21209,,4102458915,(410) 245-8915,JOPPARDRX@GMAIL.COM
1441,859324,YME0280938,Insured,BRUCE M,FRIED,6302 SHELRICK DR,,BALTIMORE,MD,21209,,,,jdfried35@gmail.com
1442,832659,UME502201L,Insured,WALTER,REED,6303 SETON RIDGE DR,,BALTIMORE,MD,21207,,4432081655,(443) 208-1655,
1443,437732,6797525,Owner,SRAYAH,SOBOL,6305 SHELRICK DR,,BALTIMORE,MD,21209,3213,,,
1444,909809,TU3131519,Insured,DAVID,BARER,6306 IVYMOUNT RD,,BALTIMORE,MD,21209,3306,,,
1445,905615,TU3131457,Insured,JUDITH,BARER,6306 IVYMOUNT RD,,BALTIMORE,MD,21209,3306,,,
1446,874614,YME0371711,Insured,MIA B,BLECHER,6307 HUNTOVER LN,,Rockville,MD,20852,,3016614180,(301) 661-4180,miablecher@gmail.com
1447,925044,TU5339864,Insured,RACHEL,GORDON,6307 SHELRICK DR,,BALTIMORE,MD,21209,3213,,,RACHEL.SICHEL@YAHOO.COM
1448,925044,TU5339864,Owner,RACHEL,GORDON,6307 SHELRICK DR,,BALTIMORE,MD,21209,3213,,,RACHEL.SICHEL@YAHOO.COM
1449,920838,181067873,Insured,BRANDON,GORDON,6307 SHELRICK DRIVE,,BALTIMORE,MD,21209,,,,
1450,2423901,T400434001,Insured,ADAM ARYEH,FRIEDMAN,6315 RED CEDAR PL,,BALTIMORE,MD,21209,,,,
1451,2423901,T400434001,Owner,ADAM ARYEH,FRIEDMAN,6315 RED CEDAR PL,,BALTIMORE,MD,21209,,,,
1452,2588877,4220106896,Insured,DAVID,RETHERFORD,6336 CHERRY BLOSSOM TRAIL,,GIBSONTON,FL,33534,,,,
1453,2588877,4220106896,Owner,DAVID,RETHERFORD,6336 CHERRY BLOSSOM TRAIL,,GIBSONTON,FL,33534,,,,
1454,844184,TU3131122,Insured,KIM,DE PEIZA,6337 SILAS BURKE ST,,BURKE,VA,22015,3448,5712019900,(571) 201-9900,
1455,830922,TU5377651,Insured,JOHN,HARMAN,637 JASON LN,,KEYSER,WV,26726,2970,,,
1456,896814,YME0248106,Insured,LYNNE G,ARDINGER,637 JOHAHN DR,,WESTMINSTER,MD,21158,,,,
1457,878372,B00524613,Insured,SHIRA,KRAMER,637 OAK FARM CT,,TIMONIUM,MD,21093,7004,,,
1458,839619,181425694,Insured,DAWLYN,ADAMS,637 PLEASANT STREET,,DUNSTABLE,MA,1827,,9783020745,(978) 302-0745,
1459,919708,180777622,Insured,BRENTLEY,REYNOLDS,6395  SW  120TH STREET,,MIAMI,FL,33156,,4437914373,(443) 791-4373,BREYNOLDS@NRINTERNATIONAL.COM
1460,904899,TU5140729,Insured,BRENTLEY,REYNOLDS,6395 SW 120TH ST,,PINECREST,FL,33156,4832,4437914373,(443) 791-4373,BREYNOLDS@NRINTERNATIONAL.COM
1461,900532,YM00164206,Insured,RANDALL A,JEWELL,6398 WIND RIDER WAY,,COLUMBIA,MD,21045,,,,
1462,930389,180887764,Insured,ROLAND,MATHEWS,64 OLD DENVILLE ROAD,,BOONTON,NJ,7005,,,,rolandmathews@hotmail.com
1463,837610,180361994,Insured,MARIA,CARTER,6401 ISABELLA DR,,WILLIAMSBURG,VA,23188,,,,
1464,440045,L8382791,Insured,BRIAN,SALTER,6401 LIQUID LAUGHTER LN,,COLUMBIA,MD,21044,6044,,,SALTERCB@HOTMAIL.COM
1465,439398,L8770599,Insured,CLAUDIA,SALTER,6401 LIQUID LAUGHTER LN,,COLUMBIA,MD,21044,6044,,,
1466,439398,L8770599,Owner,,,6401 LIQUID LAUGHTER LN,,COLUMBIA,MD,21044,6044,,,
1467,2684331,TU5550561,Insured,DANIEL,MOORE,6409 LAUREL DR,,GWYNN OAK,MD,21207,6326,4106279296,(410) 627-9296,dmoore5884@msn.com
1468,2684331,TU5550561,Owner,DANIEL,MOORE,6409 LAUREL DRIVE,,GWEN OAK,MD,21207,,4106279296,(410) 627-9296,dmoore5884@msn.com
1469,903070,YME1326356,Insured,MARGARET MARY,CALLAHAN,6412 THOMAS PAINE CT,,BENSALEM,PA,19020,,,,
1470,832541,YME1326355,Insured,MICHAEL T,CALLAHAN,6412 THOMAS PAINE CT,,BENSALEM,PA,19020,,2677368091,(267) 736-8091,mtcallahan@gmail.com
1471,2383965,4220092061,Insured,EITAN,REINER,6415 DORAL DR APT C,,Baltimore,MD,21209,,,,
1472,2383965,4220092061,Owner,EITAN,REINER,6415 DORAL DR APT C,,Baltimore,MD,21209,,,,
1473,831012,4170148982,Insured,STEPHEN,PAPPAS,6420 ROCKLEDGE DR SUITE 4900,,Bethesda,MD,20817,,,,
1474,826313,YME0280937,Insured,TIMOTHY B,WRIGHT,645 OAK FARM CT,,TIMONIUM,MD,21093,,4109373787,(410) 937-3787,timothyw1815@aol.com
1475,861787,TU3130422,Insured,MARJORIE,ANDERSON,6451 S TROTTER RD,,CLARKSVILLE,MD,21029,1201,,,
1476,440339,L9829235,Insured,SETH,PROTUS,648 MONTMORENCY DR S,,PICKERINGTON,OH,43147,8339,6144048353,(614) 404-8353,
1477,440330,L9829235,Insured,SETH,PROTUS,648 MONTMORENCY DR S,,PICKERINGTON,OH,43147,8339,6144048353,(614) 404-8353,
1478,440339,L9829235,Owner,SETH,PROTUS,648 MONTMORENCY DR S,,PICKERINGTON,OH,43147,8339,6144048353,(614) 404-8353,
1479,440330,L9829235,Owner,SETH,PROTUS,648 MONTMORENCY DR S,,PICKERINGTON,OH,43147,8339,6144048353,(614) 404-8353,
1480,857396,4190168147,Insured,DAVID,KADDEN,6503 BAYTHORNE RD,,BALTIMORE,MD,21209,,4434143299,(443) 414-3299,
1481,845065,4190169266,Insured,SHOSHANA,KADDEN,6503 BAYTHORNE RD,,BALTIMORE,MD,21209,,4434165509,(443) 416-5509,
1482,845413,YME0730064,Owner,CHAIM,WEALCATCH,6505 HAL CT,,Baltimore,MD,21209,,,,
1483,892504,YME0730063,Insured,CHAIM D,WEALCATCH,6505 HAL CT,,BALTIMORE,MD,21209,,,,cwealcatch@gmail.com
1484,897539,180618004,Insured,CHARLES,CHERNOFF,6506 PIMLICO RD,,BALTIMORE,MD,21209,,8474364080,(847) 436-4080,
1485,850171,UME215524L,Insured,MICHAEL,HENESCH,6506 PIMLICO RD,,BALTIMORE,MD,21209,,,,
1486,825326,UME164253L,Insured,JEFFREY,ZYGLER,651 KING ST,,CHAPPAQUA,NY,10514,3808,,,
1487,910031,TU5385013,Insured,DAVID,NEWMARK,6512 WICKFIELD RD,,BALTIMORE,MD,21209,2545,,,
1488,910030,181245323,Insured,DAVID,NEWMARK,6512 WICKFIELD ROAD,,BALTIMORE,MD,21201,,,,
1489,910032,181245325,Insured,LAURYN,NEWMARK,6512 WICKFIELD ROAD,,BALTIMORE,MD,21201,,,,
1490,2478683,4220091403,Insured,ARI,ELBAUM,6513 GARDENWICK RD,,Baltimore,MD,21209,,,,
1491,2478683,4220091403,Owner,ARI,ELBAUM,6513 GARDENWICK RD,,Baltimore,MD,21209,,,,
1492,910295,180878264,Insured,CARRIE,PERLES,6513 WICKFIELD RD,,BALTIMORE,MD,21209,,4172071765,(417) 207-1765,
1493,859239,180878265,Insured,JACOB,PERLES,6513 WICKFIELD RD,,BALTIMORE,MD,21209,,,,
1494,822196,4210073830,Insured,ELAN,SLOAN,6517 GLENWICK CT,,BALTIMORE,MD,21209,,4439290805,(443) 929-0805,
1495,2261091,L7154240,Insured,JOHN,BURKE,6527 27TH ST N,,ARLINGTON,VA,22213,1202,,,
1496,896054,180567785,Insured,DANIEL,STIEGLITZ,6531 COPPERFIELD RD,,BALTIMORE,MD,21209,,,,DANIELSTIEGLITZ@GMAIL.COM
1497,904241,YME0729126,Insured,CHRISTY,PETERS,6547 CEDAR LN,,COLUMBIA,MD,21044,,,,c.peters@consultelinc.net
1498,821833,YME0729127,Insured,GEORGE A,PETERS,6547 CEDAR LN,,COLUMBIA,MD,21044,,,,G.PETERS@CONSULTELINC.NET
1499,835890,B00955884,Insured,HENRY,JAGER,66 DIVIDING CREEK CT,,ARNOLD,MD,21012,1060,,,HENRY.W.C.JAGER@GMAIL.COM
1500,835890,B00955884,Owner,HENRY,JAGER,66 DIVIDING CREEK CT,,ARNOLD,MD,21012,1060,,,HENRY.W.C.JAGER@GMAIL.COM
1501,2730352,4220135305,Insured,BRIEN,POFFENBERGER,66 FRANKLIN ST.,#419,Annapolis,MD,21401,,,,BRIEN.POFFENBERGER@GMAIL.COM
1502,2730352,4220135305,Owner,BRIEN,POFFENBERGER,66 FRANKLIN ST.,#419,Annapolis,MD,21401,,,,BRIEN.POFFENBERGER@GMAIL.COM
1503,828494,181782906,Insured,KELLY,BROWNELL,66 MOUNTAIN MARY RD,,BOYERTOWN,PA,19512,,4843589566,(484) 358-9566,kfam4pa@gmail.com
1504,830711,YME1326481,Insured,TOVA Z,TARAGIN,6600 BAYTHORNE RD,,BALTIMORE,MD,21209,,,,TOVTAR@COMCAST.NET
1505,440208,L9786503,Insured,PAYSACH,DISKIND,6604 AMLEIGH RD,,BALTIMORE,MD,21209,2604,,,PAYSACH.DISKIND@GMAIL.COM
1506,440206,L9786503,Insured,PAYSACH,DISKIND,6604 AMLEIGH RD,,BALTIMORE,MD,21209,2604,,,PAYSACH.DISKIND@GMAIL.COM
1507,814400,YME0729628,Insured,DAVID R,WILLSON,6605 SWEET AIR LN,,SYKESVILLE,MD,21784,,,,
1508,814400,YME0729628,Owner,DAVID R,WILLSON,6605 SWEET AIR LN,,SYKESVILLE,MD,21784,,,,
1509,864945,TU5398604,Insured,DANIEL,ZUCKERBROD,6606 DEANCROFT RD,,BALTIMORE,MD,21209,2713,,,
1510,864945,TU5398604,Owner,DANIEL,ZUCKERBROD,6606 DEANCROFT RD,,BALTIMORE,MD,21209,2713,,,
1511,838227,TU5398607,Insured,ORA,ZUCKERBROD,6606 DEANCROFT RD,,BALTIMORE,MD,21209,2713,,,
1512,440622,L9149760,Insured,HARVEY,DANZIGER,6608 CROSS COUNTRY BLVD,,BALTIMORE,MD,21215,3113,9176798278,(917) 679-8278,
1513,860532,TU5363293,Insured,BERNARD,KATZ,6609 CHELWOOD RD,,BALTIMORE,MD,21209,2607,7325462067,(732) 546-2067,
1514,827640,4180087998,Insured,HENRY,GOTTESMAN,6609 WESTERN RUN DR,,Baltimore,MD,21215,,,,
1515,1956523,TU5469331,Insured,JASON,RUBENSTEIN,6611 PEBBLE BROOK RD,,BALTIMORE,MD,21209,,,,
1516,2110829,TU5469355,Insured,LAURA,RUBENSTEIN,6611 PEBBLE BROOK RD,,BALTIMORE,MD,21209,,,,
1517,884133,4180010451,Insured,MEIRA,PORTNOY,6611 PEBBLE BROOKE RD,,Baltimore,MD,21209,,,,
1518,839371,T400084720,Insured,JOSEPH,DEFRANCIS,6612 WESTERN AVE,,CHEVY CHASE,MD,20815,,3016745170,(301) 674-5170,joedefrancis@yahoo.com
1519,818367,180618180,Insured,HERSHEL,SCHABES,6615 EDENVALE RD,,BALTIMORE,MD,21209,,,,SCHABES1@YAHOO.COM
1520,914950,181284253,Insured,ELIZABETH,HENDLER,6617 EAMES WAY,,BETHESDA,MD,20817,,4107075121,(410) 707-5121,
1521,824557,180948411,Insured,JEFFREY,REINER,6619 CHELWOOD RD,,BALTIMORE,MD,21209,,,,
1522,865057,180948361,Insured,DEVORAH,REINER,6619 CHELWOOD ROAD,,BALTIMORE,MD,21209,,,,
1523,808122,180493854,Insured,ADELE,ROSENBLATT,6625 CHIPPEWA DRIVE,,BALTIMORE,MD,21209,,,,
1524,825323,YME0487233,Insured,LLOYD S,ZYGLER,666 W END AVE APT 6N,,NEW YORK,NY,10025,,,,
1525,860070,YME0487237,Insured,RACHEL,ZYGLER,666 W END AVE APT 6N,,NEW YORK,NY,10025,,,,
1526,825324,YME0487234,Insured,JEFFREY A,ZYGLER,666 W END AVE APT 6T,,NEW YORK,NY,10025,,,,
1527,819247,180722095,Insured,JOSEPH,ALT,6690 MEADOW RIDGE LN,,CINCINNATI,OH,45237,,,,
1528,836394,180508570,Insured,MARY,HOLLAND,67 FRENCH AVE,,BRAINTREE,MA,2184,,6175712101,(617) 571-2101,
1529,893287,180508572,Insured,PAUL,HOLLAND,67 FRENCH AVE,,BRAINTREE,MA,2184,,6176807476,(617) 680-7476,PMHOLLAND13@AOL.COM
1530,893287,180508572,Owner,PAUL,HOLLAND,67 FRENCH AVE,,BRAINTREE,MA,2184,,6176807476,(617) 680-7476,PMHOLLAND13@AOL.COM
1531,1248091,4210102100,Insured,MARK,RUCHELSMAN,670 FLANDERS DR,,VALLEY STREAM,NY,11581,,,,
1532,883356,YME0487484,Insured,SHAI,SCHERER,6700 ELBROOK AVE,,CINCINNATI,OH,45237,,,,
1533,900906,YM00129532,Insured,MICHAEL J,LAUER,6701 CHIPPEWA DR,,BALTIMORE,MD,21209,,,,
1534,841172,YME0730449,Insured,ELLIOTT,POLSKY,6710 ELBROOK AVE,,CINCINNATI,OH,45237,,,,
1535,440028,L8983204,Insured,MARK,GUGGENHEIM,6711 PARK HEIGHTS AVE APT 109,,BALTIMORE,MD,21215,2476,,,
1536,440026,L8983204,Insured,MARK,GUGGENHEIM,6711 PARK HEIGHTS AVE APT 109,,BALTIMORE,MD,21215,2476,,,
1537,440028,L8983204,Owner,MARK,GUGGENHEIM,6711 PARK HEIGHTS AVE APT 109,,BALTIMORE,MD,21215,2476,,,
1538,440026,L8983204,Owner,MARK,GUGGENHEIM,6711 PARK HEIGHTS AVE APT 109,,BALTIMORE,MD,21215,2476,,,
1539,868687,YME0849085,Insured,MEGHAN M,PRAML-MUSA,674 FRIAR DR,,YARDLEY,PA,19067,,9738185885,(973) 818-5885,meghan.musa@gmail.com
1540,860084,YME0849084,Insured,NICHOLAS,MUSA,674 FRIAR DR,,YARDLEY,PA,19067,,,,
1541,2115868,TU5480804,Insured,ESTHER,VANN,6767 N 7TH ST UNIT 234,UNIT 233,PHOENIX,AZ,85014,1012,,,
1542,2269998,TU5480791,Insured,YEHOSHUA,VANN,6767 N 7TH ST UNIT 234,UNIT 233,PHOENIX,AZ,85014,1012,,,
1543,2269998,TU5480791,Owner,YEHOSHUA,VANN,6767 NORTH 7TH STREET  UNIT 233,UNIT 233,PHOENIX,AZ,85014,,,,
1544,888090,YME0248859,Insured,MICHAEL A,MCDONNELL,67782 E PALM CANYON DR STE B104 131,STE B104 131,Cathedral City,CA,92234,,,,
1545,864395,YME0248371,Insured,AMY S,COLLINS,68 DEERFIELD DR,,OAKLAND,MD,21550,,,,
1546,930336,YME0248370,Insured,KENNETH W,COLLINS,68 DEERFIELD DR,,OAKLAND,MD,21550,,,,chiefken20@yahoo.com
1547,855492,UM0024408L,Owner,%EL HARVEY & SONS INC,,68 HOPKINGTON RD,,WESTBORO,MA,1581,,,,
1548,855491,UM0024403L,Owner,%EL HARVEY & SONS INC,,68 HOPKINGTON RD,,WESTBORO,MA,1581,,,,
1549,828676,UME164188L,Owner,,,68 HOPKINGTON RD,,WESTBOROUGH,MA,1581,,,,
1550,855490,UM0024407L,Owner,% EL HARVEY & SONS INC,,68 HOPKINTON RD,,WESTBOROUGH,MA,1581,2126,,,
1551,436386,4693289,Owner,% NANCY CATALINI CHEW TR,,68 SANDSTONE DR,,BEDFORD,NH,3110,5825,,,
1552,437069,6617024,Owner,JENNIFER,CLIMO,68 SANDSTONE DR,,BEDFORD,NH,3110,5825,5085610187,(508) 561-0187,JEN@MILESTONEFINANCIALPLANNING.COM
1553,877076,181034366,Insured,CAROLE,CLIMO,68 SANDSTONE DRIVE,,BEDFORD,NH,3110,,9787329057,(978) 732-9057,BLUEGECKO4@MSN.COM
1554,845335,180988356,Insured,EITAN,ZEFFREN,6800 N CALIFORNIA AVE #2F,,CHICAGO,IL,60645,,,,
1555,848641,4200034130,Insured,DANIEL,ANKRI,6803 CHEROKEE DRIVE,,BALTIMORE,MD,21209,,2165545151,(216) 554-5151,
1556,832348,4200034127,Insured,MIRIAM,ANKRI,6803 CHEROKEE DRIVE,,BALTIMORE,MD,21209,,,,
1557,2228689,TU5467401,Insured,TOBY,COLEMAN,6807 PARK HEIGHTS AVE APT 3K,APT 3K,BALTIMORE,MD,21215,1651,,,
1558,828162,181207011,Insured,CASSAUNDRA,WALTERS,6850 IRON ORE,UNIT 232,ELKRIDGE,MD,21075,,,,
1559,860922,ME7126514,Insured,JAY E,SHENK,69 MIRICK RD,,PRINCETON,MA,1541,1111,,,
1560,831233,180327557,Insured,JENNIFER,SHENK,69 MIRICK RD,,PRINCETON,MA,1541,,5086804767,(508) 680-4767,
1561,831232,181226598,Insured,JENNIFER,SHENK,69 MIRICK RD,,PRINCETON,MA,1541,,5086804767,(508) 680-4767,
1562,438712,L8516742,Insured,DOUGLAS,PERRY,69 OLD DERRY RD,,LONDONDERRY,NH,3053,2219,,,
1563,930702,YME0728825,Insured,BRANDY B,DOPKIN,6903 GRANITE RIDGE CT,,BALTIMORE,MD,21209,,4438297200,(443) 829-7200,
1564,930583,YME0168657,Insured,DAVID W,DOPKIN,6903 GRANITE RIDGE CT,,BALTIMORE,MD,21209,,,,DAVID@MISSSHIRLEYS.COM
1565,947800,YME0728754,Insured,DAVID W,DOPKIN,6903 GRANITE RIDGE CT,,BALTIMORE,MD,21209,,,,DAVID@MISSSHIRLEYS.COM
1566,930344,181285244,Insured,MARK,SOBEL,6904 CHIPPEWA DRIVE,,BALTIMORE,MD,21209,,,,
1567,822884,TU5252836,Insured,CHRISTINA,CHAN-POPOVSKY,6916 33RD ST NW,,WASHINGTON,DC,20015,1406,,,
1568,837076,4190123439,Insured,ETTIE,BALLABON,6939 COPPERBEND LN,,Baltimore,MD,21209,,,,
1569,837076,4190123439,Owner,ETTIE,BALLABON,6939 COPPERBEND LN,,Baltimore,MD,21209,,,,
1570,822554,4190075654,Insured,JUDAH,BALLABON,6939 COPPERBEND LN,,Baltimore,MD,21209,,9179819731,(917) 981-9731,
1571,840936,180441388,Insured,ROBERTO,ROFFO,7 APRIL DR,,DAYTON,NJ,8810,,,,roberto.roffo@gmail.com
1572,908453,TU5150623,Insured,MICHAEL,HEYSE,7 BROOK FARM CT,,COCKEYSVILLE,MD,21030,1227,,,
1573,898059,JJ7082397,Insured,ELLIOT Y,MERENBLOOM,7 ELM HOLLOW COURT,,BALTIMORE,MD,21208,,,,plmeren@gmail.com
1574,893127,180416580,Insured,ANTHONY,MELIA,7 SOVEREIGN HEIGHTS,,SUTTON,MA,1590,,5083604971,(508) 360-4971,
1575,860673,180416590,Insured,BROOKE,MELIA,7 SOVEREIGN HEIGHTS,,SUTTON,MA,1590,,,,blm4211@gmail.com
1576,1093174,TU5445430,Insured,ELNORA,ANDERSON,7 SUNTOP CT UNIT 102,102,BALTIMORE,MD,21209,1369,,,
1577,1093174,TU5445430,Owner,ELNORA,ANDERSON,7 SUNTOP CT UNIT 102,102,BALTIMORE,MD,21209,1369,,,
1578,1215948,TU5445433,Insured,GREGORY,ANDERSON III,7 SUNTOP CT.,102,BALTIMORE,MD,21209,,,,gajr33@live.com
1579,832669,YME0729736,Insured,LORI M,MOUL,7 SUSANNA WAY,,NEWTOWN,PA,18940,,,,
1580,832669,YME0729736,Owner,LORI M,MOUL,7 SUSANNA WAY,,NEWTOWN,PA,18940,,,,
1581,859675,YME0729737,Insured,WILLIAM H,MOUL,7 SUSANNA WAY,,NEWTOWN,PA,18940,,2157910505,(215) 791-0505,whmoul@gmail.com
1582,1093136,TU5445471,Insured,JULIA,TOMEI,70 LINCOLN ST,,BOSTON,MA,2111,2610,,,
1583,832966,YME0372639,Insured,FREDERIC E,SHAW,70 PHILIP FARM RD,,CONCORD,MA,1742,,9783763686,(978) 376-3686,
1584,860643,YME0372640,Insured,LISA M,SHAW,70 PHILIP FARM RD,,CONCORD,MA,1742,,9785002896,(978) 500-2896,
1585,440977,L9310731,Insured,DEREK,WHITWER,700 WATER ST,,CAMBRIDGE,MD,21613,1638,,,
1586,440979,L9310731,Insured,DEREK,WHITWER,700 WATER ST,,CAMBRIDGE,MD,21613,1638,,,
1587,944410,180459368,Insured,MARWAN,KHALIFEH,7000 WYNDALE STREET NW,,WASHINGTON,DC,20015,,,,
1588,440486,L9889804,Insured,PAUL,KATRIVANOS,7003 FOX CHASE XING,,NEW MARKET,MD,21774,6917,,,
1589,2424685,TU5535448,Insured,BATYA,WAINHAUS,7013 WALLIS AVE,,BALTIMORE,MD,21215,1710,,,
1590,2424685,TU5535448,Owner,BATYA,WAINHAUS,7013 WALLIS AVE,,BALTIMORE,MD,21215,1710,,,
1591,890431,YME0281509,Insured,DON A,HOUGH,702 BENSTON PL,,BALTIMORE,MD,21210,,4437426798,(443) 742-6798,
1592,844061,YME0281508,Insured,ROBIN M,HOUGH,702 BENSTON PL,,BALTIMORE,MD,21210,,,,ROBINRHOUGH@YAHOO.COM
1593,874843,B00931967,Insured,GERALD,GUTIERREZ,704 BENSTON PL,,BALTIMORE,MD,21210,1415,4104562869,(410) 456-2869,
1594,814601,YME0487300,Insured,PAMELA R,MIDDLETON,704 INTREPID WAY,,DAVIDSONVILLE,MD,21035,,,,pamelaraem@gmail.com
1595,439966,L8376508,Insured,GEORGE,SCHNELLER,708 WALKER RD,,GREAT FALLS,VA,22066,2802,7038517534,(703) 851-7534,
1596,818368,YME0372001,Insured,CHARLES J,MERRICK,709 SUNSHINE DR,,OAKLAND,MD,21550,,,,
1597,884422,YME0372268,Insured,EDWARD J,MCCARTHY,71 WATERFORD CT,,JEFFERSON,GA,30549,,7704909051,(770) 490-9051,
1598,875844,6C1005921,Insured,JONATHAN,ADELSON MD,7107 HELMSDALE RD,,BETHESDA,MD,20817,,,,lize4302@aol.com
1599,2684970,T400450436,Insured,JOHN FRANCIS,GODSEY,711 KELLI LANE,,SPRINGFIELD,PA,19064,,,,
1600,2684970,T400450436,Owner,JOHN FRANCIS,GODSEY,711 KELLI LANE,,SPRINGFIELD,PA,19064,,,,
1601,854813,180319748,Insured,CHARLES,SENOSK,7112 SE SWEETWOOD TER,,STUART,FL,34997,,5083646440,(508) 364-6440,
1602,1957642,TU5479567,Insured,CHAYA,MOSES,7119 BOXFORD RD,,BALTIMORE,MD,21215,1703,,,
1603,2115998,TU5479562,Insured,DANIEL,MOSES,7119 BOXFORD RD,B,BALTIMORE,MD,21215,1703,,,
1604,2115998,TU5479562,Owner,DANIEL,MOSES,7119 BOXFORD RD,B,BALTIMORE,MD,21215,1703,,,
1605,823670,YME0487734,Insured,DANIEL,DRANG,713 LAMBERTON DR,,SILVER SPRING,MD,20902,,,,
1606,809533,YME0487735,Insured,DEBRA,DRANG,713 LAMBERTON DR,,SILVER SPRING,MD,20902,,,,murph108@juno.com
1607,818145,YME1713564,Insured,ALEXANDER M,JOSOWITZ,714 HAWKSHEAD RD,,TIMONIUM,MD,21093,,,,
1608,814420,YME1713579,Insured,ELIZABETH L K,JOSOWITZ,714 HAWKSHEAD RD,,LUTHERVILLE TIMONIUM,MD,21093,,,,
1609,823520,YME0372793,Insured,EDWARD SCOTT,WINSLOW,716 ABELL RIDGE CIR,,TOWSON,MD,21204,,4108080065,(410) 808-0065,semashzoy@gmail.com
1610,860932,180750992,Insured,JOHN,MCGRODY,716 BEVERLY ROAD,,HOLLAND,PA,18966,,,,
1611,862413,180750995,Insured,WENDY,MCGRODY,716 BEVERLY ROAD,,HOLLAND,PA,18966,,2672524789,(267) 252-4789,
1612,939807,YME1330135,Insured,ROBERT J,ALLEN,716 RIVERVIEW TER,,ANNAPOLIS,MD,21401,,,,
1613,2542029,TU5533452,Insured,KATHLEEN,RICE,718 BEDFORD ST,,CUMBERLAND,MD,21502,1711,2403623590,(240) 362-3590,
1614,2542029,TU5533452,Owner,KATHLEEN,RICE,718 BEDFORD ST,,CUMBERLAND,MD,21502,,2403623590,(240) 362-3590,
1615,846985,YME0848529,Insured,MARK A,CAMERON,72 WALNUT ST,,NATICK,MA,1760,,,,
1616,439225,L8692017,Insured,ROBERT,RECKART,720 ASHBY RD,,TERRA ALTA,WV,26764,7749,,,
1617,931410,YME0372956,Insured,REGINA M,THURSTON,721 WATERS EDGE CT,,SYKESVILLE,MD,21784,,,,
1618,929065,YME0372957,Insured,ROBERT,THURSTON,721 WATERS EDGE CT,,SYKESVILLE,MD,21784,,,,
1619,898542,180904592,Insured,ARTHUR,NESTER,722 WASHINGTON STREET,,CUMBERLAND,MD,21502,,,,
1620,877690,TU5213210,Insured,BRIAN,KIM,7229 WOLVERTON CT,,CLARKSVILLE,MD,21029,1741,4107462482,(410) 746-2482,bykwssm@gmail.com
1621,842035,YM00167434,Insured,MICHAEL,GILLIS,7276 CANDLESHINE CT,,COLUMBIA,MD,21045,,,,
1622,811679,YME0487895,Insured,LINN L,DWORKIN,73 SUNRISE CT,,LAKEWOOD,NJ,8701,,,,
1623,811679,YME0487895,Owner,LINN L,DWORKIN,73 SUNRISE CT,,LAKEWOOD,NJ,8701,,,,
1624,928964,YME0371866,Insured,NHIEN PHUONG K,LU,7328 GENE ST,,ALEXANDRIA,VA,22315,,7039891096,(703) 989-1096,nlu389@gmail.com
1625,907272,111009553,Owner,J FREY IRR TST,20100401,737 MAIN ST,,,MA,1827,,,,
1626,2698085,111009553,Owner,J FREY IRR TST,20100401,737 MAIN ST,,,MA,1827,,,,
1627,822347,180456697,Insured,JACQUELINE,FREY,737 MAIN STREET,,DUNSTABLE,MA,1827,,9786185061,(978) 618-5061,jackiefrey@verizon.net
1628,933994,YME0248402,Insured,CHRISTOPHER T,DANIEL,7372 NORRIS AVE,,SYKESVILLE,MD,21784,,,,
1629,933994,YME0248402,Owner,CHRISTOPHER T,DANIEL,7372 NORRIS AVE,,SYKESVILLE,MD,21784,,,,
1630,889046,YME0248403,Insured,CLAUDIA N,DANIEL,7372 NORRIS AVE,,SYKESVILLE,MD,21784,,,,CLAUDIA.DANIEL@LIVE.COM
1631,889046,YME0248403,Owner,CLAUDIA N,DANIEL,7372 NORRIS AVE,,SYKESVILLE,MD,21784,,,,CLAUDIA.DANIEL@LIVE.COM
1632,817234,TU5343476,Insured,CHAYA,SINGER,7374 PARK HEIGHTS AVE,,PIKESVILLE,MD,21208,5436,,,
1633,814607,180324271,Insured,HENRY,KASS,741 ANNESLIE RD,,BALTIMORE,MD,21212,,,,
1634,814607,180324271,Owner,HENRY,KASS,741 ANNESLIE RD,,BALTIMORE,MD,21212,,,,
1635,910807,TU3134399,Insured,MARJORIE,FORD,741 TENNYPARK LN,,MOUNT JULIET,TN,37122,1004,,,marjorie_ford@hcpss.org
1636,830302,181166045,Insured,CAROL,KING,7412 QUEENS WAY,,ELLENTON,FL,34222,,6104287454,(610) 428-7454,
1637,853950,TU3136955,Insured,PETER,FITTS,7413 QUAIL RIDGE LN,,BOWIE,MD,20720,4350,3015181659,(301) 518-1659,
1638,822341,4200043732,Insured,EPHRAIM,WEINGARTEN,743 PASSAIC AVE,,Clifton,NJ,7012,,,,
1639,823932,0000M41964,Insured,JOHN M,HOOPES,7441 ROSEWOOD MANOR LANE,,GAITHERSBURG,MD,20882,,3014524687,(301) 452-4687,ekhoopes@yahoo.com
1640,819978,YME0487879,Insured,MICHAEL,BRESLER,7503 PARK HEIGHTS AVE,,PIKESVILLE,MD,21208,,,,michaelrivka@yahoo.com
1641,907256,YME0487880,Insured,RIVKA B,BRESLER,7503 PARK HEIGHTS AVE,,PIKESVILLE,MD,21208,,2402774757,(240) 277-4757,
1642,438301,9537641,Owner,ERIC,HOROWITZ,7505 SLADE AVE,,BALTIMORE,MD,21208,4536,4434740093,(443) 474-0093,ehorowitz@thinktankenterprises.com
1643,438300,9537641,Owner,ERIC,HOROWITZ,7505 SLADE AVE,,BALTIMORE,MD,21208,4536,4434740093,(443) 474-0093,ehorowitz@thinktankenterprises.com
1644,914260,YME0280884,Insured,BARRY,GERTZ,7519 SLADE AVE,,PIKESVILLE,MD,21208,,,,BGERTZ1@GMAIL.COM
1645,844240,181412006,Insured,STEPHEN,SELLARS,7530 OPEN VALLEY DRIVE,,MARRIOTTSVILLE,MD,21104,,5716416771,(571) 641-6771,
1646,844240,181412006,Owner,STEPHEN,SELLARS,7530 OPEN VALLEY DRIVE,,MARRIOTTSVILLE,MD,21104,,5716416771,(571) 641-6771,
1647,847106,YME0168099,Insured,DAVID,STOVER,7550 N FLINT HILL RD,,Owings,MD,20736,,,,
1648,814025,180687816,Insured,JUAN-CARLOS,RAMIREZ,7555 WEATHER WORN APT C,,COLUMBIA,MD,21046,,,,
1649,859755,180687926,Owner,JUAN-CARLOS,RAMIREZ,7555 WEATHER WORN APT C,,COLUMBIA,MD,21046,,,,
1650,876930,180887770,Insured,JOSEPH,SCEURMAN,76 RIVERSIDE DRIVE,,DENVILLE,NJ,7834,,,,
1651,2792669,4230121126,Insured,RAMON,ROIG,761 LEISTER DRIVE,,Timonium,MD,21093,,9092425739,(909) 242-5739,rfroig3@gmail.com
1652,2792669,4230121126,Owner,RAMON,ROIG,761 LEISTER DRIVE,,Timonium,MD,21093,,9092425739,(909) 242-5739,rfroig3@gmail.com
1653,898165,YME0168260,Insured,SHLOMO,ROSHGADOL,7617 SEVEN MILE LN,,BALTIMORE,MD,21208,,,,roshgadol@gmail.com
1654,929171,181141765,Insured,SHMUEL,COTTON,7638 CARLA ROAD,,PIKESVILLE,MD,21208,,2705902579,(270) 590-2579,shmuelco@hotmail.com
1655,857677,YME1907072,Insured,JESSICA L,MATHIS,7650 HARMAN DR,,SYKESVILLE,MD,21784,,,,
1656,924403,YME1325748,Insured,JOSHUA W,MATHIS,7650 HARMAN DR,,SYKESVILLE,MD,21784,,,,
1657,924403,YME1325748,Owner,JOSHUA W,MATHIS,7650 HARMAN DR,,SYKESVILLE,MD,21784,,,,
1658,441038,L9329953,Insured,WILLIAM,MATHIS,7650 HARMAN DR,,SYKESVILLE,MD,21784,7378,,,
1659,875842,UME502052L,Insured,MARIA,CHOU,7651 MIDTOWN RD,,FULTON,MD,20759,,,,
1660,864394,YME1906563,Insured,MARIA C,CHOU,7651 MIDTOWN RD,,FULTON,MD,20759,,,,MARIA4534@GMAIL.COM
1661,439769,L8353182,Insured,SAHLE,ARAYA,7676 NEW HAMPSHIRE AVE STE 321,,TAKOMA PARK,MD,20912,7515,,,
1662,439769,L8353182,Owner,SAHLE,ARAYA,7676 NEW HAMPSHIRE AVE STE 321,,TAKOMA PARK,MD,20912,7515,,,
1663,854968,YME0729156,Insured,GRACE S,LEE,7738 RIVER ROCK WAY,,COLUMBIA,MD,21044,,4109607270,(410) 960-7270,
1664,831421,4170006108,Insured,PAMELA,WEISSMAN,7802 CROSS LAND RD,,PIKESVILLE,MD,21208,,4102150889,(410) 215-0889,npweissman@msn.com
1665,841606,4170007081,Insured,NEIL,WEISSMAN,7802 CROSSLAND RD,,PIKESVILLE,MD,21208,,,,
1666,814187,YME0168358,Insured,JAMES B,HALL,7822 TITAN CT,,PASADENA,MD,21122,,,,
1667,824521,4180134365,Insured,JEREMY,WALDSTREICHER,7823 HEATHERTON LN,,POTOMAC,MD,20854,,,,JEREMYWALDSTREICHER@GMAIL.COM
1668,817230,YME1906760,Insured,JEREMY,WALDSTREICHER,7823 HEATHERTON LN,,POTOMAC,MD,20854,,,,JEREMYWALDSTREICHER@GMAIL.COM
1669,836611,181167016,Insured,MATTHEW,FREDERICK,79 APPLETON RD,,AUBURN,MA,1501,,,,
1670,859032,181761915,Insured,JEFFREY,NIEMIRA,79 FINN RD,,HARVARD,MA,1451,,,,
1671,827683,180475418,Insured,JOEY,JONES,7906 DOUBLE CREEK CT,,SPRINGFIELD,VA,22153,,,,joeyjayjones@gmail.com
1672,955111,AA6131874,Insured,LAURENT,GIVRY,7907 FROST CRYSTAL CT,,FAIRFAX STA,VA,22039,2503,,,LAURENTG@SBCGLOBAL.NET
1673,2267291,TU5496712,Owner,JOEL,SUNSHINE,7913 IVY LANE,,BALTIMORE,MD,21208,,,,JOEL.SUNSHINE@GMAIL.COM
1674,2394698,4220062515,Owner,SARAH,SUNSHINE,7913 IVY LANE,,Baltimore,MD,21208,,,,
1675,849549,YME0168710,Insured,SUNIL A,LENGADE,7918 EAGLE VIEW DR,,CHESAPEAK BCH,MD,20732,,,,
1676,841231,TU5254813,Insured,DENISE,BACON,7922 LYNBROOK DR,,BETHESDA,MD,20814,4622,5854514246,(585) 451-4246,
1677,854804,4190142755,Insured,JONATHAN,SONNENBLICK,7940 STEVENSON ROAD,,Baltimore,MD,21208,,,,
1678,857682,180644580,Insured,ALAN,KRAMER,8 NORTH WOODLEIGH DR,,CHERRY HILL,NJ,8003,,8563048341,(856) 304-8341,
1679,848685,180654418,Insured,THOMAS,LARSON,800 DAVID DR,,ARNOLD,MD,21012,,4432230261,(443) 223-0261,carpentertom39@yahoo.com
1680,440804,L9243532,Insured,DOUGLAS,MULLER,800 LAYFIELD RD,,PERKIOMENVLLE,PA,18074,9523,,,dnmuller@comcast.net
1681,907152,181062594,Insured,JOHN,ASHWORTH,800 MAPLE FLATS TERR,,PURCELLVILLE,VA,20132,,4349964172,(434) 996-4172,jashworth3@aol.com
1682,860112,181062590,Insured,NANCY,ASHWORTH,800 MAPLE FLATS TERRACE,,PURCELLVILLE,VA,20132,,,,
1683,929059,UME215650L,Insured,MADELINE,FOX,800 SOUTHERLY RD APT 1601,,TOWSON,MD,21286,8423,,,
1684,441028,V2593370,Insured,THOMAS,OLSON,8018 ROWLAND AVE,,PHILADELPHIA,PA,19136,2208,,,
1685,807860,180674006,Insured,MEREDITH,CARRILLO,806 CEDAR DAY DRIVE,,BEL AIR,MD,21015,,,,
1686,807859,180670532,Insured,NICHOLAS,CARRILLO,806 CEDAR DAY DRIVE,,BEL AIR,MD,21015,,,,ncarrillo@finishingcontractors.org
1687,813438,UME164485L,Insured,GREGORY,HARE,809 HIGHLAND AVE,,CUMBERLAND,MD,21502,,8643541981,(864) 354-1981,
1688,816716,180833741,Insured,HILLEL,SHAPS,809 HILLSBORO DR,,SILVER SPRING,MD,20902,,,,jmx600@yahoo.com
1689,881583,4190167562,Insured,GARY,PARSONS,809 HUBBARD LN,,Severn,MD,21144,,,,
1690,831798,YME0849754,Insured,KIMBERLY A,ROESNER,809 KAREN DR,,KINGSVILLE,MD,21087,,4434210386,(443) 421-0386,
1691,811676,YME0849755,Insured,TODD W,ROESNER,809 KAREN DR,,KINGSVILLE,MD,21087,,,,troesner@gmail.com
1692,832960,T400336086,Insured,BRANDON,PETRY,810 MILL CREEK ROAD,,ARNOLD,MD,21012,,,,brandon@revolutionbuildingsupply.com
1693,808976,TU3116952,Insured,PATRICIA,MINGER,8116 THORNTON RD,,BALTIMORE,MD,21204,1837,,,
1694,808976,TU3116952,Owner,PATRICIA,MINGER,8116 THORNTON RD,,BALTIMORE,MD,21204,1837,,,
1695,822723,180824861,Insured,RYAN,REDMOND,8128 RYERS AVE,FIRST FLOOR,PHILADELPHIA,PA,19111,,,,
1696,859337,YME0848886,Insured,JERALD D,LINNELL,8175 BAYSIDE DR,,Pasadena,MD,21122,,4438672524,(443) 867-2524,MOUSE_9999@HOTMAIL.COM
1697,921487,T400116503,Insured,EZRA,SHABI,8200 ARODENE RD,,PIKESVILLE,MD,21208,1818,,,ezra.sh@hotmail.com
1698,886969,181052102,Insured,JAMES,CAHILL,8201 CARAWAY STREET,,CABIN JOHN,MD,20818,,3013570093,(301) 357-0093,
1699,900663,YME0371609,Insured,LORI,FRANK,8206 ANITA RD,,PIKESVILLE,MD,21208,,,,lori.frank@comcast.net
1700,844235,180987010,Insured,ERIK,CARR,821 MAYFAIR WAY,,ELDERSBURG,MD,21784,,,,neoschiz@gmail.com
1701,886865,TU3129982,Insured,BARNABAS,DOMOWSKI,8236 OLD MILL RD,,PASADENA,MD,21122,1206,,,
1702,819653,TU3129983,Insured,NICOLE,DOMOWSKI,8236 OLD MILL RD,,PASADENA,MD,21122,1206,,,
1703,816080,180835088,Insured,JORDAN,BOYD,824 LAFAYETTE AVE.,,CUMBERLAND,MD,21502,,,,
1704,843091,181401489,Insured,ADAM,GRINIUSZ,825 WEST MAIN STREET,,LANSDALE,PA,19446,,,,
1705,861434,UME164236L,Insured,ANURADHA,PATEL,826 STABLE MANOR RD,,REISTERSTOWN,MD,21136,,,,
1706,2686309,L7192093,Insured,KEVIN,GUEVARA,8302 SINGLETON TER,,MANASSAS,VA,20109,8203,,,
1707,2686309,L7192093,Owner,KEVIN,GUEVARA,8302 SINGLETON TER,,MANASSAS,VA,20109,8203,,,
1708,825959,4189740014,Insured,JOHN,GRABLE,8307 PAWNEE DRIVE,,Mount Airy,MD,21771,,2039063489,(203) 906-3489,johng@mautilities.com
1709,825959,4189740014,Owner,JOHN,GRABLE,8307 PAWNEE DRIVE,,Mount Airy,MD,21771,,2039063489,(203) 906-3489,johng@mautilities.com
1710,873137,180624751,Insured,JAMES,STEWART,8325 FROSTWOOD DR,,LAUREL,MD,20724,,,,
1711,825895,180624752,Insured,KINYA,STEWART,8325 FROSTWOOD DR,,LAUREL,MD,20724,,3017580531,(301) 758-0531,
1712,818076,180288976,Insured,EMORY,QUIGLEY,8337 MIDDLETON CIRCLE,,HARRISBURG,NC,28075,,,,
1713,896819,B00935422,Insured,JOSEPH,THOMAS,8363 TAMAR DR APT 845,,COLUMBIA,MD,21045,5893,,,
1714,438463,9571331,Owner,,,8420 GAS HOUSE PIKE,UNIT B,FREDERICK,MD,21701,4972,,,
1715,438470,9571853,Owner,,,8420 GAS HOUSE PIKE,UNIT B,FREDERICK,MD,21701,4972,,,
1716,438469,9571853,Owner,,,8420 GAS HOUSE PIKE,UNIT B,FREDERICK,MD,21701,4972,,,
1717,438462,9571331,Owner,,,8420 GAS HOUSE PIKE,UNIT B,FREDERICK,MD,21701,4972,,,
1718,813633,YME0487502,Insured,KATHERINE P,GILLIS,8424 TERRY LEE WAY,,SEVERN,MD,21144,,,,
1719,2684683,TU5567012,Insured,EDWARD,NWAZE,8458 CHARMED DAYS,,LAUREL,MD,20723,5610,,,
1720,2684683,TU5567012,Owner,EDWARD,NWAZE,8458 CHARMED DAYS,,LAUREL,MD,20723,5610,,,
1721,809418,YME0729339,Insured,MEGAN M,ABBRUZZESE,8511 COUNTRY BROOKE WAY,,LUTHERVILLE,MD,21093,,4438035239,(443) 803-5239,mmcclure99@live.com
1722,852532,YME0729340,Insured,RICHARD A,ABBRUZZESE,8511 COUNTRY BROOKE WAY,,LUTHVLE TIMON,MD,21093,,4107909050,(410) 790-9050,RICK_ABBRUZZESE@HOTMAIL.COM
1723,852727,YME0372544,Insured,JEFFREY S,MILLER,8525 RAPLEY PRESERVE CIR,,POTOMAC,MD,20854,,,,
1724,831987,UME215983L,Insured,DEBORAH,SNOVELL,8570 NORTHBEND RD,,EASTON,MD,21601,,3108715521,(310) 871-5521,dsnovell@gmail.com
1725,2833115,5000411812,Insured,JOSEPH,CERTO III,86 HUNTERS RUN,,NEWTOWN SQUARE,PA,19073,,6103566751,(610) 356-6751,
1726,2833115,5000411812,Owner,JOSEPH,CERTO III,86 HUNTERS RUN,,NEWTOWN SQUARE,PA,19073,,6103566751,(610) 356-6751,
1727,440164,L9026278,Insured,MICHELLE,MC GLOTHIN,8604 CONCORD DR,,JESSUP,MD,20794,9242,,,
1728,440167,L9026278,Insured,MICHELLE,MC GLOTHIN,8604 CONCORD DR,,JESSUP,MD,20794,9242,,,
1729,889359,4170127014,Insured,MANUEL,PEREZ,8606 beechnut court,,Ellicott City,MD,21043,,9087212438,(908) 721-2438,manueleperezcr@gmail.com
1730,842939,4170127015,Insured,BRENDA,PLUMACHER PEREZ,8606 BEECHNUT CT,,Ellicott City,MD,21043,,9084218527,(908) 421-8527,
1731,842939,4170127015,Owner,BRENDA,PLUMACHER PEREZ,8606 BEECHNUT CT,,Ellicott City,MD,21043,,9084218527,(908) 421-8527,
1732,826637,YME0168604,Insured,RODRIGO P,VALLAR,8615 RIDGELYS CHOICE DR STE 209,,NOTTINGHAM,MD,21236,,,,
1733,864690,181222484,Insured,MICHAEL,KING,8618 FERNDALE ST,,PHILADELPHIA,PA,19115,,,,
1734,859892,180977898,Insured,ASHLEY,HARLEY,8621 STEEPLE DRIVE,,PHILADELPHIA,PA,19128,,,,
1735,919389,181154246,Insured,HOWARD,LYONS,8630 MOUNT HOPE ROAD,,CHESTERTOWN,MD,21620,,,,
1736,919389,181154246,Owner,HOWARD,LYONS,8630 MOUNT HOPE ROAD,,CHESTERTOWN,MD,21620,,,,
1737,438257,9526378,Owner,EDUARDO,CASTILLO DEL CASTILLO,8662 TOWER DR,,LAUREL,MD,20723,1244,,,
1738,831224,181262039,Insured,YULIA,SLONOVA,8711 SUMMIT CIR,,FOGELSVILLE,PA,18051,,6096022140,(609) 602-2140,
1739,436737,4859219,Owner,THOMAS,WRIGHT,8723 MITCHELL RD,,LA PLATA,MD,20646,2859,,,jayyneen@yahoo.com
1740,436758,4865388,Owner,THOMAS,WRIGHT,8723 MITCHELL RD,,LA PLATA,MD,20646,2859,,,jayyneen@yahoo.com
1741,937476,YME0168735,Insured,CRISTI L,MYERS,880 GAMING SQ,,HAMPSTEAD,MD,21074,,4433756048,(443) 375-6048,night_owl114@yahoo.com
1742,937476,YME0168735,Owner,CRISTI L,MYERS,880 GAMING SQ,,HAMPSTEAD,MD,21074,,4433756048,(443) 375-6048,night_owl114@yahoo.com
1743,847279,180390031,Insured,MICHELLE,WOODS-LONG,8817 SUMNER GROVE DR,,LAUREL,MD,20708,,3102100204,(310) 210-0204,
1744,847279,180390031,Owner,MICHELLE,WOODS-LONG,8817 SUMNER GROVE DR,,LAUREL,MD,20708,,3102100204,(310) 210-0204,
1745,826665,TU5240658,Insured,CHARLENE,WORKMEISTER,8833 BAILEYS CT,,PERRY HALL,MD,21128,8815,4437990222,(443) 799-0222,
1746,437685,6782499,Owner,DANIEL,WORKMEISTER,8833 BAILEYS CT,,PERRY HALL,MD,21128,8815,,,
1747,437686,6782499,Owner,DANIEL,WORKMEISTER,8833 BAILEYS CT,,PERRY HALL,MD,21128,8815,,,
1748,858792,YME0847862,Insured,JONATHAN E,ZEIGLER,884 MOUNTAIN RD,,PAXINOS,PA,17860,,5702596781,(570) 259-6781,
1749,927032,YME1906974,Insured,THOMAS,POUNTNAY,8846 DOVES FLY WAY,,LAUREL,MD,20723,,4103204849,(410) 320-4849,
1750,920820,YME0487955,Insured,DUANE,ARCHER,8850 COLUMBIA 100 PKWY STE 312,,COLUMBIA,MD,21045,,,,
1751,836571,YME0487954,Insured,KAREN,WILLIAMS-ARCHER,8850 COLUMBIA 100 PKWY STE 312,,COLUMBIA,MD,21045,,,,
1752,869677,YM00167438,Insured,JASON F,SEALING,8903 WINGED FOOT DR,,PASADENA,MD,21122,,4438648277,(443) 864-8277,jsealing@verizon.net
1753,438645,9602965,Owner,MICHELLE,BONNEAU,892 CRONIN RD,,WARREN,MA,1083,,,,
1754,2545254,T400434298,Insured,MARTIN,JACOBS,8927 JAMESON ST,,LORTON,VA,22079,3113,,,
1755,439616,L9585063,Insured,AJIT,SHRESTHA,8972 MORGANS RIDGE DR,,DELMAR,MD,21875,2083,,,
1756,807468,180866798,Insured,WALTER,KING,9 FIVE OAKS COURT,,OWINGS MILLS,MD,21117,,,,
1757,877075,4170132407,Insured,CAROL,MCLANE,9 NESHAMINY DRIVE,,Warminster,PA,18974,,,,
1758,919715,4170132405,Insured,DANIEL,MCLANE,9 NESHAMINY DRIVE,,Warminster,PA,18974,,,,DMCLANE16@VERIZON.NET
1759,849552,181187792,Insured,GARY,STARKS,9 OAKWOOD AVE,,DUDLEY,MA,1571,,5084259106,(508) 425-9106,
1760,1093127,TU5445468,Insured,ANDREW,MILLER,9 PAYNE RD,,NEWTON HLDS,MA,2461,1816,,,
1761,828696,TU5223360,Insured,MICHAEL,WOLMAN,9 RICHMOND HL,,LAGUNA NIGUEL,CA,92677,4773,,,
1762,947430,TU5223362,Insured,MICHAEL,WOLMAN,9 RICHMOND HL,,LAGUNA NIGUEL,CA,92677,4773,,,
1763,436707,4848239,Owner,,,90 PEMBROKE ST,,BOSTON,MA,2118,1208,,,
1764,883045,B00943327,Insured,DAHLIA,REID,901 CREST PARK DR,,SILVER SPRING,MD,20903,1308,3012759202,(301) 275-9202,
1765,822551,YME1906555,Insured,JANET D,BUSS,901 DRAPER RD SW,,BLACKSBURG,VA,24060,,,,
1766,844950,180474324,Insured,BEN,STOMBLER,9039 OLD COURT RD,,WINDSOR MILL,MD,21244,,,,mstombler@gmail.com
1767,823698,TU5391777,Insured,ROBERT,WILSON,904 KENLY AVE,,HAGERSTOWN,MD,21740,6417,,,rwdallas201@gmail.com
1768,900519,TU5391778,Insured,ROBERT,WILSON,904 KENLY AVE,,HAGERSTOWN,MD,21740,,,,rwdallas201@gmail.com
1769,860079,YME0487288,Insured,MATTHEW A,TAYLOR,904 TWIN OAK CT,,FREDERICK,MD,21701,,,,
1770,847325,YME0848920,Insured,TAMARA F,KUSHNIR-GROMAN,9042 SLEEPING BEAR RD,,SKOKIE,IL,60076,,,,
1771,439326,L8242505,Insured,TERRY,SEXTON,905 MOUNT SOMA CT,,FALLSTON,MD,21047,1935,,,
1772,440862,V2021202,Insured,TERRY,SEXTON,905 MOUNT SOMA CT,,FALLSTON,MD,21047,1935,,,
1773,439325,L8242505,Insured,TERRY,SEXTON,905 MOUNT SOMA CT,,FALLSTON,MD,21047,1935,,,
1774,440863,V2021202,Insured,TERRY,SEXTON,905 MOUNT SOMA CT,,FALLSTON,MD,21047,1935,,,
1775,439326,L8242505,Owner,,,905 MOUNT SOMA CT,,FALLSTON,MD,21047,1935,,,
1776,440862,V2021202,Owner,,,905 MOUNT SOMA CT,,FALLSTON,MD,21047,1935,,,
1777,439325,L8242505,Owner,,,905 MOUNT SOMA CT,,FALLSTON,MD,21047,1935,,,
1778,440863,V2021202,Owner,,,905 MOUNT SOMA CT,,FALLSTON,MD,21047,1935,,,
1779,824831,YME0730167,Insured,EDWARD H,CAHILL,9056 MEADOWVALE CT,,ELLICOTT CITY,MD,21042,,3014613771,(301) 461-3771,
1780,2270829,4229575102,Insured,HENRY,CALLEGARY,906 STARBIT RD,,Towson,MD,21286,,,,
1781,2270829,4229575102,Owner,HENRY,CALLEGARY,906 STARBIT RD,,Towson,MD,21286,,,,
1782,897883,UME164297L,Insured,RENEE,COHEN,907 DROHOMER PL,,BALTIMORE,MD,21210,,,,
1783,897883,UME164297L,Owner,,,907 DROHOMER PL,,BALTIMORE,MD,21210,,,,
1784,863289,YME0248745,Insured,CHRISTOPHER C,WINDSOR JR,9079 OAK RIDGE LN,,PLAIN CITY,OH,43064,,,,
1785,835468,YME0728655,Insured,JONATHAN,WALDSTREICHER,91 CARTERET ST,,WEST ORANGE,NJ,7052,,,,
1786,825333,B00872146,Insured,JONATHAN,WALDSTREICHER,91 CARTERET ST,,WEST ORANGE,NJ,7052,,,,
1787,835469,YME1326324,Insured,JONATHAN R,WALDSTREICHER,91 CARTERET ST,,WEST ORANGE,NJ,7052,,2032493078,(203) 249-3078,
1788,835470,YME0728654,Insured,SHIRA E,MARGOLIES,91 CARTERET ST,,WEST ORANGE,NJ,7052,,,,
1789,942314,YME1325626,Insured,KEVIN G,TAYLOR,9104 GUILFORD RD STE 1D,,COLUMBIA,MD,21046,,,,
1790,852725,YME1325635,Insured,SARA,SATERI,9104 GUILFORD RD STE 1D,,COLUMBIA,MD,21046,,,,
1791,833550,180442505,Insured,MARK,RAYDER,9106 CHICKAWANA CT,,ALEXANDRIA,VA,22309,,8043340281,(804) 334-0281,
1792,892468,180782731,Insured,CLINTON,CARPENTER,911 WELLINGTON RD,,BALTIMORE,MD,21212,,4438465800,(443) 846-5800,
1793,840882,YME0248688,Insured,BOBBY C,HOLDERBY,9122 AVENUE B,,SPARROWS PT,MD,21219,,,,
1794,925957,YME0248687,Insured,C RITA,HOLDERBY,9122 AVENUE B,,SPARROWS PT,MD,21219,,,,
1795,936377,181138497,Insured,DAVID,SLAGLE-PECK,9131 BRADFORD ROAD,,SILVER SPRING,MD,20901,,6052919200,(605) 291-9200,
1796,936376,180447400,Insured,DAVID,SLAGLE-PECK,9131 BRADFORD ROAD,,SILVER SPRING,MD,20901,,6052919200,(605) 291-9200,
1797,871585,181138500,Insured,JENNIFER,SLAGLE PECK,9131 BRADFORD ROAD,,SILVER SPRING,MD,20901,,,,
1798,871586,180447403,Insured,JENNIFER,SLAGLE PECK,9131 BRADFORD ROAD,,SILVER SPRING,MD,20901,,,,
1799,854682,TU5409938,Insured,ADINA,TUROFF,915 LAMBERTON DR,,SILVER SPRING,MD,20902,3040,,,
1800,859651,YME0487621,Insured,CLARENCE B,HOPE,916 HOLLYWOOD AVE,,SILVER SPRING,MD,20904,,3012210282,(301) 221-0282,
1801,896816,UME502119L,Insured,ROBERT,BLITZSTEIN,917 VALENCIA CT,,BALTIMORE,MD,21230,3968,,,
1802,848647,YME1906825,Insured,ROBERT J,BLITZSTEIN,917 VALENCIA CT,,BALTIMORE,MD,21230,,7574039028,(757) 403-9028,BLITZSTEIN@MSN.COM
1803,909803,UM0072474L,Insured,DONALD,THOMAS,9208 BRADFORD RD,,SILVER SPRING,MD,20901,,5127570684,(512) 757-0684,
1804,875843,B00731764,Insured,DONALD,THOMAS,9208 BRADFORD RD,,SILVER SPRING,MD,20901,,5127570684,(512) 757-0684,
1805,808309,YME0168984,Insured,WILLIAM A,SPARR,922 PINE RD,,JOPPA,MD,21085,,,,mdbayfish@yahoo.com
1806,815976,180655683,Insured,RITU,TIWARI,923 LIDO LANE,,FOSTER CITY,CA,94404,,,,
1807,940103,UL10018480,Insured,FREDERICK R,DAHLIN,9243 BROKEN TIMBER WAY,,COLUMBIA,MD,21045,,,,dahlinrr@gmail.com
1808,848526,UME215584L,Insured,PATTI,DAHLIN,9243 BROKEN TIMBER WAY,,COLUMBIA,MD,31045,,4437457244,(443) 745-7244,
1809,848526,UME215584L,Owner,PATTI,DAHLIN,9243 BROKEN TIMBER WAY,,COLUMBIA,MD,31045,,4437457244,(443) 745-7244,
1810,440391,L8430639,Insured,CHARLES,LENFEST,926 RIVERVIEW TER,,ST MICHAELS,MD,21663,2950,,,
1811,440395,L8430757,Insured,SUSAN,LENFEST,926 RIVERVIEW TER,,ST MICHAELS,MD,21663,2950,,,sblenfest@gmail.com
1812,441051,V2604041,Insured,SANDRA,VASILE,93 N MAIN ST,,GENEVA,NY,14456,1663,,,
1813,834356,YME0849770,Insured,DANIEL J,NETH,9311 HIGH BANKS DR,,EASTON,MD,21601,,2404093165,(240) 409-3165,djneth1@gmail.com
1814,823305,YME0487455,Insured,SYED I,SHAUKAT,938 FENAIRO CIRCLE,,BEL AIR,MD,21015,,,,REHAN73@HOTMAIL.COM
1815,816087,B00996457,Insured,STEVEN,HORNE,940 GILBERT RD,,ABERDEEN,MD,21001,,,,
1816,935504,B01000145,Insured,STEVEN,HORNE,940 GILBERT RD,,ABERDEEN,MD,21001,1211,,,
1817,889053,181303788,Insured,BRIAN,KECK,940 WITMER RD,,YORK,PA,17406,,,,keckbr@hotmail.com
1818,441146,L9395381,Insured,WEI,CUI,9404 WOODINGTON DR,,POTOMAC,MD,20854,2059,,,
1819,441145,L9395381,Insured,WEI,CUI,9404 WOODINGTON DR,,POTOMAC,MD,20854,2059,,,
1820,908401,4210024660,Insured,PAULA,TRZECIAK,943 FENARIO CR,,BEL AIR,MD,21015,,,,paula@asr-solutions.com
1821,2353801,4220031616,Insured,MATTHEW,LOWRIE,9441 KILIMANJARO RD,,Columbia,MD,21045,,,,
1822,2353801,4220031616,Owner,MATTHEW,LOWRIE,9441 KILIMANJARO RD,,Columbia,MD,21045,,,,
1823,827285,180611330,Insured,JOSEPH,DAUNER,950 PARASOL PL,,OVIEDO,FL,32766,,4046648318,(404) 664-8318,
1824,858863,TU5286205,Insured,BRADEN,DEUTSCH,9504 HOLLINS CT,,BETHESDA,MD,20817,2322,,,
1825,841501,YME1715614,Insured,BRADEN C,DEUTSCH,9504 HOLLINS CT,,BETHESDA,MD,20817,,,,
1826,894450,B00996459,Insured,HILARY,DEUTSCH,9504 HOLLINS CT,,BETHESDA,MD,20817,2322,,,
1827,945411,YME1326157,Insured,HILARY,DEUTSCH,9504 HOLLINS CT,,BETHESDA,MD,20817,,,,
1828,2261085,L7140665,Insured,KARL,ZEREN,9515 DEERECO RD STE 308,,TIMONIUM,MD,21093,2152,,,
1829,2261085,L7140665,Owner,KARL,ZEREN,9515 DEERECO RD STE 308,,TIMONIUM,MD,21093,2152,,,
1830,814015,181166610,Insured,MARILYN,BROWN,9604 EAGLE COURT,,ELLICOTT CITY,MD,21042,,4438643466,(443) 864-3466,
1831,820511,YME0728589,Insured,ERIC C,BROWN,9604 EAGLE CT,,ELLICOTT CITY,MD,21042,,,,ebrown62@comcast.net
1832,865256,YME0168722,Insured,WARREN A,SENEZ JR,962 HOMBERG AVE,,ESSEX,MD,21221,,,,
1833,875845,UM0072475L,Insured,RUKMINI,KONATALAPALLI,9656 IRON LEAF TRAIL,,LAUREL,MD,20723,,,,
1834,863267,4170033652,Insured,ALEC,ANDERS,9715 MEDICAL CENTER DR STE 321,,Rockville,MD,20850,,,,
1835,440921,V2174900,Owner,C/O COMPANY OFFICER,,9716 PULASKI HWY,,BALTIMORE,MD,21220,1408,,,
1836,440920,V2174900,Owner,C/O COMPANY OFFICER,,9716 PULASKI HWY,,BALTIMORE,MD,21220,1408,,,
1837,816912,YME1907105,Owner,,,981 COLONIAL DR,,Mount Pleasant,SC,29464,,,,
1838,437582,6755177,Owner,EDWIN,ZAJDEL,9811 MARTHAS LANDING RD,,OCEAN CITY,MD,21842,9233,8025780966,(802) 578-0966,
1839,437581,6755177,Owner,EDWIN,ZAJDEL,9811 MARTHAS LANDING RD,,OCEAN CITY,MD,21842,9233,8025780966,(802) 578-0966,
1840,439952,L8965907,Insured,VENKATARAMAN,CHANDAR,9812 KORMAN CT,,POTOMAC,MD,20854,2042,,,
1841,439952,L8965907,Owner,VENKATARAMAN,CHANDAR,9812 KORMAN CT,,POTOMAC,MD,20854,2042,,,
1842,843999,UME164133L,Insured,ROBERT,ZOLLER,99-116 LILIKOI PL,,AIEA,HI,96701,4005,2142083514,(214) 208-3514,r_zoller@yahoo.com
1843,843999,UME164133L,Owner,ROBERT,ZOLLER,99-116 LILIKOI PL,,AIEA,HI,96701,4005,2142083514,(214) 208-3514,r_zoller@yahoo.com
1844,814056,T400061306,Insured,THOMAS,MAZICH,9901 WINDY HOLLOW ROAD,,GREAT FALLS,VA,22066,,,,
1845,860075,YM00092418,Insured,DIONY E,GLOVA,9947 HALDEMAN AVE,,PHILADELPHIA,PA,19115,,5626738673,(562) 673-8673,
1846,815756,YM00082954,Insured,GUDULA Z,GLOVA,9947 HALDEMAN AVE,,PHILADELPHIA,PA,19115,,,,goldie9947@gmail.com
1847,815756,YM00082954,Owner,GUDULA Z,GLOVA,9947 HALDEMAN AVE,,PHILADELPHIA,PA,19115,,,,goldie9947@gmail.com
1848,941587,180305095,Insured,SCOTT,MORRIS,P.O. BOX 322,,WHITEFORD,MD,21160,,4434976135,(443) 497-6135,
1849,819718,180550407,Insured,LAURIE,COHN,P.O. BOX 3396,603 OLD GRANDE STREET,DILLON,CO,80435,,4107463789,(410) 746-3789,
1850,942139,YME1906571,Insured,GEORGE M,WALISH,PO BOX 101,,OXFORD,MD,21654,,,,
1851,924021,YME0372396,Insured,ADAM V,STUMP,PO BOX 1970,,ROMNEY,WV,26757,,,,
1852,871018,YME0371243,Insured,ZANNA K,STUMP,PO BOX 1970,,ROMNEY,WV,26757,,,,
1853,808624,180274676,Insured,GORDON,ZORN,PO BOX 277,,MONKTON,MD,21111,,,,
1854,927471,180278305,Owner,ANDREW JOSEPH - TRUSTEE,,PO BOX 3396,,DILLON,CO,80435,,,,
1855,819718,180550407,Owner,ANDREW JOSEPH - TRUSTEE,,PO BOX 3396,,DILLON,CO,80435,,,,
1856,439530,L8819677,Owner,,,PO BOX 3396,,DILLON,CO,80435,3396,,,
1857,439532,L8819677,Owner,,,PO BOX 3396,,DILLON,CO,80435,3396,,,
1858,924020,YME0372393,Insured,ADAM V,STUMP,PO BOX 392,,ROMNEY,WV,26757,,,,adamandmis@hotmail.com
1859,816785,T400165440,Insured,RICHARD L,BURTNER,PO BOX 538,,IRON STATION,NC,28080,,7034724707,(703) 472-4707,
1860,847098,TU3135751,Insured,AMIR,ZAHIR,PO BOX 57,,HUGHESVILLE,MD,20637,57,3017525004,(301) 752-5004,
1861,847098,TU3135751,Owner,AMIR,ZAHIR,PO BOX 57,,HUGHESVILLE,MD,20637,57,3017525004,(301) 752-5004,
1862,844053,YME0371937,Insured,JOHNNY R,CROUSE,PO BOX 5820,,DARLINGTON,MD,21034,,,,
1863,898855,180631875,Insured,JANE,FLUHARTY,PO BOX 623,,RINDGE,NH,3461,,,,jfluharty1@comcast.net
1864,808770,YM00630767,Insured,CHARLES A,ROEPKE,PO BOX 699,,FORSYTH,MT,59327,,,,
1865,895024,180485636,Insured,CYNTHIA,ROBESON,PO BOX 773,,DAVIS,WV,26260,,,,
1866,807014,YME0729333,Insured,TRACY F,CAPRON,PO BOX 968,,OLD FORGE,NY,13420,,,,
1867,816086,B01004009,Insured,JOHN,HORNE,PO BOX 9773,,BALDWIN,MD,21013,773,,,john.horne@outlook.com